NAME,TYPE,COORDINATES,SCHEDULE,ADDRESS,LOCALITY,POSTALCODE,TELEPHONE,EMAIL,ACCESSIBILITY
Arte Público (Museo al Aire Libre de la Castellana),Monumentos.csv,"40.433219398671156, -3.6876122680805956",,Paseo Castellana,Madrid,28046,917 011 863  / 915 782 722 (información en Museo de Historia),smuseosm@madrid.es,1
Banco de España,Monumentos.csv,"40.4188339187439, -3.69482107480432",,Calle Alcala,Madrid,28014,913 385 000 (centralita),sedeelectronica@bde.es,0
Basílica Pontificia de San Miguel,Monumentos.csv,"40.414176133786185, -3.7096713067224494",,Calle San Justo,Madrid,28012,915 484 011,,0
Biblioteca Nacional de España,Monumentos.csv,"40.42299290045965, -3.690844141741069",,Paseo Recoletos,Madrid,28001,"915 807 800                                                                 
                                                                 
",acceso@bne.es,0
Bolsa de Madrid,Monumentos.csv,"40.41687675488164, -3.692184230357612",,Plaza Lealtad,Madrid,28014,"917 095 000 (Bolsas y mercados españoles, centralita)     
915 891 162 / 915 891 020 (Visitas)          
915 891 659 (Atención al inversor)   
",info@bolsamadrid.es,0
Casa de América,Monumentos.csv,"40.419749969504096, -3.6922961903054348",,Plaza Cibeles,Madrid,28014,915 954 800 (información) / 915 775 955 (reservas para el restaurante),,1
Casa de Cisneros,Monumentos.csv,"40.41490075227339, -3.7105039839947347",,Plaza Villa,Madrid,28005,915 882 900,,0
Casa de La Panadería,Monumentos.csv,"40.41583855082183, -3.7074257084323636",,Plaza Mayor,Madrid,28012,,,0
Casa de La Villa. Casas Consistoriales del Ayuntamiento de Madrid,Monumentos.csv,"40.41518829867041, -3.7106248754622504",,Plaza Villa,Madrid,28005,91 588 10 00,,0
Casa de Las Siete Chimeneas,Monumentos.csv,"40.42020264263883, -3.6964264776282376",,Plaza Rey,Madrid,28004,,,0
Casa de Velázquez,Monumentos.csv,"40.441004632294984, -3.729986585991103",,Calle Paul Guinard,Madrid,28040,914 551 580,,0
Casa Gallardo,Monumentos.csv,"40.42313906088499, -3.7142331718938713",,Calle Ferraz,Madrid,28008,S/T,,0
Casa Ruiz de Velasco,Monumentos.csv,"40.41635483593255, -3.705498066513785",,Calle Mayor,Madrid,28013,S/T,,0
Casón del Buen Retiro,Monumentos.csv,"40.415263749471535, -3.689232811717636","  Mañanas    De lunes a jueves, de 9 a 15 horas. (Servicio de libros y otros materiales hasta las 14:30 horas)   Viernes, de 9 a 14:30 horas. (Servicio de libros y otros materiales hasta las 14 horas)     Tardes.  Lunes y miércoles, de 15 a 18 horas. (Servicio de libros y otros materiales hasta las 17:30 horas)   Horario de verano     Desde el 16 de junio al 15 de septiembre  Lunes a viernes, de 9 a 14:30 horas   ",Calle Alfonso Xii,Madrid,28014,902 107 077,biblioteca@museodelprado.es,0
Castillo de la Alameda,Monumentos.csv,"40.45835460563491, -3.5932903820278788","  De abril a septiembre: sábados, domingos y festivos de 10 a 21 horas  De octubre a marzo: sábados, domingos y festivos de 10 a 18 horas  Cerrado los días 1 de enero, 1 de mayo y 25 de diciembre  ",Calle Antonio Sancha,Madrid,28042,"913 667 415                                     
",castilloalameda@madrid.es,0
Catedral Santa María la Real de la Almudena,Monumentos.csv,"40.415538770017406, -3.7136931154460564",,Calle Bailen,Madrid,28013,915 422 200,,0
Centro Conde Duque,Monumentos.csv,"40.427938443518215, -3.710240346719518",  Exposiciones (entrada gratuita)    De martes a sábado de 10 a 14 y de 17:30 a 21 horas.  Domingos y festivos de 10:30 a 14 horas.  ,Calle Conde Duque,Madrid,28015,,,1
Centro de Estudios Políticos y Constitucionales,Monumentos.csv,"40.42062746021054, -3.712462039050617",De lunes a viernes de 9 a 14 horas,Plaza Marina Española,Madrid,28013,915 401 950,cepc@cepc.es,0
Centro Social y Cultural la Casa Encendida,Monumentos.csv,"40.40595710517701, -3.699779793558763","  De lunes a domingo de 10 a 22 horas (todos los días del año, excepto festividades nacionales y de la Comunidad de Madrid)  Exposiciones: de 10 a 21:45 horas  ",Ronda Valencia,Madrid,28012,"902 430 322                                 
",casaencendida@cajamadrid.es,1
Círculo de Bellas Artes,Monumentos.csv,"40.418417756198565, -3.6966084554513072",   Administración : de lunes a viernes de 9 a 14 horas y de 15 a 18 horas.   Salas de exposiciones:  de martes a sábados de 11 a 14 y de 17 a 21 y domingos de 11 a 14 horas.   Biblioteca:  de lunes a domingo de 9 a 22 horas.   Cafetería:  de 9 a 1 y viernes y sábados hasta las 3 horas.   Visitas a la azotea:  de 11 a 15 y de 16 a 21 (horario sujeto a cambios).  ,Calle Alcala,Madrid,28014,"913 605 400 (Información general)                                    
",info@circulobellasartes.com,1
Claustro de San Jerónimo el Real (Los Jerónimos),Monumentos.csv,"40.414346084679714, -3.6905317543061407",,Calle Moreto,Madrid,28014,"91 420 35 78&#13;
",,0
Congreso de los Diputados,Monumentos.csv,"40.4167808804755, -3.7021078717452145",,Carrera San Jeronimo,Madrid,28014,913 906 296,informacion@congreso.es,1
Consejo de Estado,Monumentos.csv,"40.4149668099875, -3.7129445136801347",,Calle Mayor,Madrid,28013,915 166 240 / 915 166 241 (asuntos en tramitación),consultas@consejo-estado.es,0
Convento de las Comendadoras de Santiago,Monumentos.csv,"40.4273968151307, -3.708949668437218",,Plaza Comendadoras,Madrid,28015,91 548 18 42,,0
Edificio España,Monumentos.csv,"40.42313245069324, -3.7109206552237386",,Plaza España,Madrid,28008,S/T,,0
Ermita de San Antonio de la Florida (Museo),Monumentos.csv,"40.425256682855846, -3.725725718176111","  De martes a domingos y festivos de 9:30 a 20 horas.   Cerrado  los lunes, incluidos festivos y días 1 de enero, 1 de mayo y 25 de diciembre.   Último pase de visita:  20 minutos antes del cierre (el desalojo de las salas comenzará 10 minutos antes)   Por motivos de conservación, el aforo máximo es de 50 personas en el interior de la capilla.  Este horario y la apertura de salas pueden sufrir modificaciones, por favor, confírmelo en el teléfono de información del museo.  ",Glorieta San Antonio De La Florida,Madrid,28008,"915 420 722 / 917 011 863                                                                                        
",sanantonio@madrid.es,0
Ermita de Santa María la Antigua,Monumentos.csv,"40.380299379931614, -3.741676977905724",,Calle Monseñor Oscar Romero,Madrid,28025,914 628 536 (Parroquia de San Sebastián Mártir),,0
Ermita Virgen del Puerto,Monumentos.csv,"40.415529465212515, -3.7210007944369834",,Paseo Virgen Del Puerto,Madrid,28005,,,0
Estación Ferroviaria Madrid Puerta de Atocha,Monumentos.csv,"40.409567615732286, -3.692651480759636"," Horario de la estación: de 5 a 1 horas  Horario de atención al cliente: de 6:30 a 22:30 horas  Horario de información: de 6:30 a 22:30 horas  Venta inmediata de billetes: de 5:30 a 22:30 horas  Venta anticipada de billetes: de Lunes a Viernes, excepto festivos: de 10 a 20 horas  Horario recogida Venta Telefónica: de 5:30 a 22:30 horas  Máquinas autoventa multiproducto: de 5:30 a 23:50 horas  Horario consignas: de 5:30 a 22:20 horas ",Plaza Emperador Carlos V,Madrid,28012,"902 432 343 (Información de estaciones) /                      
902 320 320 (Renfe: información, reserva, venta, cambio y anulación de billetes) /                      
902 240 505 (Viajeros con discapacidad) ",,1
Filmoteca Española,Monumentos.csv,"40.41231195969282, -3.7021792836496275", Biblioteca: de lunes a viernes de 9:30 a 14 horas ,Calle Magdalena,Madrid,28012,914 672 600,filmoteca@mcu.es,0
Fundación de la Cámara de Comercio e Industria de Madrid,Monumentos.csv,"40.413979743685495, -3.700511154527751",,Calle Huertas,Madrid,28012,,,0
Fundación de los Ferrocarriles Españoles (Palacio de Fernán Núñez),Monumentos.csv,"40.40981202127939, -3.6969557849817534",,Calle Santa Isabel,Madrid,28012,"915 276 172      
",fugeu01@ffe.es,0
Galeria de Cristal del Palacio de Cibeles,Monumentos.csv,"40.418291440980205, -3.69213979278398", Domingos y festivos de 10 a 20 horas ,Calle Montalban,Madrid,28014,915 132 689,eventos.palaciodecibeles@madridarteycultura.es ,0
Iglesia Arzobispal Castrense,Monumentos.csv,"40.414889947123754, -3.7122600779776733",,Calle Sacramento,Madrid,28005,915 473 524,,0
Iglesia Corpus Christi (Jerónimas Recoletas),Monumentos.csv,"40.41481486646874, -3.7098194568632374",,Plaza Conde De Miranda,Madrid,28005,915 483 701,,0
Iglesia de las Calatravas (Concepción Real de Calatrava),Monumentos.csv,"40.418196333786035, -3.698963613858259",,Calle Alcala,Madrid,28014,915 218 035,,0
Iglesia Madres Redentoristas,Monumentos.csv,"40.37319952563821, -3.755699003858804",,Calle Madre Celeste,Madrid,28044,915 086 800,,0
Iglesia Monasterio de San Plácido,Monumentos.csv,"40.42281129334709, -3.704516383221761",,Calle San Roque,Madrid,28004,915 317 999,,0
Iglesia San Antonio de los Alemanes,Monumentos.csv,"40.42195996338601, -3.7022913826706088",,Calle Puebla,Madrid,28004,915 223 774,,0
Iglesia San Ildefonso (Monasterio de las Trinitarias Descalzas),Monumentos.csv,"40.41367254153843, -3.6976792276700987",,Calle Lope De Vega,Madrid,28014,914 295 671,,0
Iglesia San Pedro el Viejo,Monumentos.csv,"40.41320112124687, -3.71000286701288",,Calle Nuncio,Madrid,28005,913 651 284,,0
Instituto Cervantes,Monumentos.csv,"40.419245261976, -3.6953321647484363",  Exposiciones:  de martes a domingo de 11 a 20 horas. Festivos de 11 a 14 horas   Resto de servicios:  consultar telefonicamente ,Calle Alcala,Madrid,28014,914 367 600,informa@cervantes.es,0
Instituto Italiano de Cultura de Madrid,Monumentos.csv,"40.415228999921524, -3.7127940541659377", Invierno: de lunes a viernes de 9 a 18 horas  Verano: de 9 a 14 horas ,Calle Mayor,Madrid,28013,"915 475 205  / 915 478 603 (Centralita)           
",iicmadrid@isteri.it,0
Jardines del Campo del Moro,Monumentos.csv,"40.41898630733354, -3.719976836914711",,Paseo Virgen Del Puerto,Madrid,28005,"914 548 800 (Información de Palacio Real).                                       
info@patrimonionacional.es      
",,0
Ministerio de Hacienda y Administraciones Públicas,Monumentos.csv,"40.417489335230385, -3.7011604823997892",,Calle Alcala,Madrid,28014,915 958 000,,0
Ministerio de Hacienda y Administraciones Públicas. Dirección General de Patrimonio del Estado,Monumentos.csv,"40.417489335230385, -3.7011604823997892",,Calle Alcala,Madrid,28014,915 958 000,,0
Ministerio de Justicia,Monumentos.csv,"40.42412618887789, -3.707536103996874", Atención telefónica:  de lunes a viernes de 8:00 a 19:30 horas. Sábados de 9 a 14 horas,Calle San Bernardo,Madrid,28015,"913 902 000 (Centralita)           
",,1
Monasterio de la Purísima Concepción de las Monjas de la Orden de la Merced,Monumentos.csv,"40.42316472725149, -3.6967399396564007",,Calle Luis De Gongora,Madrid,28004,91 532 39 53,,0
Monasterio de las Descalzas Reales,Monumentos.csv,"40.418233359889484, -3.706213134639163"," Sólo con visita guiada.    De martes a sábado de 10 a 14 horas y de 16 a 18:30 horas  Domingos y festivos, de 10 a 15 horas y tardes cerrado  Cierre de taquillas una hora antes  Cerrado: días 1, 6 de enero; Semana Santa (del 16 al 19 de abril, inclusive); 1 de mayo; 10 de noviembre; 24, 25 y 31 de diciembre de 2014  Abierto: 15 de mayo y 8 de diciembre de 2014  Abierto horario domingo: 2 de mayo; 19 de junio; 15 de agosto; 1 de noviembre y 6 de diciembre de 2014    Atención telefónica:    De lunes a sábados de 9:30 a 17 horas  Domingos y festivos de 9 a 14 horas  ",Plaza Descalzas,Madrid,28013,"914 548 800 (Información, en Palacio Real)                                       
",,0
Monumento Homenaje a las Víctimas del 11 de marzo,Monumentos.csv,"40.40774080279238, -3.6892974870165984"," De martes a domingos, de 11 a 14 horas y de 17 a 19 horas. Lunes Cerrado. ",Glorieta Emperador Carlos V,Madrid,28014,,,0
Museo de la Real Academia de Bellas Artes de San Fernando,Monumentos.csv,"40.41764548040709, -3.700667044636178","  Colección permanente:  de martes a domingos de 10 a 15 horas., incluyendo festivos. Lunes cerrado.      Exposiciones temporales:  consultar telefónicamente  Cerrado días 1 y 6 de enero, 1 y 30 de mayo, 9 de noviembre; 24, 25 y 31 de diciembre.  ",Calle Alcala,Madrid,28014,"915 240 864 (Centralita)                            
",,1
Museo del Ferrocarril de Madrid,Monumentos.csv,"40.400281290485566, -3.693817192160563","  De martes a viernes de 9 a 15 horas.   Sábados de 10 a 20 horas.   Domingos de 10 a 15 horas.   Cerrado los lunes (incluidos festivos), del 16 al 31 de agosto (ambos inclusive), y los días 1 y 6 de enero, 1 de mayo y 25 de diciembre.   Con motivo de la celebración del &lsquo;Mercado de Motores&rsquo; el segundo fin de semana de cada mes de enero a junio, el horario del Museo (cuyo espacio visitable estará restringido a su Nave Central) será de 11 a 22 horas y el acceso será gratuito. ",Paseo Delicias,Madrid,28045,"902 228 822                                                      
",museodelicias@ffe.es,1
Museo Lázaro Galdiano,Monumentos.csv,"40.436750328725985, -3.6861980129207894","  Lunes y de miércoles a sábados de 10 a 16,30 horas.  Domingos de 10 a 15 horas.  Cerrado todos los martes, 1 y 6 de enero, 28 y 29 de marzo, 1 y 15 de mayo, 15 de agosto, 1 de noviembre y 24, 25 y 31 de diciembre.    Visitas guiadas  al Museo fuera de horario: de 17:30 a 18:45 horas, previa reserva telefónica en el 915 616 084 (extensión 101).    Horario para reserva telefónica: de lunes a jueves, de 8,30 a 16,30 horas, viernes hasta las 14 horas.   Importe: 2 euros (entrada al museo).   Miércoles y jueves: para grupos previamente constituidos.   Viernes para visitantes individuales reunidos para la visita.   ",Calle Serrano,Madrid,28006,915 616 084,secretaria.fundacion@flg.es,1
Museo Nacional de Artes Decorativas,Monumentos.csv,"40.4178910680573, -3.689790044810553","  De martes a sábados de 9:30 a 15 horas.   Jueves tarde de 17 a 20 horas.  Cerrado los jueves de julio y agosto.  Domingos y festivos de 10 a 15 horas.   Cerrado: todos los lunes del año, y los días 1 y 6 de enero, 1 y 15 de mayo, 24, 25 y 31 de diciembre.  ",Calle Montalban,Madrid,28014,915 326 499 / 915 326 845,mnad@mnad.mcu.es,0
Museo Nacional de Ciencias Naturales,Monumentos.csv,"40.44042943656617, -3.690161856630636"," De martes a viernes, domingos, festivos y lunes festivos de 10 a 17 horas. Sábados, domingos previos a festivos de 10 a 20 horas. Sábados de julio y agosto de 10 a 15 horas.   Cerrado : todos los lunes no festivos, 1 y 6 de enero, 1 de mayo y 25 de diciembre   Biblioteca : de lunes a jueves de 9 a 20 y viernes de 9 a 15 horas. Julio y agosto: de lunes a viernes de 9 a 14,30 horas    Mediateca  (cerrada por obras). ",Calle Jose Gutierrez Abascal,Madrid,28006,914 111 328 (centralita),museo@bib.csic.es,1
Museo Postal y Telegráfico,Monumentos.csv,"40.467706026917405, -3.7690721403206724",  Museo: de lunes a viernes de 9 a 14 y de 16 a 18 horas.   Biblioteca: de lunes a viernes de 9 a 14 horas.  ,Calle Tapia De Casariego,Madrid,28023,917 400 668 / 917 400 664 (Biblioteca),museopostaltelegrafico@correos.com,1
Museo Thyssen Bornemisza,Monumentos.csv,"40.41600553697803, -3.694744831131079",,Paseo Prado,Madrid,28014,"902 760 511 (Información general)                                                                                                                         
",inform@museothyssen.org,1
Oratorio del Caballero de Gracia,Monumentos.csv,"40.41953675995833, -3.700769178078419",,Calle Caballero De Gracia,Madrid,28013,915 326 937,,0
Palacio de Altamira,Monumentos.csv,"40.42164987365918, -3.707345128785755",,Calle Flor Alta,Madrid,28004,S/T,,0
Palacio de Buenavista,Monumentos.csv,"40.419660627134164, -3.6936744082913036","  Cambio de guardia:  último viernes de cada mes (a excepción de julio, agosto y diciembre) a las 11 horas. ",Plaza Cibeles,Madrid,28014,,,0
Palacio de Cibeles,Monumentos.csv,"40.419011767401095, -3.692206111679657",,Plaza Cibeles,Madrid,28014,,,1
Palacio de Liria,Monumentos.csv,"40.42680681645222, -3.7125979731032404"," Viernes: visita guiada a las 10 horas, 11 horas y 12 horas.  Visitas: previa petición de cita por escrito o por fax ",Calle Princesa,Madrid,28008,91 547 53 02,,0
Palacio de Miraflores,Monumentos.csv,"40.41664573510858, -3.6991361581904876",,Carrera San Jeronimo,Madrid,28014,S/T,,0
Palacio de Santa Cruz,Monumentos.csv,"40.41469396807194, -3.7060229025843374",,Plaza Provincia,Madrid,28012,915 882 900 ,,0
Palacio del Marqués de Perales,Monumentos.csv,"40.41231195969282, -3.7021792836496275",,Calle Magdalena,Madrid,28012,,,0
Palacio del Marqués de Salamanca,Monumentos.csv,"40.42144182034705, -3.6910993927829567",,Paseo Recoletos,Madrid,28001,91 537 69 64 (Fundación BBVA),,0
Palacio Real,Monumentos.csv,"40.42075212551193, -3.712699107286406","  De octubre a marzo: de 10 a 18 horas.  De abril a septiembre: de 10 a 20 horas.  Cierre taquillas una hora antes.  Cerrado: 1 y 6 (acto oficial) de enero; 1 de mayo; 25 de diciembre de 2014.   Abierto: 17 y 18 de abril; 2 y 15 de mayo; 19 de junio; 15 de agosto; 1 y 10 de noviembre; 6, 8, 24 y 31 de diciembre de 2014: taquillas cerradas a las 14 y monumento a la 15 horas.   ",Calle Bailen,Madrid,28013,"914 548 800 (Información general, actos e incidencias previstas)                                                              
914 548 803 (Concierto de colegios, reserva grupos de lunes a jueves de 9 a 18 y viernes de 9 a 16 horas)   
",info@patrimonionacional.es,1
Panteón de Hombres Ilustres,Monumentos.csv,"40.40622617519116, -3.683413041846525","  De martes a sábado de 10 a 14 y de 16 a 18,30 horas.  Domingos y festivos de 10 a 15 horas. Tardes cerrado.  Cerrado: 1 y 6 de enero; 1 de mayo; 25 de diciembre de 2014.   Abierto: 15 de mayo; 10 de noviembre y 8, 24 y 31 de diciembre de 2014: los días 24 y 31 de diciembre cerradas taquillas a las 14:30 y monumento a las 15 horas.  Abierto horario domingo: 17 y 18 de abril; 2 de mayo; 19 de junio; 15 de agosto; 1 de noviembre y 6 de diciembre de 2014.  Cierre del acceso al monumento media hora antes.  ",Calle Julian Gayarre,Madrid,28014,914 548 800 ,,1
Parroquia Nuestra Señora del Buen Consejo (antigua Catedral de San Isidro),Monumentos.csv,"40.412964921671964, -3.707383827213788",,Calle Toledo,Madrid,28005,913 692 037,,0
Parroquia San Fermín de los Navarros,Monumentos.csv,"40.43275729416927, -3.6925828382457184",,Paseo Eduardo Dato,Madrid,28010,913 199 307,,0
Parroquia San Ginés,Monumentos.csv,"40.41727334804375, -3.7070399768263558",,Calle Arenal,Madrid,28013,913 664 875,,0
Parroquia San José,Monumentos.csv,"40.41909140335171, -3.69694545008207",,Calle Alcala,Madrid,28014,915 226 784,,0
Parroquia San Manuel y San Benito,Monumentos.csv,"40.42072360207663, -3.686141227291798",,Calle Alcala,Madrid,28009,914 357 682,,0
Parroquia San Marcos,Monumentos.csv,"40.42476160196848, -3.7111617863516715",,Calle San Leonardo,Madrid,28015,915 471 079 ,,0
Parroquia San Millán y San Cayetano,Monumentos.csv,"40.409461123751505, -3.705791428982776",,Calle Embajadores,Madrid,28012,915 270 790,,0
Parroquia San Nicolás de Bari de los Servitas,Monumentos.csv,"40.415793260849824, -3.7118688527171226",,Plaza San Nicolas,Madrid,28013,915 594 064,,0
Parroquia Santa Bárbara,Monumentos.csv,"40.424541526620594, -3.6940074674725363",,Calle General Castaños,Madrid,28004,913 194 811,,0
Parroquia Santa Cruz,Monumentos.csv,"40.414599766147546, -3.705220430502387",,Calle Atocha,Madrid,28012,913 691 239,,0
Parroquia Santiago y San Juan Bautista,Monumentos.csv,"40.41651131046593, -3.7108391724029426",,Plaza Santiago,Madrid,28013,915 480 824 (despacho parroquial).,,0
Plaza Mayor,Monumentos.csv,"40.41498735934118, -3.706662448203068",,Plaza Mayor,Madrid,28012,,,0
Plaza Monumental de Toros de las Ventas,Monumentos.csv,"40.43117134669585, -3.6634583301342323",  Taquillas    Durante la temporada de celebración de festejos taurinos   De jueves a domingos de 10 a 14 y de 17 a 20 horas.  Jueves con el mismo horario sólo para abonados.  Domingos de 10 hasta la hora del comienzo de la corrida.    Feria de San Isidro: confirmar el horario con la propia instalación.  ,Calle Alcala,Madrid,28028,91 356 22 00 (taquillas),redaccion@las-ventas.com,1
Puerta de Alcalá (Plaza de la Independencia),Monumentos.csv,"40.42014403551967, -3.6896716053999095",,Plaza Independencia,Madrid,28001,S/T,,0
Puerta de Toledo,Monumentos.csv,"40.4071401878001, -3.7111176995680233",,Glorieta Puerta De Toledo,Madrid,28005,,,0
Puerta del Sol,Monumentos.csv,"40.416887979993966, -3.7022740027977377",,Plaza Puerta Del Sol,Madrid,28013,S/T,,0
Real Academia de Ciencias Morales y Políticas,Monumentos.csv,"40.4151547271264, -3.71022377531515",,Plaza Villa,Madrid,28005,915 481 330,secretaria@racmyp.es,0
Real Academia de Jurisprudencia y Legislación,Monumentos.csv,"40.41749648159225, -3.6955027540085243",,Calle Marques De Cubas,Madrid,28014,915 222 069,secretaria.rajyl@insde.es,0
Real Academia Española de Historia,Monumentos.csv,"40.41346631071615, -3.699008959181709",,Calle Leon,Madrid,28014,914 290 611 ,secretaria@rah.es,0
Real Academia Nacional de Farmacia,Monumentos.csv,"40.423966629698484, -3.6997070566405665",,Calle Farmacia,Madrid,28004,915 310 307  / 915 223 147,secretaria@ranf.com,0
Real Basílica San Francisco el Grande,Monumentos.csv,"40.41084005024222, -3.714503845728281",  Museo:  de martes a viernes de 10:30 a 12:30 y de 16 a 18 horas. Sábados de 10:30 a 12:30 y de 16 a 18 horas (si no se ofician actos religiosos). Julio y agosto: de martes a domingo de 10:30 a 12:30 y de 17 a 19 horas. ,Calle San Buenaventura,Madrid,28005,913 653 800,,0
Real Casa de Correos,Monumentos.csv,"40.416545277662664, -3.7038145261485296",,Plaza Puerta Del Sol,Madrid,28013,S/T,,0
Real Colegio Santa Isabel - La Asunción,Monumentos.csv,"40.40962511552305, -3.6965767139076444",,Calle Santa Isabel,Madrid,28012,915 273 183 - 915 273 181,,0
Real Fábrica de Tapices,Monumentos.csv,"40.406087329011655, -3.682515969574079"," De lunes a viernes de 10 a 14 horas.   Cerrado: sábados, domingos, Semana Santa y agosto. ",Calle Fuenterrabia,Madrid,28014,914 340 550,info@realfabricadetapices.com,0
Real Jardín Botánico,Monumentos.csv,"40.41238214985831, -3.692032097926277"," El Jardín está abierto al público todos los días del año, excepto los días de Navidad y Año Nuevo.   Enero y febrero: de 10 a 18 horas  Marzo: de 10 a 19 horas  Abril: de 10 a 20 horas  De mayo a agosto de 10 a 21 horas  Septiembre: de 10 a 20 horas  Octubre: de 10 a 19 horas  Noviembre y diciembre: de 10 a 18 horas  ",Plaza Murillo,Madrid,28014,914 203 017 (centralita),,0
Real Monasterio de la Encarnación,Monumentos.csv,"40.41967800877382, -3.711567962866152","  De martes a sábado: de 10 a 14 horas y de 16 a 18:30 horas  Domingos y festivos: de 10 a 15 horas y tardes cerrado  Cierre taquillas, 45 minutos antes  Cerrado: 1 y 6 de enero; Semana Santa (de 16 al 19 de abril, inclusive); 1 de mayo; 27 de julio; 10 de noviembre; 24, 25 y 31 de diciembre de 2014  Abierto: 15 de mayo y 8 de diciembre de 2014  Abierto horario domingo: 2 de mayo; 19 de junio; 15 de agosto; 1 de noviembre y 6 de diciembre de 2014    Atención telefónica    De lunes a sábados: de 9:30 a 17 horas  Domingos y festivos: de 9 a 14 horas  ",Plaza Encarnacion,Madrid,28013,914 548 800 ,,1
Real Monasterio de Santa Isabel,Monumentos.csv,"40.41213027498252, -3.6994547941964946", El acceso al templo sólo es posible en horario de culto ,Calle Santa Isabel,Madrid,28012,,,0
Real Sitio de El Pardo,Monumentos.csv,"40.52071790499227, -3.776630886241239","  De octubre a marzo: todos los días de 10 a 18 horas  De abril a septiembre: todos los días de 10 a 20 horas  Cerrado: 1, 6 de enero; 1 de mayo; 24, 25 y 31 de diciembre de 2014.   Abierto: 17 y 18 de abril; 2 y 15 de mayo; 19 de junio; 15 de agosto; 1 y 10 de noviembre; 6 y 8 de diciembre de 2014.   ",Calle Manuel Alonso,Madrid,28048,"913 761 500 (Información y concierto de visitas, de lunes a viernes de 10:30 a 17 horas)",,1
Sala Canal de Isabel II,Monumentos.csv,"40.43917634033899, -3.7007844119216258"," De martes a sábados de 11 a 14 y de 17 a 20:30 horas. Domingos y festivos de 11 a 14 horas. Cerrado lunes, 1 y 6 de enero, Viernes Santo, 1 de mayo y 25 de diciembre.  Visitas guiadas: sábados a las 12, 13, 18 y 19 horas. Domingos a las 12 y a las 13 horas.  Consultar horario específico de cada exposición. ",Calle Santa Engracia,Madrid,28003,915 451 000 (ext. 2505),museosexposiciones@madrid.org,0
Senado,Monumentos.csv,"40.420364834909364, -3.7126832324825663",,Plaza Marina Española,Madrid,28013,915 381 852 / 53 / 54 / 915 381 518,informacion@senado.es,1
Sociedad General de Autores y Editores (SGAE),Monumentos.csv,"40.42547139360484, -3.6966812218739538","De lunes a viernes de 8 a 14,30 horas.",Calle Fernando Vi,Madrid,28004,913 499 550 / 913 499 500,jnebrada@sgae.es,0
Templo de Debod,Monumentos.csv,"40.42425096551599, -3.716531855540272","  De 1 de octubre a 31 de marzo   De martes a viernes de 9:45 a 13:45 y de 16:15 a 18:15 horas  Sábados, domingos y festivos de 9:30 a 20 hora    De 1 de abril a 30 de septiembre   De martes a viernes de 10 a 14 y de 18 a 20 horas  Sábados, domingos y festivos de 9:30 a 20 horas.     El templo permanece cerrado los lunes y los festivos 1 de enero, 1 de mayo y 25 de diciembre.  Último pase de visita 15 minutos antes del cierre.  Este horario y la apertura de salas pueden sufrir modificaciones, por favor, confírmelo en el teléfono de información del museo.  ",Calle Ferraz,Madrid,28008,913 667 415 (Museo de San Isidro / Templo de Debod)),templodebod@madrid.es,0
Torre y casa de los Lujanes,Monumentos.csv,"40.4151547271264, -3.71022377531515",,Plaza Villa,Madrid,28005,S/T,,0
Tribunal de Cuentas,Monumentos.csv,"40.42577734085192, -3.701211175757095",,Calle Fuencarral,Madrid,28004,"914 478 701         
",,0
Tribunal Supremo,Monumentos.csv,"40.42413357076746, -3.69293054384027",,Calle Marques De La Ensenada,Madrid,28004,"913 971 200 (Centralita) / 913 971 050 (Atención al ciudadano) / 913 973 228 (Oficina de Prensa) / 913 971 129 (Archivo) / 913 971 245 (Biblioteca) / 913 971 064 (Registro General)  
  
 ",,0
Viaducto,Monumentos.csv,"40.42198642802987, -3.7126885581331726",,Calle Bailen,Madrid,28013,,,0
Arte Público (Museo al Aire Libre de la Castellana),Museos.csv,"40.433219398671156, -3.6876122680805956",,Paseo Castellana,Madrid,28046,917 011 863  / 915 782 722 (información en Museo de Historia),smuseosm@madrid.es,1
Casa - Museo del Ratoncito Pérez,Museos.csv,"40.41704834412296, -3.7055288844865233","  Lunes  de 17 a 20 horas.  De martes a viernes de 11 a 14 horas y de 17 a 20 horas.  Sábados de 11 a 15 horas y de 16 a 20 horas (horario orientativo, consultar disponiblidad en la  web del Museo ).  Domingos y festivos de 12 a 18 horas.  ",Calle Arenal,Madrid,28013,915 226 968,,0
Casa Museo Lope de Vega,Museos.csv,"40.414358466555235, -3.6974741545860015"," Para la visita es  imprescindible reserva anticipada  en:  casamuseolopedevega@madrid.org  o en el teléfono: 914 299 216, en horario del museo   De martes a domingo de 10 a 15 horas. Última visita a las 14 horas.  Cerrado los lunes, días 1 y 6 de enero, 5 de abril, 1 de mayo y 24, 25 y 31 de diciembre y dos festivos locales.  Este horario puede sufrir alteraciones por actividades extraordinarias que se celebran en este espacio. ",Calle Cervantes,Madrid,28014,914 299 216,casamuseolopedevega@madrid.org,0
Castillo de la Alameda,Museos.csv,"40.45835460563491, -3.5932903820278788","  De abril a septiembre: sábados, domingos y festivos de 10 a 21 horas  De octubre a marzo: sábados, domingos y festivos de 10 a 18 horas  Cerrado los días 1 de enero, 1 de mayo y 25 de diciembre  ",Calle Antonio Sancha,Madrid,28042,"913 667 415                                     
",castilloalameda@madrid.es,0
Casón del Buen Retiro,Museos.csv,"40.415263749471535, -3.689232811717636","  Mañanas    De lunes a jueves, de 9 a 15 horas. (Servicio de libros y otros materiales hasta las 14:30 horas)   Viernes, de 9 a 14:30 horas. (Servicio de libros y otros materiales hasta las 14 horas)     Tardes.  Lunes y miércoles, de 15 a 18 horas. (Servicio de libros y otros materiales hasta las 17:30 horas)   Horario de verano     Desde el 16 de junio al 15 de septiembre  Lunes a viernes, de 9 a 14:30 horas   ",Calle Alfonso Xii,Madrid,28014,902 107 077,biblioteca@museodelprado.es,0
Centro Social y Cultural la Casa Encendida,Museos.csv,"40.40595710517701, -3.699779793558763","  De lunes a domingo de 10 a 22 horas (todos los días del año, excepto festividades nacionales y de la Comunidad de Madrid)  Exposiciones: de 10 a 21:45 horas  ",Ronda Valencia,Madrid,28012,"902 430 322                                 
",casaencendida@cajamadrid.es,1
Claustro de San Jerónimo el Real (Los Jerónimos),Museos.csv,"40.414346084679714, -3.6905317543061407",,Calle Moreto,Madrid,28014,"91 420 35 78&#13;
",,0
Ermita de San Antonio de la Florida (Museo),Museos.csv,"40.425256682855846, -3.725725718176111","  De martes a domingos y festivos de 9:30 a 20 horas.   Cerrado  los lunes, incluidos festivos y días 1 de enero, 1 de mayo y 25 de diciembre.   Último pase de visita:  20 minutos antes del cierre (el desalojo de las salas comenzará 10 minutos antes)   Por motivos de conservación, el aforo máximo es de 50 personas en el interior de la capilla.  Este horario y la apertura de salas pueden sufrir modificaciones, por favor, confírmelo en el teléfono de información del museo.  ",Glorieta San Antonio De La Florida,Madrid,28008,"915 420 722 / 917 011 863                                                                                        
",sanantonio@madrid.es,0
Espacio Fundación Telefónica,Museos.csv,"40.42041458612889, -3.7016034186955076"," De martes a domingo, de 10 a 20 horas.  Cerrado al público todos los lunes y los festivos 25 de diciembre y días 1 y 6 de enero. ",Calle Fuencarral,Madrid,28004,915 808 700 (información general),,1
Fundación AMYC (Arte Moderno y Contemporáneo). Casa - Museo Fuente del Rey,Museos.csv,"40.45546180290319, -3.7705836264842576", De lunes a viernes de 10 a 19 horas. Sábados y domingos cerrado.   Visitas  guiadas y concertadas con cita previa. ,Calle Fuente Del Rey,Madrid,28023,913 579 116,info@fundacionamyc.org,0
Monasterio de las Descalzas Reales,Museos.csv,"40.418233359889484, -3.706213134639163"," Sólo con visita guiada.    De martes a sábado de 10 a 14 horas y de 16 a 18:30 horas  Domingos y festivos, de 10 a 15 horas y tardes cerrado  Cierre de taquillas una hora antes  Cerrado: días 1, 6 de enero; Semana Santa (del 16 al 19 de abril, inclusive); 1 de mayo; 10 de noviembre; 24, 25 y 31 de diciembre de 2014  Abierto: 15 de mayo y 8 de diciembre de 2014  Abierto horario domingo: 2 de mayo; 19 de junio; 15 de agosto; 1 de noviembre y 6 de diciembre de 2014    Atención telefónica:    De lunes a sábados de 9:30 a 17 horas  Domingos y festivos de 9 a 14 horas  ",Plaza Descalzas,Madrid,28013,"914 548 800 (Información, en Palacio Real)                                       
",,0
Museo ABC,Museos.csv,"40.42740213531285, -3.70955095379701",  De martes a sábado de 11 a 20 horas  Domingos de 10 a 14 horas  Festivos de 11 a 20 horas  Lunes cerrado   Visitas guiadas:  de martes a viernes (consultar horario en el teléfono del museo).  ,Calle Amaniel,Madrid,28015,917 588 379,,0
Museo Africano Mundo Negro,Museos.csv,"40.449455579055886, -3.651503432956766","   Grupos con cita previa : de lunes a sábado   Particulares  (visitas guiadas): domingos a las 11,30 horas   Cerrado : julio, agosto y septiembre  ",Calle Arturo Soria,Madrid,28043,914 152 412,,0
Museo Arqueológico Nacional,Museos.csv,"40.42326842040792, -3.6884539762461968"," De martes a sábado de 9:30 a 20 horas. Domingo y festivos de 9:30 a 15 horas.  Cerrado todos los lunes, 1 y 6 de enero, 1 de mayo y 24, 25 y 31 de diciembre y un festivo local (15 de mayo en 2014) ",Calle Serrano,Madrid,28001,"915 777 912                              
                                              
",sugerencias@man.es,1
Museo Casa de la Moneda,Museos.csv,"40.42258896520152, -3.6691501169061067"," De martes a viernes ininterrumpidamente de 10 a 17:30 horas. Sábados, domingos y festivos de 10 a 14 horas.  Cerrado los lunes, y los días 1, 4 y 5 de enero; 17, 18, 19 y 20 de abril; 1 y 2 de mayo; 19 de junio; 23, 24, 25 y 31 de diciembre. ",Calle Doctor Esquerdo,Madrid,28028,"915 666 544                 
",museo@fnmt.es,1
Museo Cerralbo,Museos.csv,"40.42376732078657, -3.7146170388153497","  De martes a sábado de 9:30 a 15 horas  Jueves de 17 a 20 horas (apertura gratuita, excepto festivos)  Domingos y festivos de 10 a 15 horas  Lunes, cerrado  Jueves y Viernes Santo tienen el horario de los días festivos  Visitas guiadas, previa reserva, los martes y miércoles y, sin reserva, los jueves , viernes y sábados, a cargo de los voluntarios culturales de la Confederación de Aulas de la Tercera Edad  ",Calle Ventura Rodriguez,Madrid,28008,915 473 646 / 47,museo.cerralbo@mecd.es,1
Museo Colecciones del Instituto de Crédito Oficial (ICO),Museos.csv,"40.41675330128869, -3.6977346235068373","  De martes a sábado: de 11 a 20 horas  Domingo y festivos: de 10 a 14 horas  Cerrado: todos los lunes del año (incluidos festivos) y los días 1 de enero, 1 de mayo y 25 de diciembre   Los días 24 y 31 de diciembre el Museo ICO permanecerá abierto de 10 a 14 horas.   ",Calle Zorrilla,Madrid,28014,914 201 242,museoico@ico.es,1
Museo de Aeronáutica y Astronáutica,Museos.csv,"40.3733013700739, -3.798200034372686"," De martes a domingo de 10 a 14 horas, a partir de las 13:30 no se permite la entrada de público.  Cerrado: los lunes, días 1 y 6 de enero, Jueves y Viernes Santo, 12 de octubre,  días 10, 24, 25 y 31 de diciembre y el mes de agosto ",Autovia A-5,Madrid,28024,915 091 690 (centralita) / 915 095 644 (reserva de actividades),,1
Museo de América,Museos.csv,"40.43797469898852, -3.721841843311362","  Horario:    De martes a sábado, de 9:30 a 15 horas  Jueves, apertura continuada de 9:30 a 19 horas  Domingos y festivos de 10 a 15 horas     Cerrado:  todos los lunes del año, día 1 y 6 de enero, día 1 de mayo, días 24, 25 y 31 de diciembre y un festivo local. ",Avenida Reyes Catolicos,Madrid,28040,915 439 437 / 915 492 641,,1
Museo de Arte Contemporáneo de Madrid (cerrado),Museos.csv,"40.42737760210632, -3.7106116887809817","  De martes a viernes de 10 a 14 y de 17:30 a 21 horas  Ságados, domingos y festivos de 10:30 a 14:30 horas.  Cerrado los lunes (incluso festivos) y días 1 y 6 de enero, 1 de mayo y 25 de diciembre   El horario de taquilla finaliza 20 minutos antes de la hroa de cierre del museo.   Las salas se desalojan 15 minutos antes del cierre. ",Calle Conde Duque,Madrid,28015,915 885 928  /  915 885 861,mmacmdifusion@madrid.es,1
Museo de Artes y Tradiciones Populares. Centro Cultural La Corrala,Museos.csv,"40.408814891299514, -3.7083421466389113",Permanece abierto al público de lunes a viernes con horario de 10 a 14 horas y de 17 a 21 horas. Sábados de 10 a 14 horas,Calle Carlos Arniches,Madrid,28005,914 976 500,museoatp@uam.es,0
Museo de Astronomía y Geodesia,Museos.csv,"40.44942472705852, -3.7262214898219117",Visita con cita previa,Plaza Ciencias,Madrid,28040,913 944 615,,0
Museo de Bomberos,Museos.csv,"40.39453171263195, -3.6539313207612207"," Abierto todos los días de  09:30  a  14:00  horas, excepto 25 de diciembre, 1 enero,  6 de enero y 1 de mayo.    Nota:  El museo permanecera cerrado hasta octubre de 2015 por obras de acondicionamiento.     Visitas Guiadas  Se pueden concertar en el teléfono: 91 478 65 72 ( Museo )  Más información: 91 588 99 07 - 91 588 82 40  ",Calle Boada,Madrid,28038,"91 478 65 72 (Museo),                                                                                                                  
                                                                                                                      
",sgbomberos@madrid.es,0
Museo de Calcografía Nacional,Museos.csv,"40.41764548040709, -3.700667044636178","  De octubre a junio de lunes a viernes de 9 a 17 horas.  Verano: de julio a septiembre de 9 a 15 horas.   Agosto cerrado   En el caso de que se celebren exposiciones, consultar horario, ya que puede variar.  ",Calle Alcala,Madrid,28014,915 240 864,calcografianacional.delegado@rabasf.org,0
Museo de Cera,Museos.csv,"40.424403779665376, -3.6914362030084815"," De lunes a viernes de 10 a 14,30 y de 16,30 a 20,30 horas.  Sábados, domingos y festivos de 10 a 20,30 horas.  Los días 25 de diciembre y 1 de enero, el museo abre de 10 a 14:30 horas y de 16:30 a 20:30 horas.  Las taquillas cierran media hora antes. ",Paseo Recoletos,Madrid,28004,913 194 681,info@museoceramadrid.com,1
Museo de Farmacia Militar,Museos.csv,"40.403202661477145, -3.7008825895813167"," De lunes a viernes de 10 a 13 horas, sólo visitas concertadas ",Calle Embajadores,Madrid,28012,"915 399 503            
",smunort@oc.mde.es,0
Museo de Historia de la Comunidad Judía de Madrid,Museos.csv,"40.43534317115623, -3.700013620203689","  Visitas guiadas     Individual : último jueves de cada mes a las 19 horas, salvo festividades (confirmar previamente).   Grupos  (mínimo 10 personas): consultar teléfono: 915 913 131 (Ext. 4 o correo electrónico:  visita@cjmadrid.org   ",Calle Balmes,Madrid,28010,915 913 131 ,secretaria@cjmadrid.org,0
Museo de la Biblioteca Nacional,Museos.csv,"40.42297474261295, -3.6908675320710223"," De martes a sábados de 10 a 20 y domingos de 10 a 14 horas. Lunes cerrado. Último pase treinta minutos antes del cierre. Entrada gratuita.   Días de cierre   Para 2014: 1 y 6 de enero, 1 de mayo, 10 de noviembre y 8, 24, 25 y 31 de diciembre ",Paseo Recoletos,Madrid,28001,915 807 759 ,museo@bne.es,0
Museo de la Catedral de la Almudena,Museos.csv,"40.41484504627648, -3.7136975721439347","De lunes a sábado de 10 a 14:30 horas. Cerrado los domingos, fiestas de precepto y días de actos de culto especiales",Plaza Almudena,Madrid,28013,915 592 874,museoalmudena@planalfa.es,0
Museo de la Farmacia Hispana,Museos.csv,"40.4445328804645, -3.7262160043788155", De lunes a viernes de 9 a 14 horas (periodo lectivo).  ,Plaza Ramon Y Cajal,Madrid,28040,913 941 797,museofar@farm.ucm.es,0
Museo de la Guardia Civil,Museos.csv,"40.44454745648486, -3.7122900396933813"," De lunes a viernes de 9 a 14 horas. Sábados, domingos y festivos cerrado ",Calle Guzman El Bueno,Madrid,28003,915 146 000 ( Ext. 8477 / 8495 /48477),dg-estuhistoricos-registro@guardiacivil.org,0
Museo de la Real Academia de Bellas Artes de San Fernando,Museos.csv,"40.41764548040709, -3.700667044636178","  Colección permanente:  de martes a domingos de 10 a 15 horas., incluyendo festivos. Lunes cerrado.      Exposiciones temporales:  consultar telefónicamente  Cerrado días 1 y 6 de enero, 1 y 30 de mayo, 9 de noviembre; 24, 25 y 31 de diciembre.  ",Calle Alcala,Madrid,28014,"915 240 864 (Centralita)                            
",,1
Museo de San Isidro. Los orígenes de Madrid,Museos.csv,"40.412069631779325, -3.710874934826838","   General:  de martes a domingo y festivos de 9:30 a 20 horas   Agosto:  de martes a viernes de 9:30 a 14:30 horas y sábados, domingos y festivos de 9:30 a 20 horas   Cerrado:  todos los lunes, 1 de enero, 1 de mayo y 25 de diciembre  ",Plaza San Andres,Madrid,28005,913 667 415,museosanisidro@madrid.es,1
Museo de Sanidad e Higiene Pública,Museos.csv,"40.47546597881768, -3.6900603941123107", Consultar telefónicamente ,Avenida Monforte De Lemos,Madrid,28029,"918 222 334 / 2320     
",museodesanidad@iscii.es,0
Museo del Atlético de Madrid,Museos.csv,"40.40141951261679, -3.7212862502237236","   Horarios del Museo    De martes a domingo, de 11 a 19 horas.  Días de partido: desde las 11 horas hasta el inicio del encuentro.     Horarios de las visitas guiadas    De martes a domingo a las 12, 13, 16:30 y 17:30 horas  Verano (de 28 de junio al 14 de septiembre): de martes a viernes a las 12, 13, 16:30 y 17:30 horas    ",Paseo Virgen Del Puerto,Madrid,28005,913 650 931 / 913 666 568 / 902 260 403,,0
Museo del Ferrocarril de Madrid,Museos.csv,"40.400281290485566, -3.693817192160563","  De martes a viernes de 9 a 15 horas.   Sábados de 10 a 20 horas.   Domingos de 10 a 15 horas.   Cerrado los lunes (incluidos festivos), del 16 al 31 de agosto (ambos inclusive), y los días 1 y 6 de enero, 1 de mayo y 25 de diciembre.   Con motivo de la celebración del &lsquo;Mercado de Motores&rsquo; el segundo fin de semana de cada mes de enero a junio, el horario del Museo (cuyo espacio visitable estará restringido a su Nave Central) será de 11 a 22 horas y el acceso será gratuito. ",Paseo Delicias,Madrid,28045,"902 228 822                                                      
",museodelicias@ffe.es,1
Museo del Prado,Museos.csv,"40.41357557281165, -3.6913253533221817","  De lunes a sábado de 10 a 20 horas . Domingos y festivos de 10 a 19 horas    Cerrado:  1 de enero, 1 de mayo y 25 de diciembre   Horario reducido:  6 de enero, 24 y 31 de diciembre de 10 a 14 horas   Horario de taquillas: a cceso al Museo hasta 30 minutos antes del cierre (el desalojo de las salas comienza 10 minutos antes del cierre) ",Calle Ruiz De Alarcon,Madrid,28014,913 302 800,,1
Museo del Reloj Grassy,Museos.csv,"40.41913869883697, -3.6980657388420255"," Jueves de 18 a 19 horas y viernes de 11 a 12 horas.  Las visitas se efectúan con cita previa llamando al  teléfono 915 321 007 . Se encuentra en la Joyería Grassy, por tanto no se admiten visitas de grupos. ",Calle Gran Via,Madrid,28013,915 321 007,,0
Museo del Robot,Museos.csv,"40.42949061464909, -3.7068731815207014","  Visitas guiadas regulares  (entrada libre NO disponible):   Martes a viernes: pases a las 13, 17 y 20 horas    Visitas guiadas para grupos:    Martes, miércoles y Jueves, pases (solo mañanas) de 10:30 a 12:00 horas  ",Calle Alberto Aguilera,Madrid,28015,914 478 808,,0
Museo del Romanticismo,Museos.csv,"40.42585510296794, -3.6987835425963063","  Verano (del 2 de mayo al 31 de octubre):  de martes a sábados de 9:30 a 20:30 horas. Domingos y festivos de 10 a 15 horas. Jueves de agosto se cierra a las 00 horas (Museo y Café del Jardín).   De 1 de Noviembre a 30 de Abril:  de martes a sábado, de 9:30 a 18:30 horas. Domingos y festivos, de 10 a 15 horas.   Cerrado: todos los lunes, días 1 y 6 de enero, 1 de mayo, 24, 25 y 31 de diciembre y un festivo local (15 de mayo)  La Tienda y el Café del Jardín se regirán por el mismo horario de invierno. ",Calle San Mateo,Madrid,28004,914 481 045 / 914 480 163,informacion.romanticismo@mecd.es,0
Museo del Seguro. Fundación Mapfre,Museos.csv,"40.42388355388781, -3.694059645939101", De lunes a Viernes previa petición de hora.  ,Calle Barbara De Braganza,Madrid,28004,"91 581 20 08 (para reservas)                                 
",,0
Museo del Traje. Centro de Investigación del Patrimonio Etnológico (CIPE),Museos.csv,"40.439657822278555, -3.7278378564088275"," De martes a sábado de 9:30 a 19 horas. Domingos y festivos de 10 a 15 horas.  Verano (julio y agosto): los jueves se amplia el horario hasta las 22:30 horas.  Cerrado: todos los lunes, 1 y 6 de enero, 1 de mayo, 9 de noviembre, 24, 25 y 31 de diciembre. ",Avenida Juan De Herrera,Madrid,28040,915 504 700 (Información),museodeltraje@mecd.es,1
Museo Geominero,Museos.csv,"40.44205696051332, -3.6996705622841457"," De lunes a domingo y festivos de 9 a 14 horas. Cerrado: 1 y 6 de enero y 24, 25 y 31 de diciembre ",Calle Rios Rosas,Madrid,28003,913 495 759,m.geominero@igme.es,0
Museo Histórico Minero Don Felipe de Borbón y Grecia,Museos.csv,"40.44207963042673, -3.7003900716027776"," Previa cita concertada para grupos   Mercadillo de minerales y fósiles:  primer domingo de cada mes de 10 a 14 horas (en este período se podrá visitar también el museo y la mina)   Exposición anual  el segundo fin de semana (viernes, sábado y domingo) de marzo (el Museo permanecerá abierto todo el día) ",Calle Rios Rosas,Madrid,28003,913 367 029,,0
Museo Los Caños del Peral. Estación de Metro Ópera,Museos.csv,"40.41775560280743, -3.709202070089538"," Viernes, sábados y domingos de 11 a 13 y de 17 a 19 horas ",Plaza Isabel Ii,Madrid,28013,902 444 403 (Información),,1
Museo Lázaro Galdiano,Museos.csv,"40.436750328725985, -3.6861980129207894","  Lunes y de miércoles a sábados de 10 a 16,30 horas.  Domingos de 10 a 15 horas.  Cerrado todos los martes, 1 y 6 de enero, 28 y 29 de marzo, 1 y 15 de mayo, 15 de agosto, 1 de noviembre y 24, 25 y 31 de diciembre.    Visitas guiadas  al Museo fuera de horario: de 17:30 a 18:45 horas, previa reserva telefónica en el 915 616 084 (extensión 101).    Horario para reserva telefónica: de lunes a jueves, de 8,30 a 16,30 horas, viernes hasta las 14 horas.   Importe: 2 euros (entrada al museo).   Miércoles y jueves: para grupos previamente constituidos.   Viernes para visitantes individuales reunidos para la visita.   ",Calle Serrano,Madrid,28006,915 616 084,secretaria.fundacion@flg.es,1
Museo Médico Farmaceútico,Museos.csv,"40.44732295324816, -3.7092415521608646",De lunes a viernes de 8 a 15 horas,Avenida Reina Victoria,Madrid,28003,,,0
Museo Nacional Centro de Arte Reina Sofía (MNCARS),Museos.csv,"40.40853230723727, -3.6940315586451433","  De lunes a sábado de 10 a 21 horas y domingos de 10 a 19 horas (de 14:30 a 19 horas se pueden visitar la Colección 1, Edificio Sabatini planta 2,. El resto de las exposiciones temporales y la Colección, permanecen cerradas).  Martes cerrado (incluso festivos)  Cerrado los días 1 y 6 de enero, 1 de mayo, 15 de mayo, 9 de noviembre y 24, 25 y 31 de diciembre   El horario de la taquilla finaliza 30 minutos antes de la hora del cierre del museo.  ",Calle Santa Isabel,Madrid,28012,"917 741 000                                                                         
",info@museoreinasofia.es,1
Museo Nacional de Antropología,Museos.csv,"40.40788746746481, -3.6888747083604834","  De martes a sábado de 9:30 a 20 horas, domingos y festivos de 10 a 15 horas.  Cerrado: todos los lunes; 1 de enero; 1 de mayo;  24, 25 y 31 de diciembre y dos festivos locales.  ",Calle Alfonso Xii,Madrid,28014,"915 306 418                                                                                                
",antropologico@mcu.es,1
Museo Nacional de Artes Decorativas,Museos.csv,"40.4178910680573, -3.689790044810553","  De martes a sábados de 9:30 a 15 horas.   Jueves tarde de 17 a 20 horas.  Cerrado los jueves de julio y agosto.  Domingos y festivos de 10 a 15 horas.   Cerrado: todos los lunes del año, y los días 1 y 6 de enero, 1 y 15 de mayo, 24, 25 y 31 de diciembre.  ",Calle Montalban,Madrid,28014,915 326 499 / 915 326 845,mnad@mnad.mcu.es,0
Museo Nacional de Ciencia y Tecnología,Museos.csv,"40.400281290485566, -3.693817192160563"," De martes a sábado de 10 a 14 y de 16 a 18 horas. Domingo y festivos de 10 a 14:30 horas.  Verano (julio y agosto): de martes a sábado de 9 a 15 horas; domingos y festivos de 10 a 14:30 horas.   Cerrado: lunes, días 1 y 6 de enero, 1 y 15 de mayo y  24, 25 y 31 de diciembre  ",Paseo Delicias,Madrid,28045,916 037 400 / 916 037 401 (exposiciones) / 916 037 405  (visitas guiadas),infomuseo@muncyt.es,1
Museo Nacional de Ciencias Naturales,Museos.csv,"40.44042943656617, -3.690161856630636"," De martes a viernes, domingos, festivos y lunes festivos de 10 a 17 horas. Sábados, domingos previos a festivos de 10 a 20 horas. Sábados de julio y agosto de 10 a 15 horas.   Cerrado : todos los lunes no festivos, 1 y 6 de enero, 1 de mayo y 25 de diciembre   Biblioteca : de lunes a jueves de 9 a 20 y viernes de 9 a 15 horas. Julio y agosto: de lunes a viernes de 9 a 14,30 horas    Mediateca  (cerrada por obras). ",Calle Jose Gutierrez Abascal,Madrid,28006,914 111 328 (centralita),museo@bib.csic.es,1
Museo Naval,Museos.csv,"40.41751289873052, -3.692768317427539","De martes a domingo de 10 a 19 horas. Cerrado: lunes,  días 1 y 6 de enero, viernes santo, 1 de mayo, día 16 de julio, y días 24, 25 y 31 de diciembre",Paseo Prado,Madrid,28014,915 238 516 (Cita previa visitas grupo),,1
Museo Postal y Telegráfico,Museos.csv,"40.467706026917405, -3.7690721403206724",  Museo: de lunes a viernes de 9 a 14 y de 16 a 18 horas.   Biblioteca: de lunes a viernes de 9 a 14 horas.  ,Calle Tapia De Casariego,Madrid,28023,917 400 668 / 917 400 664 (Biblioteca),museopostaltelegrafico@correos.com,1
Museo Sorolla,Museos.csv,"40.43525376916864, -3.69241981045026"," De martes a sábado: de 9:30 a 20 horas ininterrumpido   Domingo y festivos: de 10 a 15 horas  Cerrado: todos los lunes del año, 1 de enero, 1 de mayo, 24, 25 y 31 de diciembre, y dos festivos locales. ",Paseo General Martinez Campos,Madrid,28010,913 101 584,museo@msorolla.mcu.es,0
Museo Taurino de la Plaza de las Ventas,Museos.csv,"40.43157110306013, -3.662872780933851","  Temporada taurina  (de marzo a octubre): de lunes a viernes de 9:30 a 14:30 horas. Domingos, festivos y días de festejo de 10 a 13 horas   Fuera de temporada  (de noviembre a febrero): de lunes a viernes de 9:30 a 14:30 horas ",Calle Alcala,Madrid,28028,"917 251 857                 
",,0
Museo Thyssen Bornemisza,Museos.csv,"40.41600553697803, -3.694744831131079",,Paseo Prado,Madrid,28014,"902 760 511 (Información general)                                                                                                                         
",inform@museothyssen.org,1
Museo Tiflológico,Museos.csv,"40.45519790204094, -3.7001960485997545"," Martes a viernes de 10 a 14 horas y de 17 a 20 horas. Sábados de 10 a 14 horas. Lunes, domingos y festivos cerrado.  Las visitas de grupos se realizan previa reserva, de 8 a 15 horas, en el teléfono de información:+34 915 894 219 ",Calle La Coruña,Madrid,28020,915 894 290,museo@once.es,1
Palacio de Liria,Museos.csv,"40.42680681645222, -3.7125979731032404"," Viernes: visita guiada a las 10 horas, 11 horas y 12 horas.  Visitas: previa petición de cita por escrito o por fax ",Calle Princesa,Madrid,28008,91 547 53 02,,0
Palacio Real,Museos.csv,"40.42075212551193, -3.712699107286406","  De octubre a marzo: de 10 a 18 horas.  De abril a septiembre: de 10 a 20 horas.  Cierre taquillas una hora antes.  Cerrado: 1 y 6 (acto oficial) de enero; 1 de mayo; 25 de diciembre de 2014.   Abierto: 17 y 18 de abril; 2 y 15 de mayo; 19 de junio; 15 de agosto; 1 y 10 de noviembre; 6, 8, 24 y 31 de diciembre de 2014: taquillas cerradas a las 14 y monumento a la 15 horas.   ",Calle Bailen,Madrid,28013,"914 548 800 (Información general, actos e incidencias previstas)                                                              
914 548 803 (Concierto de colegios, reserva grupos de lunes a jueves de 9 a 18 y viernes de 9 a 16 horas)   
",info@patrimonionacional.es,1
Panteón de Hombres Ilustres,Museos.csv,"40.40622617519116, -3.683413041846525","  De martes a sábado de 10 a 14 y de 16 a 18,30 horas.  Domingos y festivos de 10 a 15 horas. Tardes cerrado.  Cerrado: 1 y 6 de enero; 1 de mayo; 25 de diciembre de 2014.   Abierto: 15 de mayo; 10 de noviembre y 8, 24 y 31 de diciembre de 2014: los días 24 y 31 de diciembre cerradas taquillas a las 14:30 y monumento a las 15 horas.  Abierto horario domingo: 17 y 18 de abril; 2 de mayo; 19 de junio; 15 de agosto; 1 de noviembre y 6 de diciembre de 2014.  Cierre del acceso al monumento media hora antes.  ",Calle Julian Gayarre,Madrid,28014,914 548 800 ,,1
Parroquia Santa Cruz,Museos.csv,"40.414599766147546, -3.705220430502387",,Calle Atocha,Madrid,28012,913 691 239,,0
Planetario de Madrid,Museos.csv,"40.39227092120195, -3.684968648157021",,Avenida Planetario,Madrid,28045,"914 673 461 (Reserva Grupos)                                                                                                     
914 673 898 (Contestador automático de información)",buzon@planetmad.es,0
Real Basílica San Francisco el Grande,Museos.csv,"40.41084005024222, -3.714503845728281",  Museo:  de martes a viernes de 10:30 a 12:30 y de 16 a 18 horas. Sábados de 10:30 a 12:30 y de 16 a 18 horas (si no se ofician actos religiosos). Julio y agosto: de martes a domingo de 10:30 a 12:30 y de 17 a 19 horas. ,Calle San Buenaventura,Madrid,28005,913 653 800,,0
Real Fábrica de Tapices,Museos.csv,"40.406087329011655, -3.682515969574079"," De lunes a viernes de 10 a 14 horas.   Cerrado: sábados, domingos, Semana Santa y agosto. ",Calle Fuenterrabia,Madrid,28014,914 340 550,info@realfabricadetapices.com,0
Real Monasterio de la Encarnación,Museos.csv,"40.41967800877382, -3.711567962866152","  De martes a sábado: de 10 a 14 horas y de 16 a 18:30 horas  Domingos y festivos: de 10 a 15 horas y tardes cerrado  Cierre taquillas, 45 minutos antes  Cerrado: 1 y 6 de enero; Semana Santa (de 16 al 19 de abril, inclusive); 1 de mayo; 27 de julio; 10 de noviembre; 24, 25 y 31 de diciembre de 2014  Abierto: 15 de mayo y 8 de diciembre de 2014  Abierto horario domingo: 2 de mayo; 19 de junio; 15 de agosto; 1 de noviembre y 6 de diciembre de 2014    Atención telefónica    De lunes a sábados: de 9:30 a 17 horas  Domingos y festivos: de 9 a 14 horas  ",Plaza Encarnacion,Madrid,28013,914 548 800 ,,1
Real Monasterio de Santa Isabel,Museos.csv,"40.41213027498252, -3.6994547941964946", El acceso al templo sólo es posible en horario de culto ,Calle Santa Isabel,Madrid,28012,,,0
Real Sitio de El Pardo,Museos.csv,"40.52071790499227, -3.776630886241239","  De octubre a marzo: todos los días de 10 a 18 horas  De abril a septiembre: todos los días de 10 a 20 horas  Cerrado: 1, 6 de enero; 1 de mayo; 24, 25 y 31 de diciembre de 2014.   Abierto: 17 y 18 de abril; 2 y 15 de mayo; 19 de junio; 15 de agosto; 1 y 10 de noviembre; 6 y 8 de diciembre de 2014.   ",Calle Manuel Alonso,Madrid,28048,"913 761 500 (Información y concierto de visitas, de lunes a viernes de 10:30 a 17 horas)",,1
Templo de Debod,Museos.csv,"40.42425096551599, -3.716531855540272","  De 1 de octubre a 31 de marzo   De martes a viernes de 9:45 a 13:45 y de 16:15 a 18:15 horas  Sábados, domingos y festivos de 9:30 a 20 hora    De 1 de abril a 30 de septiembre   De martes a viernes de 10 a 14 y de 18 a 20 horas  Sábados, domingos y festivos de 9:30 a 20 horas.     El templo permanece cerrado los lunes y los festivos 1 de enero, 1 de mayo y 25 de diciembre.  Último pase de visita 15 minutos antes del cierre.  Este horario y la apertura de salas pueden sufrir modificaciones, por favor, confírmelo en el teléfono de información del museo.  ",Calle Ferraz,Madrid,28008,913 667 415 (Museo de San Isidro / Templo de Debod)),templodebod@madrid.es,0
Yacimiento paleontológico. Estación de Metro Carpetana,Museos.csv,"40.39150793405899, -3.7428839286586184"," Visitas todos los días durante la apertura de la estación, de 6 a 1:30 horas ",Calle Via Carpetana,Madrid,28047,902 444 403 (Información),,1
Casa de Galicia,OficinasTurismo.csv,"40.413841115871094, -3.6906090973201957","   Atención al ciudadano:  de lunes a viernes de 9 a 14 horas    Oficina de Turismo:  de lunes a jueves de 9 a 14 horas y de 16 a 19 horas. Viernes, de 8 a 15 horas. Agosto de 9 a 14 horas de lunes a viernes   Exposiciones:  de lunes a sábado de 10 a 14 y de 16 a 20 horas. Domingos y festivos de 10 a 14 horas  ",Calle Casado Del Alisal,Madrid,28014,"915 954 200 (Centralita)      
915 954 214 (Turismo)",cii.oficinaturismo.madrid@xunta.es,0
Centro de Turismo Colón,OficinasTurismo.csv,"40.42500882822323, -3.6911948422827687", De lunes a domingo de 9:30 a 20:30 horas ,Plaza Colon,Madrid,28046,"914 544 410 (información turística y Programa de Visitas Guiadas Oficiales)                            
",turismo@esmadrid.com,1
Centro de Turismo Plaza Mayor,OficinasTurismo.csv,"40.41583855082183, -3.7074257084323636", De lunes a domingo de 9:30 a 20:30 horas.  Venta de entradas para el Programa de Visitas Guiadas Oficiales en el Centro de turismo de lunes a domingo de 9:30 a 20:30 horas. ,Plaza Mayor,Madrid,28012,"914 544 410 (información turística y Programa Visitas Guiadas Oficiales)                                 
",turismo@esmadrid.com,1
Delegación de la Generalitat de Cataluña. Oficina de Turismo,OficinasTurismo.csv,"40.4182053857487, -3.6959697554881874",De lunes a viernes de 10:30 a 15 y de 16 a 19:30 horas. ,Calle Alcala,Madrid,28014,"915 241 892 (Oficina de turismo)        
",turisme.blanquerna@gencat.cat,0
Delegación y Oficina de Turismo de la Región de Murcia,OficinasTurismo.csv,"40.41937461925095, -3.708158204262361",De  lunes a jueves de 11 a 14 y de 18 a 20 horas. Viernes de 10:30 a 14 horas.,Costanilla De Los Angeles,Madrid,28013,"915 427 130       
",casamadrid@murciaenmadrid.org,0
Oficina Central de Reservas e Información de la Comunidad de Madrid,OficinasTurismo.csv,"40.42078170853056, -3.693014026757309",De lunes a viernes de 9 a 14 horas,Paseo Recoletos,Madrid,28004,912 767 478,,0
Oficina de Relaciones Institucionales del Gobierno de Canarias,OficinasTurismo.csv,"40.41662861702532, -3.696000655612809",De lunes a viernes de 9 a 15 horas,Calle Fernanflor,Madrid,28014,913 893 000,dlgmadrid.pg@gobiernodecanarias.org,0
Oficina de Turismo de Alemania,OficinasTurismo.csv,"40.415145119026725, -3.6969990236222245",Consultar telefónicamente,Calle San Agustin,Madrid,28014,914 293 551,,0
Oficina de Turismo de Andorra,OficinasTurismo.csv,"40.420463872305014, -3.6873998628244578",Consultar telefónicamente,Calle Alcala,Madrid,28009,914 317 453 ,,0
Oficina de Turismo de Argentina,OficinasTurismo.csv,"40.4257710639095, -3.712551676224903",Consultar telefónicamente,Calle Princesa,Madrid,28008,915 414 447,oficinamadrid@argentina.travel,0
Oficina de Turismo de Austria,OficinasTurismo.csv,"40.4241953857432, -3.712405377713949"," De lunes a viernes de 9 a 17 horas  No disponen de oficina en Madrid, solo atienden por teléfono e internet ",- -,,,902 999 432,informacion@austria.info,0
Oficina de Turismo de Brasil,OficinasTurismo.csv,"40.43017960044132, -3.692768600492918",Consultar telefónicamente,Calle Almagro,Madrid,28010,917 020 689,secom.madrid@itamaraty.gov.br,0
Oficina de Turismo de Castilla - León,OficinasTurismo.csv,"40.42177018095319, -3.6828394778643716",Consultar horario.,Calle Alcalá,Madrid,28009,915 780 324,oficinademadridfundacionsiglo@gmail.com,0
Oficina de Turismo de Chile,OficinasTurismo.csv,"40.42984738903388, -3.6834988415722334",Consultar telefónicamente,Calle Velazquez,Madrid,28001,914 357 834,prochilespain@prochile.gov.cl,0
Oficina de Turismo de China,OficinasTurismo.csv,"40.42009457178475, -3.7053367443046565",Consultar telefónicamente,Calle Gran Via,Madrid,28013,915 480 011,,0
Oficina de Turismo de Croacia,OficinasTurismo.csv,"40.423071040236564, -3.6868016346415553",Consultar telefónicamente,Calle Claudio Coello,Madrid,28001,917 815 514,info@visitacroacia.es,0
Oficina de Turismo de Cuba,OficinasTurismo.csv,"40.4509737804771, -3.6864959795755223",Consultar telefónicamente,Paseo Habana,Madrid,28036,914 113 097,info@descubracuba,0
Oficina de Turismo de Ecuador,OficinasTurismo.csv,"40.435786907325046, -3.6830637919224922",Consultar telefónicamente,Calle Velazquez,Madrid,28006,915 627 215,info@mecuador.es,0
Oficina de Turismo de Egipto,OficinasTurismo.csv,"40.423271055213334, -3.7103562860569252",Consultar telefónicamente,Calle Gran Via,Madrid,28013,915 592 121,es@egypt.travel,0
Oficina de Turismo de Francia,OficinasTurismo.csv,"40.42272987584036, -3.6881184215044875",Consultar telefónicamente,Calle Serrano,Madrid,28001,"915 489 749 (Información)   
      
",info.es@atout-france.fr,0
Oficina de Turismo de Grecia,OficinasTurismo.csv,"40.4287153966979, -3.715730424495196",Consultar telefónicamente,Calle Quintana,Madrid,28008,915 484 889,,0
Oficina de turismo de Guatemala,OficinasTurismo.csv,"40.42811147922819, -3.69060179113649",,Calle Fernando El Santo,Madrid,28010,913 440 347 / 913 441 417,,0
Oficina de Turismo de Irán,OficinasTurismo.csv,"40.43756941084443, -3.6848032592188162",,Calle Maria De Molina,Madrid,28006,915 643 613,iran@iransara.es,0
Oficina de Turismo de Israel,OficinasTurismo.csv,"40.42789832941921, -3.7020584270478287",Consultar telefónicamente,Calle Fuencarral,Madrid,28004,915 943 211,,0
Oficina de Turismo de Italia,OficinasTurismo.csv,"40.4364258837023, -3.6862182951851614",Consultar telefónicamente,Calle Serrano,Madrid,28006,915 670 670,,0
Oficina de Turismo de Jordania,OficinasTurismo.csv,"40.4225708087371, -3.687598129527758",Consultar telefónicamente,Calle Villanueva,Madrid,28001,917 813 987,spain@visitjordan.com,0
Oficina de Turismo de la Comunidad de Madrid. Aeropuerto  de Barajas Terminal 1,OficinasTurismo.csv,"40.4641393496236, -3.5698214842707134","De lunes a sábados de 9 a 20 horas. Domingos  y festivos de 9 a 14 horas, excepto 1 de mayo, 25 de diciembre y 1 de enero, que permanecerá cerrada.",Aeropuerto Barajas,Madrid,28042,913 058 656 / Información turística y cultural: 902 100 007 ,turismo@madrid.org,0
Oficina de Turismo de la Comunidad de Madrid. Aeropuerto de Barajas Terminal 4,OficinasTurismo.csv,"40.45188738242834, -3.5859807207200376","Todos los días de 9 a 20 horas. Cerrado, 1 de mayo, 25 de diciembre y 1 de enero",Avenida Hispanidad,Madrid,28042,"Sala 11: 913 338 247             
Sala 10: 913 338 252    
Información turística y cultural: 902 100 007           
",turismo@madrid.org,0
"Oficina de Turismo de la Comunidad de Madrid. Calle Alcalá, 31",OficinasTurismo.csv,"40.41842560545147, -3.6982941133384717"," De lunes a sábados de 9 a 20 horas. Domingos y festivos (excepto: 1 de mayo, 25 de diciembre y 1 de enero) de 9 a 14 horas. ",Calle Alcala,Madrid,28014,"912 767 187   
Información turística y cultural: 902 100 007        
",turismo@madrid.org,0
Oficina de Turismo de la Comunidad de Madrid. Calle Duque de Medinaceli,OficinasTurismo.csv,"40.415295360876854, -3.6959869173057225",De lunes a sábados de 8 a 15 horas. Domingos y festivos de 9 a 14 horas,Calle Duque De Medinaceli,Madrid,28014,"Información turística y cultural:  902 100 007  / 914 294 951      
",turismo@madrid.org,0
Oficina de Turismo de la Comunidad de Madrid. Estación de Chamartín,OficinasTurismo.csv,"40.47188231136223, -3.683677137450532","De lunes a sábados de 8 a 20 horas. Domingos y festivos de 9 a 14 horas, excepto 1 de mayo, 25 de diciembre y 1 de enero, que permanecerá cerrada",Calle Agustin De Foxa,Madrid,28036,913 159 976 / Información turística y cultural: 902 100 007 ,turismo@madrid.org,0
Oficina de Turismo de la Comunidad de Madrid. Estación Puerta de Atocha,OficinasTurismo.csv,"40.4079118858889, -3.6923280851924556","De lunes a sábados de 8 a 20 horas. Domingos y festivos de 9 a 20 horas, excepto 1 de mayo, 25 de diciembre y 1 de enero, que permencerá cerrada.",Plaza Emperador Carlos V,Madrid,28045,Información turística y cultural: 902 100 007 / 915 284 630,turismo@madrid.org,0
Oficina de Turismo de la Comunidad de Madrid. Ifema. Feria de Madrid,OficinasTurismo.csv,"40.46428771594393, -3.6164023947650836","Los días en que se celebren ferias, de 11 a 17 horas",Avenida Partenon,Madrid,28042,917 210 599 / 917 210 604. Información turística y cultural: 902 100 007 ,turismo@madrid.org,0
Oficina de Turismo de la República Checa,OficinasTurismo.csv,"40.466195029254166, -3.674926102930997",Consultar telefónicamente,Avenida Pio Xii,Madrid,28016,913 457 112,,0
Oficina de Turismo de La Rioja,OficinasTurismo.csv,"40.426596411628736, -3.687839531572201",De lunes a viernes de 9 a 21:30 horas. Verano: consultar.,Calle Serrano,Madrid,28001,915 764 852,crmadrid@centroriojano.com,0
Oficina de Turismo de Malta,OficinasTurismo.csv,"40.43569358766222, -3.689677189614338",Consultar telefónicamente,Paseo Castellana,Madrid,28046,913 913 061,maltaembassy.madrid@gov.mt,0
Oficina de Turismo de Marruecos,OficinasTurismo.csv,"40.42419994442981, -3.714586252566919",Consultar telefónicamente,Calle Ventura Rodriguez,Madrid,28008,915 412 995,,0
Oficina de Turismo de México,OficinasTurismo.csv,"40.416052915045206, -3.697350209582731",Consultar telefónicamente,Carrera San Jeronimo,Madrid,28014,915 611 827,,0
Oficina de Turismo de Navarra,OficinasTurismo.csv,"40.4247929919497, -3.678968095477009",,- -,Madrid,,914 264 772,,0
Oficina de Turismo de Noruega,OficinasTurismo.csv,"40.42567672426549, -3.690989485997537",,Plaza Colon,Madrid,28046,913 440 987,,0
Oficina de Turismo de Nueva York,OficinasTurismo.csv,"40.43466453809479, -3.700501765839506", De lunes a viernes de 9 a 17:30 horas ,Calle Eloy Gonzalo,Madrid,28010,914 585 573,nuevayork@aviareps.com,0
Oficina de Turismo de Perú,OficinasTurismo.csv,"40.42672483254267, -3.67983630874813", Consultar telefónicamente ,Calle Principe De Vergara,Madrid,28001,914 314 242,lepra@embajadaperu.es,0
Oficina de Turismo de Polonia,OficinasTurismo.csv,"40.424733058522776, -3.7128707959595735",Consultar telefónicamente,Calle Princesa,Madrid,28008,915 414 808,,0
Oficina de Turismo de Portugal,OficinasTurismo.csv,"40.42991199250328, -3.6847609466814806",,Calle Lagasca,Madrid,28001,917 617 230,info@visitportugal.com,0
Oficina de Turismo de Puerto Rico,OficinasTurismo.csv,"40.420824872394476, -3.6888062705544282",Consultar telefónicamente,Calle Serrano,Madrid,28001,914 312 128,,0
Oficina de Turismo de República Dominicana,OficinasTurismo.csv,"40.435740819719065, -3.686282071961934",Consultar telefónicamente,Calle Serrano,Madrid,28006,914 177 375,,0
Oficina de Turismo de Rumanía,OficinasTurismo.csv,"40.430634374958515, -3.6737451941500177",Consultar telefónicamente,Calle Alcantara,Madrid,28006,914 014 268,,0
Oficina de Turismo de Seychelles,OficinasTurismo.csv,"40.42952907365398, -3.7152674834510426",Consultar telefónicamente,Calle Princesa,Madrid,28008,917 020 804,info@turismoseychelles.com,0
Oficina de Turismo de Suiza,OficinasTurismo.csv,"40.4241953857432, -3.712405377713949",,- -,,,00 800 100 200 30 (gratuito) ,info@myswitzerland.com,0
Oficina de Turismo de Tahití,OficinasTurismo.csv,"40.426021621426464, -3.687538961488509", Consultar telefónicamente  ,Calle Serrano,Madrid,28001,915 489 747,info.es@atout-france.fr,0
Oficina de Turismo de Tailandia,OficinasTurismo.csv,"40.429705289271205, -3.7085966548765446",,. .,,28080,,info@turismotailandes.com,0
Oficina de Turismo de Turquia,OficinasTurismo.csv,"40.416395587157496, -3.6897865586854928",Consultar telefónicamente,Calle Antonio Maura,Madrid,28014,915 597 014,turquia@telefonica.net,0
Oficina de Turismo de Túnez,OficinasTurismo.csv,"40.42966846062115, -3.7087259496279517",Consultar telefónicamente,Calle Alberto Aguilera,Madrid,28015,915 481 435,administracion@turismodetunez.com,0
Oficina de Turismo de Venezuela,OficinasTurismo.csv,"40.453269184872156, -3.6928523641457414",Consultar telefonicámente,Calle Capitan Haya,Madrid,28020,915 981 200,turismo@embajadadevenezuela.es,0
Oficina de Turismo del Ayuntamiento de Madrid. Sector Profesional,OficinasTurismo.csv,"40.41583855082183, -3.7074257084323636", De lunes a viernes de 9 a 17 horas (sólo para profesionales de turismo) ,Plaza Mayor,Madrid,28012,917 012 210,,1
Oficina Joven Comunidad de Madrid. TIVE. Calle de Fernando el Católico,OficinasTurismo.csv,"40.43442331966472, -3.717795251173153"," De lunes a viernes de 9 a 14 horas  Desde el 1 de abril hasta el 30 de septiembre de 9 a 19 horas., ininterrumpidamente, para todos los servicios excepto para las inscripciones en actividades organizadas por la Dirección General de Juventud y Deportes, que sólo se realizarán de 9 a 14 horas. ",Calle Fernando El Catolico,Madrid,28015,915 437 412,tive.juventud@madrid.org,0
Oficina Joven Comunidad de Madrid. TIVE. Calle de Recoletos,OficinasTurismo.csv,"40.42232563847626, -3.6909434067579525", De lunes a viernes de 9 a 14 horas ,Calle Recoletos,Madrid,28001,901 510 610 / 912 767 563,,0
Punto de Información Turística Aeropuerto Adolfo Suárez Madrid -  Barajas Terminal 2,OficinasTurismo.csv,"40.45188738242834, -3.5859807207200376",De lunes a domingo de 9 a 20 horas,Avenida Hispanidad,Madrid,28042,914 544 410 (nformación turística y Programa de Visitas Guiadas Oficiales),turismo@esmadrid.com,0
Punto de Información Turística Aeropuerto Adolfo Suárez Madrid - Barajas Terminal 4,OficinasTurismo.csv,"40.45188738242834, -3.5859807207200376",De lunes a domingo de 9 a 20 horas,Avenida Hispanidad,Madrid,28042,914 544 410 (información turística y Programa Visitas Guiadas Oficiales),turismo@esmadrid.com,0
Punto de Información Turística Callao (en remodelación),OficinasTurismo.csv,"40.41974735763767, -3.7061346665078845",De lunes a domingo de 9:30 a 20:30 horas,Plaza Callao,Madrid,28013,914 544 410 (información turística y Programa Visitas Guiadas Oficiales),turismo@esmadrid.com,0
Punto de Información Turística Cibeles,OficinasTurismo.csv,"40.419011767401095, -3.692206111679657",De lunes a domingo de 9:30 a 20:30 horas,Plaza Cibeles,Madrid,28014,914 544 410 (información turística y Programa Visitas Guiadas Oficiales),turismo@esmadrid.com,0
Punto de Información Turística Paseo del Arte,OficinasTurismo.csv,"40.41213027498252, -3.6994547941964946",De lunes a domingo de 9:30 a 20:30 horas. ,Calle Santa Isabel,Madrid,28012,914 544 410 (información turística y Programa Visitas Guiadas Oficiales),turismo@esmadrid.com,1
Punto de Información Turística. Centrocentro,OficinasTurismo.csv,"40.419011767401095, -3.692206111679657","  De martes a domingo de 10 a 20 horas  Cerrado todos los lunes, 1 y 6 de enero, 1 de mayo y 24, 25 y 31 de diciembre  ",Plaza Cibeles,Madrid,28014,914 544 410 (información turística y Programa Visitas Guiadas Oficiales),turismo@esmadrid.com,0
Servicio de Atención al Turista Extranjero (SATE). Comisaría de Centro,OficinasTurismo.csv,"40.421578408057876, -3.7101852392954386",Todos los días de 9 a 24 horas,Calle Leganitos,Madrid,28013,902 102 112 (denuncias 24 horas. Policía),satemadrid@esmadrid.com,0
Servicio No Presencial de Información Turística de Madrid,OficinasTurismo.csv,"40.41583855082183, -3.7074257084323636",De lunes a domingo de 9:30 a 20:30 horas,Plaza Mayor,Madrid,28012,914 544 410 (información turística y Programa Visitas Guiadas Oficiales),turismo@esmadrid.com,0
Centro de Turismo Colón,PuntosInfoTuristica.csv,"40.42500882822323, -3.6911948422827687", De lunes a domingo de 9:30 a 20:30 horas ,Plaza Colon,Madrid,28046,"914 544 410 (información turística y Programa de Visitas Guiadas Oficiales)                            
",turismo@esmadrid.com,1
Centro de Turismo Plaza Mayor,PuntosInfoTuristica.csv,"40.41583855082183, -3.7074257084323636", De lunes a domingo de 9:30 a 20:30 horas.  Venta de entradas para el Programa de Visitas Guiadas Oficiales en el Centro de turismo de lunes a domingo de 9:30 a 20:30 horas. ,Plaza Mayor,Madrid,28012,"914 544 410 (información turística y Programa Visitas Guiadas Oficiales)                                 
",turismo@esmadrid.com,1
Punto de Información Turística Aeropuerto Adolfo Suárez Madrid -  Barajas Terminal 2,PuntosInfoTuristica.csv,"40.45188738242834, -3.5859807207200376",De lunes a domingo de 9 a 20 horas,Avenida Hispanidad,Madrid,28042,914 544 410 (nformación turística y Programa de Visitas Guiadas Oficiales),turismo@esmadrid.com,0
Punto de Información Turística Aeropuerto Adolfo Suárez Madrid - Barajas Terminal 4,PuntosInfoTuristica.csv,"40.45188738242834, -3.5859807207200376",De lunes a domingo de 9 a 20 horas,Avenida Hispanidad,Madrid,28042,914 544 410 (información turística y Programa Visitas Guiadas Oficiales),turismo@esmadrid.com,0
Punto de Información Turística Callao (en remodelación),PuntosInfoTuristica.csv,"40.41974735763767, -3.7061346665078845",De lunes a domingo de 9:30 a 20:30 horas,Plaza Callao,Madrid,28013,914 544 410 (información turística y Programa Visitas Guiadas Oficiales),turismo@esmadrid.com,0
Punto de Información Turística Cibeles,PuntosInfoTuristica.csv,"40.419011767401095, -3.692206111679657",De lunes a domingo de 9:30 a 20:30 horas,Plaza Cibeles,Madrid,28014,914 544 410 (información turística y Programa Visitas Guiadas Oficiales),turismo@esmadrid.com,0
Punto de Información Turística Paseo del Arte,PuntosInfoTuristica.csv,"40.41213027498252, -3.6994547941964946",De lunes a domingo de 9:30 a 20:30 horas. ,Calle Santa Isabel,Madrid,28012,914 544 410 (información turística y Programa Visitas Guiadas Oficiales),turismo@esmadrid.com,1
Punto de Información Turística. Centrocentro,PuntosInfoTuristica.csv,"40.419011767401095, -3.692206111679657","  De martes a domingo de 10 a 20 horas  Cerrado todos los lunes, 1 y 6 de enero, 1 de mayo y 24, 25 y 31 de diciembre  ",Plaza Cibeles,Madrid,28014,914 544 410 (información turística y Programa Visitas Guiadas Oficiales),turismo@esmadrid.com,0
Servicio No Presencial de Información Turística de Madrid,PuntosInfoTuristica.csv,"40.41583855082183, -3.7074257084323636",De lunes a domingo de 9:30 a 20:30 horas,Plaza Mayor,Madrid,28012,914 544 410 (información turística y Programa Visitas Guiadas Oficiales),turismo@esmadrid.com,0
