PK;NOMBRE;DESCRIPCION-ENTIDAD;HORARIO;EQUIPAMIENTO;TRANSPORTE;DESCRIPCION;ACCESIBILIDAD;CONTENT-URL;NOMBRE-VIA;CLASE-VIAL;TIPO-NUM;NUM;PLANTA;PUERTA;ESCALERAS;ORIENTACION;LOCALIDAD;PROVINCIA;CODIGO-POSTAL;BARRIO;DISTRITO;COORDENADA-X;COORDENADA-Y;LATITUD;LONGITUD;TELEFONO;FAX;EMAIL;TIPO;
7933;"Consulado de Argentina";"";"";"";" Metro: Rubén Darío (línea 5), Núñez de Balboa (líneas 5, 9)  Bus: 1, 5, 9, 14, 19, 27, 45, 51, 61, 74, 150 ";"";"0";"http://www.madrid.es/vgn-ext-templating/v/index.jsp?vgnextchannel=9e4c43db40317010VgnVCM100000dc0ca8c0RCRD&vgnextoid=654df3216571c010VgnVCM1000000b205a0aRCRD";"SERRANO";"CALLE";"V";"90";"6ª";"";"";"";"MADRID";"MADRID";"28006";"CASTELLANA";"SALAMANCA";"441876";"4476176";"40.43231570826588";"-3.6865655709793157";"914 025 115";"913 091 996";"consulado-madrid@portalargentino.net";"/contenido/entidadesYorganismos/OrganismosInternacionales/EmbajadasConsulados"; 
21112;"Consulado de Bolivia";"";"";"";" Metro: Cruz del Rayo (línea 9), Prosperidad (línea 4), República Argentina (línea 6)  Bus: 1, 9, 16, 19, 29, 51, 52, 73, 114, 115, 122, C1, C2 ";"";"0";"http://www.madrid.es/vgn-ext-templating/v/index.jsp?vgnextchannel=9e4c43db40317010VgnVCM100000dc0ca8c0RCRD&vgnextoid=11e87d448b51c010VgnVCM2000000c205a0aRCRD";"AVIADOR LINDBERGH";"CALLE";"V";"3";"";"";"";"";"MADRID";"MADRID";"28002";"EL VISO";"CHAMARTIN";"442469";"4477296";"40.44244651771137";"-3.679676302681969";"913 265 028 ";"913 265 016";"colivian-madrid@rree.gov.bo";"/contenido/entidadesYorganismos/OrganismosInternacionales/EmbajadasConsulados"; 
7048490;"Consulado de Botswana";"";"";"";" Metro: Rubén Darío (línea 5), Núñez de Balboa (líneas 5, 9)   Bus: 1, 5, 9, 14, 19, 27, 45, 51, 74, 150 ";"";"0";"http://www.madrid.es/vgn-ext-templating/v/index.jsp?vgnextchannel=9e4c43db40317010VgnVCM100000dc0ca8c0RCRD&vgnextoid=af2d0f3707cef310VgnVCM2000000c205a0aRCRD";"CLAUDIO COELLO";"CALLE";"V";"78";"3º";"";"";"";"MADRID";"MADRID";"28001";"CASTELLANA";"SALAMANCA";"441957";"4475919";"40.43000619511413";"-3.685587151651725";"";"";"";"/contenido/entidadesYorganismos/OrganismosInternacionales/EmbajadasConsulados"; 
64260;"Consulado de Brasil";"";"";"";" Metro: Serrano (línea 4), Colón (línea 4), Velázquez (línea 4)  Bus: 1, 5, 9, 14, 19, 21, 27, 37, 45, 51, 53, 74, 150  Renfe: Madrid-Recoletos (líneas C-1, C-2, C-7, C-8, C-10) ";"";"0";"http://www.madrid.es/vgn-ext-templating/v/index.jsp?vgnextchannel=9e4c43db40317010VgnVCM100000dc0ca8c0RCRD&vgnextoid=d3a97589f451c010VgnVCM1000000b205a0aRCRD";"GOYA";"CALLE";"V";"5";"2ª";"";"";"Pasaje comercial";"MADRID";"MADRID";"28001";"RECOLETOS";"SALAMANCA";"441675";"4475445";"40.42571641206772";"-3.688867957275151";"917 021 220 ";"913 101 630";"consular.cgmadri@itamaraty.gov.br";"/contenido/entidadesYorganismos/OrganismosInternacionales/EmbajadasConsulados"; 
7934;"Consulado de Chile";"";"";"";" Metro: Rubén Darío (línea 5), Iglesia (línea 1), Gregorio Marañón (líneas 7, 10)  Bus: 3, 5, 7, 16, 40, 61, 147 ";"";"0";"http://www.madrid.es/vgn-ext-templating/v/index.jsp?vgnextchannel=9e4c43db40317010VgnVCM100000dc0ca8c0RCRD&vgnextoid=8a6df3216571c010VgnVCM1000000b205a0aRCRD";"RAFAEL CALVO";"CALLE";"V";"18";"5º";"";"";"";"MADRID";"MADRID";"28010";"ALMAGRO";"CHAMBERI";"441230";"4476352";"40.4338557188148";"-3.6941975411436756";"913 190 763 / 913 199 559";"913 193 278";"";"/contenido/entidadesYorganismos/OrganismosInternacionales/EmbajadasConsulados"; 
7935;"Consulado de Colombia";"";"";"";" Metro: Banco de España (línea 2), Retiro (linez 2)  Bus: 14, 19, 27, 37, 45  Renfe: Recoletos ";"";"0";"http://www.madrid.es/vgn-ext-templating/v/index.jsp?vgnextchannel=9e4c43db40317010VgnVCM100000dc0ca8c0RCRD&vgnextoid=af8df3216571c010VgnVCM1000000b205a0aRCRD";"ALFONSO XI";"CALLE";"V";"6";"";"";"";"";"MADRID";"MADRID";"28014";"LOS JERONIMOS";"RETIRO";"441517";"4474663";"40.41866066190487";"-3.690658377502491";"917 452 590";"917 450 471";"cmadrid@cancilleria.gov.co";"/contenido/entidadesYorganismos/OrganismosInternacionales/EmbajadasConsulados"; 
169901;"Consulado de Costa Rica";"";"";"";" Metro: Cuzco (línea 10)  Bus: 5, 11, 27, 40, 147, 149, 150 ";"";"0";"http://www.madrid.es/vgn-ext-templating/v/index.jsp?vgnextchannel=9e4c43db40317010VgnVCM100000dc0ca8c0RCRD&vgnextoid=a0b6085f5181c010VgnVCM1000000b205a0aRCRD";"CASTELLANA";"PASEO";"V";"164";"";"";"";"17 - A";"MADRID";"MADRID";"28046";"NUEVA ESPAÑA";"CHAMARTIN";"441695";"4479159";"40.459175306534235";"-3.6889619219909706";"913 459 622 / 913 459 521";"913 533 709";"consulado@embcr.org";"/contenido/entidadesYorganismos/OrganismosInternacionales/EmbajadasConsulados"; 
7936;"Consulado de Cuba";"";"";"";" Metro: Pío  XII  (línea 9)  Bus: 14, 51, 150 ";"";"0";"http://www.madrid.es/vgn-ext-templating/v/index.jsp?vgnextchannel=9e4c43db40317010VgnVCM100000dc0ca8c0RCRD&vgnextoid=32adf3216571c010VgnVCM1000000b205a0aRCRD";"LA HABANA";"PASEO";"V";"194";"";"";"";"Entrada por calle Macarena";"MADRID";"MADRID";"28036";"NUEVA ESPAÑA";"CHAMARTIN";"442432";"4479468";"40.46201032845668";"-3.6803098601769633";"913 598 396";"914 021 948";"";"/contenido/entidadesYorganismos/OrganismosInternacionales/EmbajadasConsulados"; 
7874;"Consulado de Ecuador";"";"";"";" Bus :  7, 11, 40, 52, 87 ";"";"0";"http://www.madrid.es/vgn-ext-templating/v/index.jsp?vgnextchannel=9e4c43db40317010VgnVCM100000dc0ca8c0RCRD&vgnextoid=6e6ef3216571c010VgnVCM1000000b205a0aRCRD";"COMANDANTE AZCARRAGA";"CALLE";"V";"2";"";"";"";"";"MADRID";"MADRID";"28016";"NUEVA ESPAÑA";"CHAMARTIN";"443343";"4479380";"40.46128032290195";"-3.669557479764393";"913 430 250";"913 454 523";"consuladoecuador@consuldormadrid.org";"/contenido/entidadesYorganismos/OrganismosInternacionales/EmbajadasConsulados"; 
7876;"Consulado de El Salvador";"";"";"";" Metro: Gregorio Marañón (líneas 7, 10), Rubén Darío (línea 5)  Bus: 5, 7, 9, 12, 14, 16, 19, 27, 40, 45, 51, 61, 147, 150 ";"";"0";"http://www.madrid.es/vgn-ext-templating/v/index.jsp?vgnextchannel=9e4c43db40317010VgnVCM100000dc0ca8c0RCRD&vgnextoid=57cdf3216571c010VgnVCM1000000b205a0aRCRD";"GENERAL ORAA";"CALLE";"V";"9";"5º";"Interior Izquierda";"";"";"MADRID";"MADRID";"28006";"CASTELLANA";"SALAMANCA";"441837";"4476631";"40.43641183331328";"-3.6870670608810574";"915 612 524";"915 644 256";"acanosa@rree.gob.sv";"/contenido/entidadesYorganismos/OrganismosInternacionales/EmbajadasConsulados"; 
7049816;"Consulado de Etiopía";"";"";"";" Metro: Retiro (línea 2), Príncipe de Vergara (líneas 2, 9), Velázquez (línea 4), Serrano (línea 4)  Bus: 1, 2, 9, 15, 19, 20, 28, 51, 52, 74, 146, 203  Renfe: Madrid-Recoletos (líneas C-1, C-2, C-7,C-8, C-10) ";"";"0";"http://www.madrid.es/vgn-ext-templating/v/index.jsp?vgnextchannel=9e4c43db40317010VgnVCM100000dc0ca8c0RCRD&vgnextoid=874ef038b71ff310VgnVCM1000000b205a0aRCRD";"VELAZQUEZ";"CALLE";"V";"3";"4º";"";"";"";"MADRID";"MADRID";"28001";"RECOLETOS";"SALAMANCA";"442030";"4474973";"40.42148926032306";"-3.6846401694200934";"917 810 726 ";"915 779 956";"info@conshonethiopie-madrid.org";"/contenido/entidadesYorganismos/OrganismosInternacionales/EmbajadasConsulados"; 
7938;"Consulado de Francia";"";"";"";" Metro: Colón (línea 4), Serrano (línea 4)  Bus: 5, 14, 21, 27, 37, 45, 53, 150  Renfe: Madrid-Recoletos (líneas C-1, C-2, C-7,C-8, C-10) ";"";"0";"http://www.madrid.es/vgn-ext-templating/v/index.jsp?vgnextchannel=9e4c43db40317010VgnVCM100000dc0ca8c0RCRD&vgnextoid=e9ddf3216571c010VgnVCM1000000b205a0aRCRD";"MARQUES DE LA ENSENADA";"CALLE";"V";"10";"";"C";"";"";"MADRID";"MADRID";"28004";"JUSTICIA";"CENTRO";"441375";"4475311";"40.424488150176956";"-3.6923919202160227";"917 007 800";"917 007 801";"";"/contenido/entidadesYorganismos/OrganismosInternacionales/EmbajadasConsulados"; 
7049929;"Consulado de Gambia";"";"";"";" Metro: Atocha Renfe (línea 1)  Bus: 10, 14, 19, 27, 34, 37, 45, 203  Renfe: Atocha (líneas C-1, C-2, C-3, C-4, C-5, C-7, C-8, C-10) ";"";"0";"http://www.madrid.es/vgn-ext-templating/v/index.jsp?vgnextchannel=9e4c43db40317010VgnVCM100000dc0ca8c0RCRD&vgnextoid=2127f038b71ff310VgnVCM1000000b205a0aRCRD";"ALFONSO XII";"CALLE";"V";"46";"";"";"";"";"MADRID";"MADRID";"28014";"LOS JERONIMOS";"RETIRO";"441647";"4473991";"40.41261609238761";"-3.689064362022834";"914 203 517";"914 200 886";"jaime.ensenaat@consuladogambiamadrid.es";"/contenido/entidadesYorganismos/OrganismosInternacionales/EmbajadasConsulados"; 
7571531;"Consulado de Islandia";"";"";"";" Metro: República Argentina (línea 6), Cruz del Rayo (línea 9)  Bus: 1, 9, 16, 19, 29, 51, 52, 72, 73, 114, 115, 122, 200, C1, C2 ";"";"0";"http://www.madrid.es/vgn-ext-templating/v/index.jsp?vgnextchannel=9e4c43db40317010VgnVCM100000dc0ca8c0RCRD&vgnextoid=eb2248c7f9517410VgnVCM2000000c205a0aRCRD";"LOPEZ DE HOYOS";"GLORIETA";"V";"5";"";"";"";"";"MADRID";"MADRID";"28002";"EL VISO";"CHAMARTIN";"442421";"4477116";"40.44082166284756";"-3.6802259136651303";"915 233 093         
";"915 637 323";"";"/contenido/entidadesYorganismos/OrganismosInternacionales/EmbajadasConsulados"; 
7050054;"Consulado de Kazajstan";"";"";"";" Metro: Santigo Bernabéu (línea 10)  Bus: 7, 14, 43, 51, 120, 150 ";"";"0";"http://www.madrid.es/vgn-ext-templating/v/index.jsp?vgnextchannel=9e4c43db40317010VgnVCM100000dc0ca8c0RCRD&vgnextoid=a045c81aea1ff310VgnVCM2000000c205a0aRCRD";"SEGRE";"CALLE";"V";"20";"7º";"C";"";"";"MADRID";"MADRID";"28002";"EL VISO";"CHAMARTIN";"442047";"4478280";"40.45128148092176";"-3.684741954505602";"";"";"";"/contenido/entidadesYorganismos/OrganismosInternacionales/EmbajadasConsulados"; 
7941;"Consulado de Liberia";"";"";"";" Metro: Santiago Bernabéu (línea 10), Nuevos Ministerios (línea 6, 8, 10)  Bus: 5, 43, 149, C2  Renfe: Nuevos Ministerios (líneas C-1, C-2, C-3, C-4, C-7, C-8, C-10) ";"";"0";"http://www.madrid.es/vgn-ext-templating/v/index.jsp?vgnextchannel=9e4c43db40317010VgnVCM100000dc0ca8c0RCRD&vgnextoid=911ef3216571c010VgnVCM1000000b205a0aRCRD";"ORENSE";"CALLE";"V";"18";"3º";"2";"";"";"MADRID";"MADRID";"28020";"CUATRO CAMINOS";"TETUAN";"441175";"4478180";"40.450319267566314";"-3.6950155319150753";"915 564 288";"";"";"/contenido/entidadesYorganismos/OrganismosInternacionales/EmbajadasConsulados"; 
169906;"Consulado de Macedonia";"";"";"";" Metro: Valdeacederas (línea 1), Plaza de Castilla (líneas 1, 9, 10)  Bus: 5, 11, 27, 66, 124, 147, 149 ";"";"0";"http://www.madrid.es/vgn-ext-templating/v/index.jsp?vgnextchannel=9e4c43db40317010VgnVCM100000dc0ca8c0RCRD&vgnextoid=c5d6085f5181c010VgnVCM1000000b205a0aRCRD";"CAPITAN HAYA";"CALLE";"V";"60";"6º";"";"";"";"MADRID";"MADRID";"28020";"CASTILLEJOS";"TETUAN";"441488";"4479596";"40.46309734100556";"-3.691455365422714";"915 706 641";"";"";"/contenido/entidadesYorganismos/OrganismosInternacionales/EmbajadasConsulados"; 
7943;"Consulado de Marruecos";"";"";"";" Metro: Concha Espina (línea 9), Cruz del Rayo (línea 9)  Bus: 7, 16, 19, 29, 51, 52 ";"";"0";"http://www.madrid.es/vgn-ext-templating/v/index.jsp?vgnextchannel=9e4c43db40317010VgnVCM100000dc0ca8c0RCRD&vgnextoid=242ef3216571c010VgnVCM1000000b205a0aRCRD";"LEIZARAN";"CALLE";"V";"31";"";"";"";"";"MADRID";"MADRID";"28002";"EL VISO";"CHAMARTIN";"442378";"4477891";"40.44780024426938";"-3.68080334104318";"912 109 300";"912 049 547";"consuladomarr.madrid@gmail.com";"/contenido/entidadesYorganismos/OrganismosInternacionales/EmbajadasConsulados"; 
33216;"Consulado de Mónaco";"";"";"";" Bus: 11, 70, 114, 115, 122, 200 ";"";"0";"http://www.madrid.es/vgn-ext-templating/v/index.jsp?vgnextchannel=9e4c43db40317010VgnVCM100000dc0ca8c0RCRD&vgnextoid=2d4d059cb751c010VgnVCM2000000c205a0aRCRD";"MADRO&Ntilde;OS";"AVENIDA";"V";"11";"3";"G";"";"";"MADRID";"MADRID";"28043";"PIOVERA";"HORTALEZA";"445077";"4478325";"40.45189299982011";"-3.649015038935708";"913 002 406";"";"philippeguillaumet@gmail.com";"/contenido/entidadesYorganismos/OrganismosInternacionales/EmbajadasConsulados"; 
21136;"Consulado de Nepal";"";"";"";" Metro: Cuzco (línea 10), Tetuán (línea 1)  Bus: 5, 11, 27, 40, 126, 147, 149 ";"";"0";"http://www.madrid.es/vgn-ext-templating/v/index.jsp?vgnextchannel=9e4c43db40317010VgnVCM100000dc0ca8c0RCRD&vgnextoid=36097d448b51c010VgnVCM2000000c205a0aRCRD";"CAPITAN HAYA";"CALLE";"V";"35";"2";"B";"";"";"MADRID";"MADRID";"28020";"CASTILLEJOS";"TETUAN";"441417";"4479120";"40.45880431856959";"-3.692248744337818";"915 418 787         
";"912 549 622";"info@nepal.es";"/contenido/entidadesYorganismos/OrganismosInternacionales/EmbajadasConsulados"; 
169933;"Consulado de Nicaragua";"";"";"";" Metro: Cuzco (línea 10)  Bus: 5, 11, 27, 40, 126, 147, 149 ";"";"0";"http://www.madrid.es/vgn-ext-templating/v/index.jsp?vgnextchannel=9e4c43db40317010VgnVCM100000dc0ca8c0RCRD&vgnextoid=7d07085f5181c010VgnVCM1000000b205a0aRCRD";"CASTELLANA";"PASEO";"V";"127";"1º";"B";"";"";"MADRID";"MADRID";"28046";"CASTILLEJOS";"TETUAN";"441482";"4479039";"40.45807922419812";"-3.6914746799471168";"915 555 510 / 915 555 513";"915 555 737";"";"/contenido/entidadesYorganismos/OrganismosInternacionales/EmbajadasConsulados"; 
61821;"Consulado de Níger";"";"";"";" Metro: Gregorio Marañón (líneas 7, 10), Núñez de Balboa (líneas 5, 9), Ruben Darío (línea 5)  Bus: 5, 7, 9, 12, 14, 16, 19, 27, 40, 45, 51, 61, 147, 150 ";"";"0";"http://www.madrid.es/vgn-ext-templating/v/index.jsp?vgnextchannel=9e4c43db40317010VgnVCM100000dc0ca8c0RCRD&vgnextoid=53ac8ed67151c010VgnVCM2000000c205a0aRCRD";"SERRANO";"CALLE";"V";"85";"1º";"D";"";"";"MADRID";"MADRID";"28006";"CASTELLANA";"SALAMANCA";"441877";"4476658";"40.436657863922896";"-3.6865979477984117";"914 263 007";"915 770 209";"";"/contenido/entidadesYorganismos/OrganismosInternacionales/EmbajadasConsulados"; 
61823;"Consulado de Omán";"";"";"";" Metro: Cuzco (línea 10)   Bus: 11, 14, 40, 150 ";"";"0";"http://www.madrid.es/vgn-ext-templating/v/index.jsp?vgnextchannel=9e4c43db40317010VgnVCM100000dc0ca8c0RCRD&vgnextoid=e5bc8ed67151c010VgnVCM2000000c205a0aRCRD";"LÍGULA";"CALLE";"V";"6";"2º";"H";"";"";"MADRID";"MADRID";"28036";"HISPANOAMERICA";"CHAMARTIN";"442128";"4479006";"40.457827270026804";"-3.68385308263542";"914 586 261 / 914 586 081";"";"";"/contenido/entidadesYorganismos/OrganismosInternacionales/EmbajadasConsulados"; 
169935;"Consulado de Panamá";"";"";"";" Metro: Rubén Darío (línea 5), Núñez de Balboa (líneas 5, 9)  Bus: 1, 5, 9, 14, 19, 27, 45, 51, 74, 150 ";"";"0";"http://www.madrid.es/vgn-ext-templating/v/index.jsp?vgnextchannel=9e4c43db40317010VgnVCM100000dc0ca8c0RCRD&vgnextoid=0027085f5181c010VgnVCM1000000b205a0aRCRD";"CLAUDIO COELLO";"CALLE";"V";"86";"BAJO";"";"";"";"MADRID";"MADRID";"28006";"CASTELLANA";"SALAMANCA";"441951";"4476021";"40.43092464104735";"-3.68566721558894";"915 765 001 / 915 767 668";"";"";"/contenido/entidadesYorganismos/OrganismosInternacionales/EmbajadasConsulados"; 
5758671;"Consulado de Paraguay";"";"";"";" Metro: Colombia (líneas 8, 9)  Bus: 7, 11, 14, 16, 29, 40, 51, 87, 150 ";"";"0";"http://www.madrid.es/vgn-ext-templating/v/index.jsp?vgnextchannel=9e4c43db40317010VgnVCM100000dc0ca8c0RCRD&vgnextoid=65e91ebe1f5c9210VgnVCM2000000c205a0aRCRD";"ALBERTO ALCOCER";"AVENIDA";"V";"45";"1º";"";"";"";"MADRID";"MADRID";"28016";"NUEVA ESPAÑA";"CHAMARTIN";"442506";"4479116";"40.4588444878455";"-3.679405144214614";"913 082 746 / 913 085 319";"913 084 905";"consuladogmpy@yahoo.es";"/contenido/entidadesYorganismos/OrganismosInternacionales/EmbajadasConsulados"; 
7944;"Consulado de Perú";"";"";"";" Metro: Ríos Rosas (línea 1), Alonso Cano (línea 7), Nuevos Ministerios (líneas 6, 8, 10)  Bus: 5, 12, 45  Renfe: Nuevos Ministerios (líneas C-1, C-2, C-3, C-4, C-7, C-8, C-10) ";"";"0";"http://www.madrid.es/vgn-ext-templating/v/index.jsp?vgnextchannel=9e4c43db40317010VgnVCM100000dc0ca8c0RCRD&vgnextoid=b63ef3216571c010VgnVCM1000000b205a0aRCRD";"CRISTOBAL BORDIU";"CALLE";"V";"49";"";"";"";"";"MADRID";"MADRID";"28003";"RIOS ROSAS";"CHAMBERI";"441016";"4477368";"40.44299312763358";"-3.6968149243693786";"915 629 012 / 915 629 022";"915 629 111";"info@consuladoperumadrid.org";"/contenido/entidadesYorganismos/OrganismosInternacionales/EmbajadasConsulados"; 
7952;"Consulado de Reino Unido de Gran Bretaña e Irlanda del Norte";"";"";"";" Metro: Chamartín (líneas 1, 10)  Bus: 66, 67, 124, 134, 135, 137, 147, 173, 174, 176, 178  Renfe: Chamartín (líneas C-1, C-2, C-3, C-4, C-7, C-8, C-10) ";"";"0";"http://www.madrid.es/vgn-ext-templating/v/index.jsp?vgnextchannel=9e4c43db40317010VgnVCM100000dc0ca8c0RCRD&vgnextoid=db5ef3216571c010VgnVCM1000000b205a0aRCRD";"CASTELLANA";"PASEO";"V";"259";"";"";"D";"Torre Espacio";"MADRID";"MADRID";"28046";"LA PAZ";"FUENCARRAL-EL PARDO";"441832";"4481024";"40.475994573022675";"-3.687529382621041";"917 146 400";"917 146 401";"";"/contenido/entidadesYorganismos/OrganismosInternacionales/EmbajadasConsulados"; 
5328095;"Consulado de República Centroafricana";"";"";"";"";"";"0";"http://www.madrid.es/vgn-ext-templating/v/index.jsp?vgnextchannel=9e4c43db40317010VgnVCM100000dc0ca8c0RCRD&vgnextoid=6213211ea9e21210VgnVCM2000000c205a0aRCRD";"SANTA ELVIRA";"CALLE";"V";"25";"";"";"";"";"MADRID";"MADRID";"28023";"ARAVACA";"MONCLOA-ARAVACA";"432689";"4478998";"40.45704302864376";"-3.7951685152906713";"917 151 607";"";"";"/contenido/entidadesYorganismos/OrganismosInternacionales/EmbajadasConsulados"; 
78153;"Consulado de República Dominicana";"";"";"";" Metro: Velázquez (línea 4), Príncipe de Vergara (líneas 2, 9), Goya (líneas 2, 4), Serrano (línea 4)  Bus: 1, 9, 15, 19, 21, 29, 51, 52, 53, 74, 146, 152 ";"";"0";"http://www.madrid.es/vgn-ext-templating/v/index.jsp?vgnextchannel=9e4c43db40317010VgnVCM100000dc0ca8c0RCRD&vgnextoid=78cc8ed67151c010VgnVCM2000000c205a0aRCRD";"CASTELLO";"CALLE";"V";"25";"2º";"E";"";"";"MADRID";"MADRID";"28001";"RECOLETOS";"SALAMANCA";"442283";"4475320";"40.42463283229468";"-3.6816895919510877";"914 315 321";"915 761 168";"";"/contenido/entidadesYorganismos/OrganismosInternacionales/EmbajadasConsulados"; 
5758707;"Consulado de Salomon";"";"";"";" Metro: Gregorio Marañón (líneas 7, 10), República Argentina (línea 6), Avenida de América (líneas 4, 6, 7, 9)   Bus: 9, 12, 16, 19, 51, 114, 115, 122, C1, C2 ";"";"0";"http://www.madrid.es/vgn-ext-templating/v/index.jsp?vgnextchannel=9e4c43db40317010VgnVCM100000dc0ca8c0RCRD&vgnextoid=91f11ebe1f5c9210VgnVCM2000000c205a0aRCRD";"PEDRO DE VALDIVIA";"CALLE";"V";"19";"";"";"";"H";"MADRID";"MADRID";"28006";"EL VISO";"CHAMARTIN";"442068";"4476955";"40.43934673337841";"-3.6843732388795";"917 823 301";"915 615 304";"";"/contenido/entidadesYorganismos/OrganismosInternacionales/EmbajadasConsulados"; 
21156;"Consulado de San Marino";"";"";"";" Metro: Alonso Martínez (líneas 4, 5, 10), Colón (línea 4), Serrano (línea 4)  Bus: 1, 5, 7, 9, 14, 19, 21, 27, 37, 45, 51, 53, 74, 150  Renfe: Madrid-Recoletos (líneas C-1, C-2, C-7,C-8, C-10) ";"";"0";"http://www.madrid.es/vgn-ext-templating/v/index.jsp?vgnextchannel=9e4c43db40317010VgnVCM100000dc0ca8c0RCRD&vgnextoid=c8197d448b51c010VgnVCM2000000c205a0aRCRD";"CASTELLANA";"PASEO";"V";"13";"3º";"";"";"";"MADRID";"MADRID";"28046";"ALMAGRO";"CHAMBERI";"441558";"4475683";"40.42785220456551";"-3.6902690498640394";"913 193 562";"";"";"/contenido/entidadesYorganismos/OrganismosInternacionales/EmbajadasConsulados"; 
169945;"Consulado de Santo Tomé y Príncipe";"";"";"";" Metro: Plaza de Castilla (líneas 1, 9, 10), Cuzco (línea 10)  Bus: 5, 27, 42, 49, 66, 70, 107, 124, 129, 147, 149, 150, 174 ";"";"0";"http://www.madrid.es/vgn-ext-templating/v/index.jsp?vgnextchannel=9e4c43db40317010VgnVCM100000dc0ca8c0RCRD&vgnextoid=9237085f5181c010VgnVCM1000000b205a0aRCRD";"DOCTOR FLEMING";"CALLE";"V";"51";"3.º";"E";"";"";"MADRID";"MADRID";"28036";"NUEVA ESPAÑA";"CHAMARTIN";"441784";"4479652";"40.46362264475208";"-3.6879693869799546";"913 591 606 / 626 909 015";"911 211 759";"santotomeyprincipe@hotmail.com, brunet@hotmail.com";"/contenido/entidadesYorganismos/OrganismosInternacionales/EmbajadasConsulados"; 
169940;"Consulado de Senegal";"";"";"";" Metro: Alfonso XIII (línea 4), Avenida de la Paz (línea 4)  Bus: 9, 40, 43, 52, 53, 72, 73, 120 ";"";"0";"http://www.madrid.es/vgn-ext-templating/v/index.jsp?vgnextchannel=9e4c43db40317010VgnVCM100000dc0ca8c0RCRD&vgnextoid=2547085f5181c010VgnVCM1000000b205a0aRCRD";"LUIS LARRAINZA";"CALLE";"V";"55";"";"";"";"";"MADRID";"MADRID";"28002";"CIUDAD JARDIN";"CHAMARTIN";"443420";"4478234";"40.450961866241116";"-3.6685469991507835";"913 095 200";"913 090 087";"";"/contenido/entidadesYorganismos/OrganismosInternacionales/EmbajadasConsulados"; 
47055;"Consulado de Seychelles";"";"";"";" Metro: Alonso Martínez (líneas 4, 5, 10), Colón (línea 4), Rubén Darío (línea 5)  Bus: 5, 7, 14, 21, 27, 37, 45, 150 ";"";"0";"http://www.madrid.es/vgn-ext-templating/v/index.jsp?vgnextchannel=9e4c43db40317010VgnVCM100000dc0ca8c0RCRD&vgnextoid=71f97589f451c010VgnVCM1000000b205a0aRCRD";"MONTE ESQUINZA";"CALLE";"V";"30";"";"";"";"";"MADRID";"MADRID";"28010";"ALMAGRO";"CHAMBERI";"441422";"4475848";"40.429329019678974";"-3.6918874746167036";"913 195 189";"913 105 098";"";"/contenido/entidadesYorganismos/OrganismosInternacionales/EmbajadasConsulados"; 
7053646;"Consulado de Sierra Leona";"";"";"";" Metro: Serrano (línea 4), Velázquez (línea 4), Príncipe de Vergara (líneas 2, 9), Goya (línea 4),   Bus: 1, 9, 19, 21, 29, 51, 52, 53, 74 ";"";"0";"http://www.madrid.es/vgn-ext-templating/v/index.jsp?vgnextchannel=9e4c43db40317010VgnVCM100000dc0ca8c0RCRD&vgnextoid=8fc541890df00410VgnVCM2000000c205a0aRCRD";"HERMOSILLA";"CALLE";"V";"43";"4º";"A";"";"";"MADRID";"MADRID";"28001";"RECOLETOS";"SALAMANCA";"442169";"4475512";"40.42635453238746";"-3.6830508794926473";"915 756 608";"915 775 804";"adc@slconsulatespain.org";"/contenido/entidadesYorganismos/OrganismosInternacionales/EmbajadasConsulados"; 
20891;"Consulado de Sri Lanka";"";"";"";" Metro: Colón (línea 10), Serrano (línea 4), Chueca (línea 5), Banco de España (línea 2)  Bus: 5, 14, 21, 27, 37, 45, 53, 150  Renfe: Recoletos (líneas C-1, C-2, C-7, C-8, C-10) ";"";"0";"http://www.madrid.es/vgn-ext-templating/v/index.jsp?vgnextchannel=9e4c43db40317010VgnVCM100000dc0ca8c0RCRD&vgnextoid=5b297d448b51c010VgnVCM2000000c205a0aRCRD";"BARBARA DE BRAGANZA";"CALLE";"V";"11";"3º";"D";"";"";"MADRID";"MADRID";"28004";"JUSTICIA";"CENTRO";"441385";"4475198";"40.42347089760104";"-3.692263608136433";"670 843 969";"";"srilanka@spainmail.com";"/contenido/entidadesYorganismos/OrganismosInternacionales/EmbajadasConsulados"; 
169957;"Consulado de Uruguay";"";"";"";" Metro: Arg&uuml;elles (líneas 3, 4, 6), Ventura Rodríguez (línea 3)   Bus: 21, 74 ";"";"0";"http://www.madrid.es/vgn-ext-templating/v/index.jsp?vgnextchannel=9e4c43db40317010VgnVCM100000dc0ca8c0RCRD&vgnextoid=b757085f5181c010VgnVCM1000000b205a0aRCRD";"PINTOR ROSALES";"PASEO";"V";"32";"8ª";"";"";"";"MADRID";"MADRID";"28008";"ARGUELLES";"MONCLOA-ARAVACA";"439046";"4475643";"40.42731127075027";"-3.7198769837485237";"915 482 282 / 915 412 402";"917 581 061";"coruespa@terra.es";"/contenido/entidadesYorganismos/OrganismosInternacionales/EmbajadasConsulados"; 
169942;"Consulado de Uzbekistán";"";"";"";" Bus: 160 ";"";"0";"http://www.madrid.es/vgn-ext-templating/v/index.jsp?vgnextchannel=9e4c43db40317010VgnVCM100000dc0ca8c0RCRD&vgnextoid=4a67085f5181c010VgnVCM1000000b205a0aRCRD";"RINCONADA";"PASEO";"V";"13";"";"";"";"";"MADRID";"MADRID";"28023";"ARAVACA";"MONCLOA-ARAVACA";"435483";"4478911";"40.45648128289329";"-3.762209831708108";"913 078 191";"";"";"/contenido/entidadesYorganismos/OrganismosInternacionales/EmbajadasConsulados"; 
6443765;"Consulado de Venezuela";"";"";"";" Metro: Plaza de Castilla (líneas 1, 9, 10)  Bus: 14, 150 ";"";"0";"http://www.madrid.es/vgn-ext-templating/v/index.jsp?vgnextchannel=9e4c43db40317010VgnVCM100000dc0ca8c0RCRD&vgnextoid=031aa95c6f977310VgnVCM1000000b205a0aRCRD";"APOLONIO MORALES";"CALLE";"V";"3";"";"";"";"";"MADRID";"MADRID";"28036";"NUEVA ESPAÑA";"CHAMARTIN";"442108";"4479636";"40.46350119163445";"-3.684146524863205";"913 532 991";"913 452 662";"";"/contenido/entidadesYorganismos/OrganismosInternacionales/EmbajadasConsulados"; 
4638299;"Embajada de Afganistan";"";"";"";" Bus: 124, 125, 133, 178 ";"";"0";"http://www.madrid.es/vgn-ext-templating/v/index.jsp?vgnextchannel=9e4c43db40317010VgnVCM100000dc0ca8c0RCRD&vgnextoid=e6e795cbb83f4110VgnVCM1000000b205a0aRCRD";"NURIA";"CALLE";"V";"16";"";"4";"";"";"MADRID";"MADRID";"28034";"MIRASIERRA";"FUENCARRAL-EL PARDO";"440559";"4482721";"40.491182460841586";"-3.702705737064176";"917 218 581";"917 216 832";"info@embassyafghanistanmadrid.com";"/contenido/entidadesYorganismos/OrganismosInternacionales/EmbajadasConsulados"; 
17845;"Embajada de Albania";"";"De lunes a viernes de 10 a 13 horas";"";" Metro: Avenida de América (líneas 4, 6, 7, 9)  Bus: 3, 7, 12, 29, 52, 72, L 4, L 6, L 7,  L 9, C 1, C 2 ";"  Otros correos   electrónicos de interés     cancilleria@albania.e.telefonica.net    secretaria@albania.e.telefonica.net   ";"0";"http://www.madrid.es/vgn-ext-templating/v/index.jsp?vgnextchannel=9e4c43db40317010VgnVCM100000dc0ca8c0RCRD&vgnextoid=a68c7d448b51c010VgnVCM2000000c205a0aRCRD";"MARIA DE MOLINA";"CALLE";"V";"64";"5º";"B";"";"";"MADRID";"MADRID";"28006";"LISTA";"SALAMANCA";"442577";"4476718";"40.43724709432963";"-3.678350561105952";"915 626 985 / 915 612 118";"915 613 775";"embassy.madrid@mfa.gov.al";"/contenido/entidadesYorganismos/OrganismosInternacionales/EmbajadasConsulados"; 
7955;"Embajada de Alemania";"";"De lunes a viernes de 9 a 12 horas";"";" Metro: Rubén Darío (línea 5), Alonso Martínez (líneas 4, 5, 10), Colón (línea 4)  Bus: 1, 5, 7, 9, 14, 19, 27, 45, 51, 74, 150 ";"";"0";"http://www.madrid.es/vgn-ext-templating/v/index.jsp?vgnextchannel=9e4c43db40317010VgnVCM100000dc0ca8c0RCRD&vgnextoid=f08ef3216571c010VgnVCM1000000b205a0aRCRD";"FORTUNY";"CALLE";"V";"8";"";"";"";"";"MADRID";"MADRID";"28010";"ALMAGRO";"CHAMBERI";"441516";"4475915";"40.42993921408741";"-3.6907855374062173";"915 579 000";"913 102 104";"Zreg@MADRI.Auswaertiges-Amt.de";"/contenido/entidadesYorganismos/OrganismosInternacionales/EmbajadasConsulados"; 
27401;"Embajada de Andorra";"";"  De lunes a jueves de 9 a 17:30 horas  Viernes de 8 a 14 horas  ";"";" Metro: Retiro (línea 2), Príncipe de Vergara (línea 2, 9)  Bus: 1, 2, 5, 9, 14, 15, 19, 20, 27, 28, 37, 45, 51, 52, 53, 74, 146, 150, 203  Renfe: Recoletos (líneas C-1, C-2, C-7, C-8, C-10) ";"";"0";"http://www.madrid.es/vgn-ext-templating/v/index.jsp?vgnextchannel=9e4c43db40317010VgnVCM100000dc0ca8c0RCRD&vgnextoid=679d059cb751c010VgnVCM2000000c205a0aRCRD";"ALCALA";"CALLE";"V";"73";"";"";"";"";"MADRID";"MADRID";"28009";"RECOLETOS";"SALAMANCA";"441795";"4474861";"40.420463872305014";"-3.6873998628244578";"914 317 453 / 914 317 835";"915 776 341";"embajada@embajadaandorra.es";"/contenido/entidadesYorganismos/OrganismosInternacionales/EmbajadasConsulados"; 
7853;"Embajada de Angola";"";" De 9 a 13 y de 14 a 16 horas ";"";" Metro: Núñez de Balboa (línea 5, 9), Serrano (línea 4), Velázquez (línea 4),   Bus: 1, 5, 9, 14, 19, 27, 45, 51, 74, 150 ";"";"0";"http://www.madrid.es/vgn-ext-templating/v/index.jsp?vgnextchannel=9e4c43db40317010VgnVCM100000dc0ca8c0RCRD&vgnextoid=7af493e5fd61c010VgnVCM1000000b205a0aRCRD";"LAGASCA";"CALLE";"V";"88";"2";"";"";"";"MADRID";"MADRID";"28001";"CASTELLANA";"SALAMANCA";"442027";"4475908";"40.42991199250328";"-3.6847609466814806";"914 356 166";"915 779 010";"gabembajador@embajadadeangola.com";"/contenido/entidadesYorganismos/OrganismosInternacionales/EmbajadasConsulados"; 
7854;"Embajada de Arabia Saudí";"";"De lunes a viernes de 9 a 15 horas";"";"Bus: 7, 29, 70, 107";"";"0";"http://www.madrid.es/vgn-ext-templating/v/index.jsp?vgnextchannel=9e4c43db40317010VgnVCM100000dc0ca8c0RCRD&vgnextoid=0d0593e5fd61c010VgnVCM1000000b205a0aRCRD";"DOCTOR ALVAREZ SIERRA";"CALLE";"V";"3";"";"";"";"";"MADRID";"MADRID";"28033";"COSTILLARES";"CIUDAD LINEAL";"443559";"4480089";"40.467682054006126";"-3.6670731436438135";"913 834 300 / 913 832 229";"913 021 145 / 917 667 338 (Sección Consular)";"info@arabiasaudi.org";"/contenido/entidadesYorganismos/OrganismosInternacionales/EmbajadasConsulados"; 
7855;"Embajada de Argelia";"";"  Telefónico de atención al público :   De domingo a jueves de 8 a 14 y de 15 a 17 horas.    Sección Consular :   De martes a sábado de 9 a 16 horas  ";"";" Metro: Gregorio Marañón (líneas 7, 10), Núñez de Balboa (líneas 5, 9), Rubén Darío (línea 5)  Bus: 5, 7, 9, 12, 14, 16, 19, 40, 45, 51, 61, 147, 150 ";"";"0";"http://www.madrid.es/vgn-ext-templating/v/index.jsp?vgnextchannel=9e4c43db40317010VgnVCM100000dc0ca8c0RCRD&vgnextoid=9f1593e5fd61c010VgnVCM1000000b205a0aRCRD";"GENERAL ORAA";"CALLE";"V";"12";"";"";"";"";"MADRID";"MADRID";"28006";"CASTELLANA";"SALAMANCA";"441936";"4476606";"40.43619355246767";"-3.685897593414855";"915 629 705 / 915 625 149 / 915 629 822";"915 629 877";"embargel@tsai.es";"/contenido/entidadesYorganismos/OrganismosInternacionales/EmbajadasConsulados"; 
7856;"Embajada de Argentina";"";"";"";" Metro: Rubén Darío (línea 5), Núñez de Balboa (líneas 5, 9)  Bus: 1, 5, 9, 14, 19, 27, 45, 51, 61, 74, 150 ";"";"0";"http://www.madrid.es/vgn-ext-templating/v/index.jsp?vgnextchannel=9e4c43db40317010VgnVCM100000dc0ca8c0RCRD&vgnextoid=223593e5fd61c010VgnVCM1000000b205a0aRCRD";"SERRANO";"CALLE";"V";"90";"7ª";"";"";"";"MADRID";"MADRID";"28006";"CASTELLANA";"SALAMANCA";"441876";"4476176";"40.43231570826588";"-3.6865655709793157";"917 710 500 / 917 710 519";"917 710 526";"embajada@portalargentino.net";"/contenido/entidadesYorganismos/OrganismosInternacionales/EmbajadasConsulados"; 
6320109;"Embajada de Armenia";"";"  Atención general: de lunes a viernes de 9 a 18 horas  Atención consular: de lunes a viernes de 10 a 13 horas  ";"";" Metro: Ópera (líneas 2, 5, R)  Bus: 3, 31, 41, 50, 62, 65, 148, C1, C2 ";"";"0";"http://www.madrid.es/vgn-ext-templating/v/index.jsp?vgnextchannel=9e4c43db40317010VgnVCM100000dc0ca8c0RCRD&vgnextoid=938a69858cb75310VgnVCM2000000c205a0aRCRD";"MAYOR";"CALLE";"V";"81";"Entr. Dcha.";"";"";"";"MADRID";"MADRID";"28013";"PALACIO";"CENTRO";"439544";"4474265";"40.4149340393802";"-3.713875311978361";"915 422 627  / 915 421 626 (Sección Consular)";"915 591 806";"embajada@armspain.es, consul@armspain.es";"/contenido/entidadesYorganismos/OrganismosInternacionales/EmbajadasConsulados"; 
7857;"Embajada de Australia";"";"  Atención telefónica: de lunes a viernes de 8:30 a 14 y de 14:35 a 16:30 horas  Visados: de lunes a viernes de 10 a 12 horas  ";"";" Metro: Begoña (línea 10), Chamartín (líneas 1, 10)  Bus: 66, 67, 124, 134, 135, 147, 173, 174, 176, 178  Renfe: Chamartín (líneas C-1, C-2, C-3, C-4, C-7, C-8, C-10) ";"";"0";"http://www.madrid.es/vgn-ext-templating/v/index.jsp?vgnextchannel=9e4c43db40317010VgnVCM100000dc0ca8c0RCRD&vgnextoid=b44593e5fd61c010VgnVCM1000000b205a0aRCRD";"CASTELLANA";"PASEO";"V";"259";"24";"";"D";"Torre Espacio";"MADRID";"MADRID";"28046";"LA PAZ";"FUENCARRAL-EL PARDO";"441832";"4481024";"40.475994573022675";"-3.687529382621041";"913 536 600 / 913 536 690 (Asuntos consulares) / 913 536 676 (Asuntos comerciales)";"913 536 692 / 914 423 885 (Asuntos comerciales)";"";"/contenido/entidadesYorganismos/OrganismosInternacionales/EmbajadasConsulados"; 
7858;"Embajada de Austria";"";"De lunes a viernes de 9 a 17 horas";"";" Metro: Santiago Bernabeu (línea 10)  Bus: 14, 27, 40, 43, 120, 126, 147, 149, 150 ";"  Asuntos Comerciales :   Dirección: C/ Orense, 11, 6&ordm;, 28020 Madrid  Teléfono: 915 564 358  Fax: 915 569 991  Email:  madrid@advantageaustria.org   ";"0";"http://www.madrid.es/vgn-ext-templating/v/index.jsp?vgnextchannel=9e4c43db40317010VgnVCM100000dc0ca8c0RCRD&vgnextoid=475593e5fd61c010VgnVCM1000000b205a0aRCRD";"CASTELLANA";"PASEO";"V";"91";"9ª";"";"";"";"MADRID";"MADRID";"28046";"CUATRO CAMINOS";"TETUAN";"441474";"4478203";"40.45054760721182";"-3.6914918179384366";"915 565 315 ";"915 973 579";"madrid-ob@bmeia.gv.at";"/contenido/entidadesYorganismos/OrganismosInternacionales/EmbajadasConsulados"; 
4638218;"Embajada de Azerbaiyán";"";"De martes a viernes de 10 a 13 horas";"";"";"";"0";"http://www.madrid.es/vgn-ext-templating/v/index.jsp?vgnextchannel=9e4c43db40317010VgnVCM100000dc0ca8c0RCRD&vgnextoid=a6668422183f4110VgnVCM1000000b205a0aRCRD";"AVUTARDA";"RONDA";"V";"38";"";"";"";"";"MADRID";"MADRID";"28043";"PIOVERA";"HORTALEZA";"446148";"4478560";"40.454080227624296";"-3.63640524336501";"917 596 010 / 917 489 776 (Sección Consular)";"917 597 056";"madrid@mission.mfa.gov.az";"/contenido/entidadesYorganismos/OrganismosInternacionales/EmbajadasConsulados"; 
33197;"Embajada de Bangladesh";"";"De lunes a viernes de 9:30 a 17:30 horas";"";" Metro: Arturo Soria (línea 4)  Bus: 11, 70, 120, 122 ";"";"0";"http://www.madrid.es/vgn-ext-templating/v/index.jsp?vgnextchannel=9e4c43db40317010VgnVCM100000dc0ca8c0RCRD&vgnextoid=f9ad059cb751c010VgnVCM2000000c205a0aRCRD";"MANUEL MARA&Ntilde;ON";"CALLE";"V";"13";"";"";"";"";"MADRID";"MADRID";"28043";"COLINA";"CIUDAD LINEAL";"444507";"4478930";"40.45726883973237";"-3.6558483486786106";"914 019 932 / 913 092 735";"914 029 564";"bdembm01@gmail.com";"/contenido/entidadesYorganismos/OrganismosInternacionales/EmbajadasConsulados"; 
7860;"Embajada de Bolivia";"";"De lunes a viernes de 9:30 a 19 horas";"";" Metro: Serrano (línea 4), Velázquez (línea 4), Colón (línea 4)  Bus: 1, 5, 9, 14, 19, 21, 27, 37, 45, 51, 53, 74, 150  Renfe: Recoletos (líneas C-1, C-2, C-7, C-8, C-10) ";"";"0";"http://www.madrid.es/vgn-ext-templating/v/index.jsp?vgnextchannel=9e4c43db40317010VgnVCM100000dc0ca8c0RCRD&vgnextoid=6c7593e5fd61c010VgnVCM1000000b205a0aRCRD";"SERRANO";"CALLE";"V";"40";"5ª";"Dcha.";"";"";"MADRID";"MADRID";"28001";"RECOLETOS";"SALAMANCA";"441788";"4475478";"40.426021621426464";"-3.687538961488509";"915 780 835";"915 773 946";"embolivia-madrid@rree.gov.bo";"/contenido/entidadesYorganismos/OrganismosInternacionales/EmbajadasConsulados"; 
7967;"Embajada de Bosnia y Herzegovina";"";"De lunes a viernes de 9 a 17 horas";"";" Metro: Retiro (línea 2), Serrano (línea 4), Velazquez (línea 4)  Bus: 1, 2, 9, 15, 19, 20, 21, 28, 51, 52, 53, 74, 146, 203 ";"";"0";"http://www.madrid.es/vgn-ext-templating/v/index.jsp?vgnextchannel=9e4c43db40317010VgnVCM100000dc0ca8c0RCRD&vgnextoid=839ef3216571c010VgnVCM1000000b205a0aRCRD";"LAGASCA";"CALLE";"V";"20";"2ª";"Izda.";"";"";"MADRID";"MADRID";"28001";"RECOLETOS";"SALAMANCA";"441947";"4475058";"40.42224918501009";"-3.685626271502088";"915 750 870";"914 355 056";"emb.bih.mad@gmail.com";"/contenido/entidadesYorganismos/OrganismosInternacionales/EmbajadasConsulados"; 
7861;"Embajada de Brasil";"";"De lunes a viernes de 10 a 14 y de 16 a 19 horas";"";" Metro: Alonso Martínez (líneas 4, 5, 10), Colón (línea 4)  Bus: 3, 7, 21, 37 ";"  Asuntos Comerciales, Económicos y Energía:    Dirección: C/ Almagro 28, 6&ordm;, 28010, Madrid  Teléfono: 917 020 635 / 917 020 654  Fax: 913 101 838  Email:  secom.madrid@itamaraty.gov.br    Otros correos electrónicos de interés:    ministro.madrid@itamaraty.gov.br    politico.madrid@itamaraty.gov.br    adm.madrid@itamaraty.gov.br   ";"0";"http://www.madrid.es/vgn-ext-templating/v/index.jsp?vgnextchannel=9e4c43db40317010VgnVCM100000dc0ca8c0RCRD&vgnextoid=fe8593e5fd61c010VgnVCM1000000b205a0aRCRD";"FERNANDO EL SANTO";"CALLE";"V";"6";"";"";"";"";"MADRID";"MADRID";"28010";"ALMAGRO";"CHAMBERI";"441209";"4475717";"40.42813385533694";"-3.6943862723970384";"917 004 650";"917 004 660";"brasem.madrid@itamaraty.gov.br";"/contenido/entidadesYorganismos/OrganismosInternacionales/EmbajadasConsulados"; 
7862;"Embajada de Bulgaria";"";" De lunes a viernes de 9 a 17 horas ";"";" Metro: Pío XII (línea 9)  Bus: 16, 29, 52, 150 ";"";"0";"http://www.madrid.es/vgn-ext-templating/v/index.jsp?vgnextchannel=9e4c43db40317010VgnVCM100000dc0ca8c0RCRD&vgnextoid=81a593e5fd61c010VgnVCM1000000b205a0aRCRD";"SANTA MARIA MAGDALENA";"TRAVESIA";"V";"15";"";"";"";"";"MADRID";"MADRID";"28016";"NUEVA ESPAÑA";"CHAMARTIN";"443247";"4479476";"40.46213857125775";"-3.6706983118032093";"913 455 761 / 913 456 651 / 913 597 611";"913 591 201";"embulmad@yahoo.es";"/contenido/entidadesYorganismos/OrganismosInternacionales/EmbajadasConsulados"; 
7859;"Embajada de Bélgica";"";"  Atención presencial :   De 9 a 14 horas    Atención telefónica:    De 9 a 17 horas.  ";"";" Metro: Colón (línea 4), Serrano (línea 4)   Bus: 1, 5, 9, 14, 19, 27, 45, 51, 74, 150 ";"";"0";"http://www.madrid.es/vgn-ext-templating/v/index.jsp?vgnextchannel=9e4c43db40317010VgnVCM100000dc0ca8c0RCRD&vgnextoid=d96593e5fd61c010VgnVCM1000000b205a0aRCRD";"CASTELLANA";"PASEO";"V";"18";"6ª";"";"";"";"MADRID";"MADRID";"28046";"RECOLETOS";"SALAMANCA";"441665";"4475768";"40.42862544972766";"-3.689015528811799";"915 776 300";"914 318 166";"madrid@diplobel.fed.be";"/contenido/entidadesYorganismos/OrganismosInternacionales/EmbajadasConsulados"; 
5760255;"Embajada de Cabo Verde";"";"";"";" Metro: Avenida de América (líneas 4, 6, 7, 9), Diego de León (líneas 4, 5, 6)  Bus: 9, 12, 16, 19, 29, 51, 52, 61, 72, 73, 114, 115, 122, 200, C1, C2 ";"";"0";"http://www.madrid.es/vgn-ext-templating/v/index.jsp?vgnextchannel=9e4c43db40317010VgnVCM100000dc0ca8c0RCRD&vgnextoid=7fd6c5b589bc9210VgnVCM1000000b205a0aRCRD";"PRINCIPE DE VERGARA";"CALLE";"V";"93";"1ª";"A-B";"";"";"MADRID";"MADRID";"28006";"CASTELLANA";"SALAMANCA";"442488";"4476659";"40.43670943168087";"-3.6793945074916126";"915 702 568 / 915 702 563";"";"emb.cavoverde@netcabo.pt";"/contenido/entidadesYorganismos/OrganismosInternacionales/EmbajadasConsulados"; 
7863;"Embajada de Camerún";"";"De lunes a viernes de 9:30 a 16:30 horas";"";" Metro: Valdeacederas (línea 1), Cuzco (línea 10)  Bus: 5, 11, 27, 40, 147, 149 ";"";"0";"http://www.madrid.es/vgn-ext-templating/v/index.jsp?vgnextchannel=9e4c43db40317010VgnVCM100000dc0ca8c0RCRD&vgnextoid=14b593e5fd61c010VgnVCM1000000b205a0aRCRD";"ROSARIO PINO";"CALLE";"V";"3";"";"";"";"";"MADRID";"MADRID";"28020";"CASTILLEJOS";"TETUAN";"441522";"4479466";"40.46192864406035";"-3.6910423565701063";"915 711 160";"915 712 504";"ambacammadrid@telefonica.net";"/contenido/entidadesYorganismos/OrganismosInternacionales/EmbajadasConsulados"; 
7864;"Embajada de Canadá";"";"  De lunes a jueves de 8:30 a 14 y de 15 a 17:30 horas.  Viernes de 8:30 a 14:30 horas.  Horario sección consular: de 9 a 12:30 horas.  ";"";" Metro: Begoña (línea 10), Chamartín (líneas 1, 10)  Bus: 66, 67, 124, 134, 135, 137, 147, 173, 174, 176, 178  Renfe: Chamartín (líneas C-1, C-2, C-3, C-4, C-7, C-8, C-10) ";"";"0";"http://www.madrid.es/vgn-ext-templating/v/index.jsp?vgnextchannel=9e4c43db40317010VgnVCM100000dc0ca8c0RCRD&vgnextoid=a6c593e5fd61c010VgnVCM1000000b205a0aRCRD";"CASTELLANA";"PASEO";"V";"259";"";"";"";"Torre Espacio";"MADRID";"MADRID";"28046";"LA PAZ";"FUENCARRAL-EL PARDO";"441895";"4481330";"40.478737547885714";"-3.686814103480242";"913 828 400";"913 828 490";"mdri@international.gc.ca";"/contenido/entidadesYorganismos/OrganismosInternacionales/EmbajadasConsulados"; 
7871;"Embajada de Chile";"";"  Atención telefónica:    De lunes a jueves de 9 a 18:30 horas.  Viernes de 9 a 15 horas.  ";"";" Metro: Núñez de Balboa (línea 5, 9), Serrano (línea 4), Velázquez (línea 4),   Bus: 1, 5, 9, 14, 19, 27, 45, 51, 74, 150 ";"  Agregaduría Militar:    Dirección: Paseo de la Castellana 91, 4&ordm; (Edif. Centro 23, 4&ordm;), 28046, Madrid  Teléfono: 915 559 853   Fax: 915 554 559  Correo:  amchee@teleline.es   ";"0";"http://www.madrid.es/vgn-ext-templating/v/index.jsp?vgnextchannel=9e4c43db40317010VgnVCM100000dc0ca8c0RCRD&vgnextoid=16aef3216571c010VgnVCM1000000b205a0aRCRD";"LAGASCA";"CALLE";"V";"88";"6ª";"";"";"";"MADRID";"MADRID";"28001";"CASTELLANA";"SALAMANCA";"442027";"4475908";"40.42991199250328";"-3.6847609466814806";"914 319 160 / 914 319 229";"914 353 833 / 915 775 560";"echile.espana@minrel.gov.cl, echilees@tsai.es";"/contenido/entidadesYorganismos/OrganismosInternacionales/EmbajadasConsulados"; 
7872;"Embajada de China";"";"  Atención telefónica :   De lunes a viernes de 9 a 14 y de 17 a 19:30 horas  ";"";" Metro: Arturo Soria (línea 4)   Bus: 11, 70, 114, 122 ";"  Asuntos Consulares :   Dirección: Calle Josefa Valcárcel 40, 1&ordm;, 28027, Madrid  Teléfono: 917 214 728  Fax: 917 414 793   Email:  consuladochino@hotmail.com   Horario telefónico: lunes, miércoles y viernes de 10 a 13 horas.    Asuntos de Prensa :   Teléfono: 915 193 680  Fax: 915 192 035    Asuntos Militar :   Teléfono: 915 193 192  Fax: 915 192 035    Asuntos Comerciales :   Dirección: Avenida de Ahones 1, 28043, Madrid  Teléfono: 912 342 244 / 912 342 288  Fax: 915 194 675   Email:  es@mofcom.gov.cn   Página web:  http://www.es.mofcom.gov.cn/     Asuntos Culturales    Dirección: Calle Cascanueces 21, 28043, Madrid  Teléfono: 913 000 941  Fax: 913 001 081   Página web:  www.cultura-china.com   ";"0";"http://www.madrid.es/vgn-ext-templating/v/index.jsp?vgnextchannel=9e4c43db40317010VgnVCM100000dc0ca8c0RCRD&vgnextoid=a8bef3216571c010VgnVCM1000000b205a0aRCRD";"ARTURO SORIA";"CALLE";"V";"113";"";"";"";"";"MADRID";"MADRID";"28043";"SAN JUAN BAUTISTA";"CIUDAD LINEAL";"444736";"4478287";"40.45152802879059";"-3.653032958347648";"915 194 242 / 915 193 672             
";"915 192 035";"chinaemb-es@mfa.gov.cn";"/contenido/entidadesYorganismos/OrganismosInternacionales/EmbajadasConsulados"; 
7963;"Embajada de Chipre";"";"  De lunes a viernes de 9 a 16:30 horas  Atención consular: lunes, miércoles y viernes de 10 a 13 horas.  ";"";" Metro: Gregorio Marañón (líneas 7, 10), Rubén Darío (línea 5)  Bus: 5, 7, 9, 12, 14, 16, 19, 27, 40, 45, 51, 61, 147, 150 ";"";"0";"http://www.madrid.es/vgn-ext-templating/v/index.jsp?vgnextchannel=9e4c43db40317010VgnVCM100000dc0ca8c0RCRD&vgnextoid=3bcef3216571c010VgnVCM1000000b205a0aRCRD";"CASTELLANA";"PASEO";"V";"45";"";"4-5";"";"";"MADRID";"MADRID";"28046";"ALMAGRO";"CHAMBERI";"441615";"4476553";"40.43569358766222";"-3.689677189614338";"915 783 114 / 915 783 117 / 915 751 110";"915 782 189";"embajadachipre@telefonica.net";"/contenido/entidadesYorganismos/OrganismosInternacionales/EmbajadasConsulados"; 
7865;"Embajada de Colombia";"";" De lunes a viernes de 10 a 14 y de 16 a 19 horas ";"";" Metro: Rubén Darío (línea 5), Gregorio Marañón (líneas 7 y 10)  Bus: 5, 7, 9, 14, 16, 19, 27, 40, 45, 51, 64, 147, 150 ";"  Oficina Comercial:    Dirección: Calle Claudio Coello 8, 4&ordm; Izda, 28001, Madrid  Teléfono: 915 776 708  Fax: 915  776 736  Email:  proexport-3@telefonica.net    www.proexport.com.co   ";"0";"http://www.madrid.es/vgn-ext-templating/v/index.jsp?vgnextchannel=9e4c43db40317010VgnVCM100000dc0ca8c0RCRD&vgnextoid=39d593e5fd61c010VgnVCM1000000b205a0aRCRD";"GENERAL MARTINEZ CAMPOS";"PASEO";"V";"48";"";"";"";"";"MADRID";"MADRID";"28010";"ALMAGRO";"CHAMBERI";"441586";"4476481";"40.435042937705084";"-3.6900124559407823";"917 004 770";"913 102 869";"emadrid@cancilleria.gov.co";"/contenido/entidadesYorganismos/OrganismosInternacionales/EmbajadasConsulados"; 
7645265;"Embajada de Congo";"";" Atención telefónica de 9:30 a 14:30 horas ";"";" Metro: Santiago Bernabeu (línea 10), Cuzco (línea 10)   Bus: 5, 11, 27, 40, 147, 149, 150 ";"";"0";"http://www.madrid.es/vgn-ext-templating/v/index.jsp?vgnextchannel=9e4c43db40317010VgnVCM100000dc0ca8c0RCRD&vgnextoid=d148838209c98410VgnVCM2000000c205a0aRCRD";"DOCTOR FLEMING";"CALLE";"V";"44";"1ª";"E-F-C";"";"";"MADRID";"MADRID";"28036";"NUEVA ESPAÑA";"CHAMARTIN";"441803";"4479372";"40.46110161775751";"-3.687719567683205";"917 332 647";"913 231 575";"AMBARDC47@YAHOO.ES";"/contenido/entidadesYorganismos/OrganismosInternacionales/EmbajadasConsulados"; 
7866;"Embajada de Corea";"";"  Atención telefónica:    De 10 a 14 y de 16 a 19 horas.  ";"";"Bus: 7, 29, 70, 107";"  Oficina comercial:    Dirección: Paseo de la Castellana 95, 10&ordm;  Teléfono: 915 566 241  Fax: 915 566 868  ";"0";"http://www.madrid.es/vgn-ext-templating/v/index.jsp?vgnextchannel=9e4c43db40317010VgnVCM100000dc0ca8c0RCRD&vgnextoid=cbe593e5fd61c010VgnVCM1000000b205a0aRCRD";"GONZALEZ AMIGO";"CALLE";"V";"15";"";"";"";"";"MADRID";"MADRID";"28033";"ATALAYA";"CIUDAD LINEAL";"443575";"4479914";"40.46610666210978";"-3.6668688274140737";"913 532 000";"913 532 001";"embspain.adm@mofat.go.kr";"/contenido/entidadesYorganismos/OrganismosInternacionales/EmbajadasConsulados"; 
7867;"Embajada de Costa de Marfil";"";"  Atención telefónica:     De lunes a viernes de 9 a 15 horas  ";"";" Metro: República Argentina (línea 6), Nuevos Ministerios (líneas 6, 8, 10)  Bus: 7, 16, 19, 51, C1, C2  Renfe: Nuevos Ministerios (líneas C-1, C-2, C-3, C-4, C-7, C-8, C-10) ";"";"0";"http://www.madrid.es/vgn-ext-templating/v/index.jsp?vgnextchannel=9e4c43db40317010VgnVCM100000dc0ca8c0RCRD&vgnextoid=50fef3216571c010VgnVCM1000000b205a0aRCRD";"SERRANO";"CALLE";"V";"154";"";"";"";"";"MADRID";"MADRID";"28006";"EL VISO";"CHAMARTIN";"441973";"4477513";"40.444366821559015";"-3.6855443721656265";"915 626 916 ";"915 622 193";"info@espagne.diplomatie.gouv.ci";"/contenido/entidadesYorganismos/OrganismosInternacionales/EmbajadasConsulados"; 
7868;"Embajada de Costa Rica";"";"De lunes a viernes de 10 a 18 horas";"";" Metro: Alonso Cano (línea 7), Gregorio Marañón (líneas 7, 10), Rios Rosas (línea 1)  Bus: 5, 7, 12, 14, 27, 40, 45, 147, 150 ";"";"0";"http://www.madrid.es/vgn-ext-templating/v/index.jsp?vgnextchannel=9e4c43db40317010VgnVCM100000dc0ca8c0RCRD&vgnextoid=e20ff3216571c010VgnVCM1000000b205a0aRCRD";"RIOS ROSAS";"CALLE";"V";"54";"Baja";"";"";"";"MADRID";"MADRID";"28003";"RIOS ROSAS";"CHAMBERI";"441126";"4477207";"40.44155057842549";"-3.6955029866343074";"913 459 622 / 913 459 521";"913 533 709";"embajada@embcr.org";"/contenido/entidadesYorganismos/OrganismosInternacionales/EmbajadasConsulados"; 
17846;"Embajada de Croacia";"";"  De lunes a viernes de 9 a 17 horas  Sección Consular: de 10 a 13 horas  ";"";" Metro: Rubén Darío (línea 5), Núñez de Balboa (líneas 5, 9)   Bus: 1, 5, 9, 14, 19, 27, 45, 51, 74, 150 ";"";"0";"http://www.madrid.es/vgn-ext-templating/v/index.jsp?vgnextchannel=9e4c43db40317010VgnVCM100000dc0ca8c0RCRD&vgnextoid=399c7d448b51c010VgnVCM2000000c205a0aRCRD";"CLAUDIO COELLO";"CALLE";"V";"78";"2";"";"";"";"MADRID";"MADRID";"28001";"CASTELLANA";"SALAMANCA";"441957";"4475919";"40.43000619511413";"-3.685587151651725";"915 776 881";"915 776 905";"croemb.madrid@mvep.hr, vrh.madrid@mvep.hr";"/contenido/entidadesYorganismos/OrganismosInternacionales/EmbajadasConsulados"; 
7869;"Embajada de Cuba";"";"  Atención telefónica :   De lunes a viernes de 9 a 13 y de 15 a 18 horas  ";"";" Metro: Pío  XII  (línea 9)  Bus: 14, 51, 150 ";"";"0";"http://www.madrid.es/vgn-ext-templating/v/index.jsp?vgnextchannel=9e4c43db40317010VgnVCM100000dc0ca8c0RCRD&vgnextoid=751ff3216571c010VgnVCM1000000b205a0aRCRD";"LA HABANA";"PASEO";"V";"194";"";"";"";"";"MADRID";"MADRID";"28036";"NUEVA ESPAÑA";"CHAMARTIN";"442432";"4479468";"40.46201032845668";"-3.6803098601769633";"913 592 500";"913 596 145";"secreembajada@ecubamad.com";"/contenido/entidadesYorganismos/OrganismosInternacionales/EmbajadasConsulados"; 
7873;"Embajada de Dinamarca";"";"  Atención telefónica :   De 9 a 16 horas  Sección Consular: de 10 a 14 horas  ";"";" Metro: Serrano (línea 4), Colón (línea 4), Velázquez (línea 4)  Bus: 1, 5, 9, 14, 19, 21, 37, 45, 51, 53, 74, 150  Renfe: Recoletos (líneas C-1, C-2, C-7, C-8, C-10) ";"";"0";"http://www.madrid.es/vgn-ext-templating/v/index.jsp?vgnextchannel=9e4c43db40317010VgnVCM100000dc0ca8c0RCRD&vgnextoid=082ff3216571c010VgnVCM1000000b205a0aRCRD";"SERRANO";"CALLE";"V";"26";"7ª";"";"";"";"MADRID";"MADRID";"28001";"RECOLETOS";"SALAMANCA";"441757";"4475275";"40.42419072446144";"-3.687885754849206";"914 318 445";"914 319 168";"madamb@um.dk";"/contenido/entidadesYorganismos/OrganismosInternacionales/EmbajadasConsulados"; 
77715;"Embajada de Ecuador";"";"  Atención telefónica :   De lunes a viernes de 9:30 a 14:30 y de 16 a 18 horas  ";"";" Metro: Núñez de Balboa (líneas 5, 9)   Bus: 9, 12, 16, 19, 29, 51, 52, 61 ";"  Agregaduría Militar y Naval :   Dirección: C/ General Oraa 64  Teléfono: 914 116 708 / 915 646 384  Fax: 914 116 709    Agregaduría de Policía :   Dirección: C/ San Romualdo 26, 6&ordm;, Ofc. 2&ordf;  Teléfono 913 047 446  E-mail:  agregapoliespa@gmail.com   ";"0";"http://www.madrid.es/vgn-ext-templating/v/index.jsp?vgnextchannel=9e4c43db40317010VgnVCM100000dc0ca8c0RCRD&vgnextoid=2dad8ed67151c010VgnVCM2000000c205a0aRCRD";"VELAZQUEZ";"CALLE";"V";"114";"2";"DCHA";"";"";"MADRID";"MADRID";"28006";"CASTELLANA";"SALAMANCA";"442176";"4476559";"40.435786907325046";"-3.6830637919224922";"915 627 215 / 915 627 216";"917 450 244";"embajadaecuador@mecuador.es";"/contenido/entidadesYorganismos/OrganismosInternacionales/EmbajadasConsulados"; 
7875;"Embajada de Egipto";"";"  Atención telefónica :   De 9 a 15 horas  Sección consular: de 9:30 a 11:30 horas  ";"";" Metro: Núñez de Balboa (líneas 5, 9), Rubén Darío (línea 5)  Bus: 1, 9, 19, 51, 74 ";"  Asuntos Consulares :   Dirección: C/ Velázquez 69, 28006, Madrid  Teléfono: 915 776 310  Fax: 915 781 732    Asuntos Comerciales :   Dirección: C/ Velázquez 101, 28006, Madrid  Teléfono: 914 116 445  Fax: 914 116 146    Agregaduría de Defensa :   Dirección: C/ López Puigcerver 22, 28035, Madrid  Teléfono: 913 162 830  Fax: 913 733 070  Telex: 45393-HAMS    Asuntos Culturales :   Dirección: C/ Francisco de Asís Méndez Casariego 1, 28002, Madrid  Teléfono: 915 639 468  Fax: 915 638 640    Asuntos de Prensa    Dirección: C/ Velázquez 69, 28006, Madrid  Teléfono: 915  758 764  ";"0";"http://www.madrid.es/vgn-ext-templating/v/index.jsp?vgnextchannel=9e4c43db40317010VgnVCM100000dc0ca8c0RCRD&vgnextoid=9a3ff3216571c010VgnVCM1000000b205a0aRCRD";"VELAZQUEZ";"CALLE";"V";"69";"";"";"";"";"MADRID";"MADRID";"28006";"CASTELLANA";"SALAMANCA";"442104";"4476011";"40.4308452397643";"-3.6838626271278097";"915 776 308 / 915 776 309";"915 781 732";"";"/contenido/entidadesYorganismos/OrganismosInternacionales/EmbajadasConsulados"; 
126924;"Embajada de El Salvador";"";"Atención al público de 9 a 16 horas.";"";" Metro: Cuzco (línea 10), Plaza de Castilla (líneas 1, 9, 10)  Bus: 5, 11, 27, 40, 147, 149, 150 ";"";"0";"http://www.madrid.es/vgn-ext-templating/v/index.jsp?vgnextchannel=9e4c43db40317010VgnVCM100000dc0ca8c0RCRD&vgnextoid=83f38899fc81c010VgnVCM1000000b205a0aRCRD";"CASTELLANA";"PASEO";"V";"178";"1º";"D";"";"";"MADRID";"MADRID";"28046";"NUEVA ESPAÑA";"CHAMARTIN";"441685";"4479342";"40.4608230762265";"-3.689108497357059";"915 628 002";"915 630 584";"embajada@elsalvador-espana.es";"/contenido/entidadesYorganismos/OrganismosInternacionales/EmbajadasConsulados"; 
7877;"Embajada de Emiratos Árabes Unidos";"";" Atención presencial de 9 a 16 horas ";"";"Bus: 11, 21, 70, 114, 115, 122, 200";"  Agregaduría Militar:    C/ Azalea 1, Complejo MiniPark I, Edif. B-2&ordm;, 28108, Soto de la Moraleja  Teléfono: 916 585 723  Fax: 915 798 912  E-mail:  uae.mil.attache@gmail.com   ";"0";"http://www.madrid.es/vgn-ext-templating/v/index.jsp?vgnextchannel=9e4c43db40317010VgnVCM100000dc0ca8c0RCRD&vgnextoid=2d4ff3216571c010VgnVCM1000000b205a0aRCRD";"HERNANDEZ DE TEJADA";"CALLE";"V";"7";"";"";"";"";"MADRID";"MADRID";"28027";"SAN PASCUAL";"CIUDAD LINEAL";"444919";"4477819";"40.44732421323511";"-3.650834273921257";"915 701 001 / 915 701 002 / 915 701 003 / 915 701 004";"915 715 176";"madrid@mofa.gov.ae";"/contenido/entidadesYorganismos/OrganismosInternacionales/EmbajadasConsulados"; 
17848;"Embajada de Eslovaquia";"";"  Atención telefónica:    De 8:30 a 16:30 horas.  Sección consular: de 10 a 12 horas  ";"";" Metro: Gregorio Marañón (líneas 7, 10)  Bus: 7, 9, 12, 14, 16, 19, 27, 40, 45, 51, 147, 150 ";"  Asuntos Consularse :   Teléfono: 915 903 867  Fax: 915 903 868    Asuntos Comerciales :   Teléfono: 915 158 308  Fax: 915 158 329  E-mail:  obeo@infonegocio.com   ";"0";"http://www.madrid.es/vgn-ext-templating/v/index.jsp?vgnextchannel=9e4c43db40317010VgnVCM100000dc0ca8c0RCRD&vgnextoid=73ec7d448b51c010VgnVCM2000000c205a0aRCRD";"PINAR";"CALLE";"V";"20";"";"";"";"";"MADRID";"MADRID";"28006";"EL VISO";"CHAMARTIN";"441823";"4476932";"40.439122401701795";"-3.6872597272612393";"915 903 861";"915 903 868";"mail@embajadaeslovaquia.es";"/contenido/entidadesYorganismos/OrganismosInternacionales/EmbajadasConsulados"; 
17847;"Embajada de Eslovenia";"";"De lunes a viernes de 10 a 13 horas";"";" Metro: Rubén Darío (líneas 7, 10), Rubén Darío (línea 5)  Bus: 5, 7, 9, 12, 14, 16, 19,  27, 40, 45, 51, 61, 147, 150 ";"";"0";"http://www.madrid.es/vgn-ext-templating/v/index.jsp?vgnextchannel=9e4c43db40317010VgnVCM100000dc0ca8c0RCRD&vgnextoid=cbac7d448b51c010VgnVCM2000000c205a0aRCRD";"HERMANOS BECQUER";"CALLE";"V";"7";"2ª";"";"";"";"MADRID";"MADRID";"28006";"CASTELLANA";"SALAMANCA";"441758";"4476648";"40.43655943804236";"-3.688000006764084";"914 116 893 ";"915 646 057";"vma@gov.si";"/contenido/entidadesYorganismos/OrganismosInternacionales/EmbajadasConsulados"; 
7878;"Embajada de Estados Unidos de América";"";"  De lunes a viernes de 8:30 a 17:30 horas  Sección Consular: de 8 a 13 horas  ";"";" Metro: Rubén Darío (línea 5), Núñez de Balboa (líneas 5, 9)  Bus: 5, 7, 9, 14, 16, 19, 27, 40, 45, 51, 61, 147, 150 ";"";"0";"http://www.madrid.es/vgn-ext-templating/v/index.jsp?vgnextchannel=9e4c43db40317010VgnVCM100000dc0ca8c0RCRD&vgnextoid=bf5ff3216571c010VgnVCM1000000b205a0aRCRD";"SERRANO";"CALLE";"V";"75";"";"";"";"";"MADRID";"MADRID";"28006";"CASTELLANA";"SALAMANCA";"441857";"4476432";"40.434620548071514";"-3.686813025585778";"915 872 200";"915 872 303";"";"/contenido/entidadesYorganismos/OrganismosInternacionales/EmbajadasConsulados"; 
33574;"Embajada de Estonia";"";"De lunes a viernes de 10 a 16 horas";"";" Metro: Núñez de Balboa (líneas 5, 9), Rubén Darío (línea 5)  Bus: 1, 5, 9, 14, 19, 27, 51, 74, 150 ";"";"0";"http://www.madrid.es/vgn-ext-templating/v/index.jsp?vgnextchannel=9e4c43db40317010VgnVCM100000dc0ca8c0RCRD&vgnextoid=8cbd059cb751c010VgnVCM2000000c205a0aRCRD";"CLAUDIO COELLO";"CALLE";"V";"91";"1ª";"DCHA";"";"";"MADRID";"MADRID";"28006";"CASTELLANA";"SALAMANCA";"441931";"4475995";"40.43068902185026";"-3.6859006104054375";"914 261 671";"914 261 672";"embassy.madrid@mfa.ee";"/contenido/entidadesYorganismos/OrganismosInternacionales/EmbajadasConsulados"; 
7879;"Embajada de Filipinas";"";"  De lunes a viernes de 9:30 a 13:30 horas  Jueves de 9 a 13:30 y de 15 a 17:30 horas  ";"";" Metro: Nuevos Ministerios (líneas 6, 8, 10)  Bus: 7, 14, 16, 19, 51, C1, C2  Renfe: Nuevos Ministerios (líneas C-1, C-2, C-3, C-4, C-7, C-8, C-10) ";"  Asuntos Consulares :   Dirección: C/ Guadalquivir 6, 28002, Madrid  Teléfono: 917 823 830  Fax: 914 116 606  E-mail:  madridpe@terra.es   E-mail:  madridpe@yahoo.com     Oficina Laboral    Dirección: C/ Alcalá 149, 2&ordm;-B Dcha  Teléfono: 917 818 624  Fax: 917 818 626  E-mail:  oficinalaboral@gmail.com   ";"0";"http://www.madrid.es/vgn-ext-templating/v/index.jsp?vgnextchannel=9e4c43db40317010VgnVCM100000dc0ca8c0RCRD&vgnextoid=427ff3216571c010VgnVCM1000000b205a0aRCRD";"ERESMA";"CALLE";"V";"2";"";"";"";"";"MADRID";"MADRID";"28002";"EL VISO";"CHAMARTIN";"441965";"4477772";"40.44669945349186";"-3.685662410274511";"917 823 830";"914 116 606";"madrid.pe@dfa.gov.ph";"/contenido/entidadesYorganismos/OrganismosInternacionales/EmbajadasConsulados"; 
7880;"Embajada de Finlandia";"";" Atención al público de 9:30 a 13:30 horas ";"";" Metro: Alonso Martínez (líneas 4, 5, 10), Colón (línea 4), Serrano (línea 4), Rubén Darío (línea 5)  Bus: 1, 5, 7, 9, 14, 19, 21, 27, 37, 45, 51, 53, 74, 150 ";"  Asuntos Comerciales :   Dirección: C/Montesquinza 24, 4&ordm; Centro, 28010, Madrid  Teléfono: 913 084 715  E-mail:  madridinfo@finpro.fi   Página web:  www.finpro.fi/spain   ";"0";"http://www.madrid.es/vgn-ext-templating/v/index.jsp?vgnextchannel=9e4c43db40317010VgnVCM100000dc0ca8c0RCRD&vgnextoid=d48ff3216571c010VgnVCM1000000b205a0aRCRD";"CASTELLANA";"PASEO";"V";"15";"4ª";"";"";"";"MADRID";"MADRID";"28046";"ALMAGRO";"CHAMBERI";"441565";"4475711";"40.42810493465899";"-3.690189111152576";"913 196 172";"913 083 901";"sanomat.mad@formin.fi";"/contenido/entidadesYorganismos/OrganismosInternacionales/EmbajadasConsulados"; 
7881;"Embajada de Francia";"";"Atención al público de 9 a 19 horas";"";" Metro: Retiro (línea 2), Banco de España (línea 2)  Bus: 1, 2, 5, 9, 10, 14, 15, 19, 20, 27, 28, 34, 37, 45, 51, 52, 53, 74, 146, 150, 203  Renfe: Recoletos (líneas C-1, C-2, C-7, C-8, C-10)  ";"  Agregaduría Militar:    Dirección: C/ Salustiano Olózaga 9, 28001, Madrid  Teléfono: 914 238 900  Fax: 914 238 901  E-mail:  defense.madrid-amba@diplomatie.gouv.fr   Página web:  http://www.ambafrance-es.org/     Asuntos Económicos:    Dirección: C/ Marqués de la Ensenada 10, 28004, Madrid  Teléfono: 918 377 850  Fax: 918 377 851  Página web:  www.tresor.economie.gouv.fr/se/espagne     Asuntos Culturales:    Dirección: C/ Marqués de la Ensenada 10, 28004, Madrid  Teléfono: 917 007 700  Fax: 917 007 701  Página web:  http://www.institutfrancais.es/     Asuntos Científicos y Tecnológicos:     Dirección: C/ Marqués de la Ensenada 10, 28004, Madrid  Teléfono: 917 007 700  Fax: 917 007 705  Página web:  www.ambafrance-es.org/service-scientifique     Asuntos Sociales:     Dirección: C/ Salustiano Olózaga 9, 28001, Madrid  Teléfono: 914 238 943 / 914 238 993  Fax: 914 238 910  E-mail:  contacto@csas.es     Asuntos Aduaneros:     Dirección: C/ Marqués de la Ensenada 10, 28004, Madrid  Teléfono: 918 377 889  Fax: 918 377 893  E-mail:  madrid.douane@missioneco.org     Asuntos Fiscales:     Dirección: C/ Marqués de la Ensenada 10, 28004, Madrid  Teléfono: 918 377 885  Fax: 918 377 875  Página web:  www.aa-espagne@missioneco.org   ";"0";"http://www.madrid.es/vgn-ext-templating/v/index.jsp?vgnextchannel=9e4c43db40317010VgnVCM100000dc0ca8c0RCRD&vgnextoid=679ff3216571c010VgnVCM1000000b205a0aRCRD";"SALUSTIANO OLOZAGA";"CALLE";"V";"9";"";"";"";"";"MADRID";"MADRID";"28001";"RECOLETOS";"SALAMANCA";"441581";"4474870";"40.42052992386335";"-3.689923086273716";"914 238 900";"914 238 908";"";"/contenido/entidadesYorganismos/OrganismosInternacionales/EmbajadasConsulados"; 
7882;"Embajada de Gabón";"";"";"";" Metro: Nuevos Ministerios (líneas 6, 8,10), Santiago Bernabeu (línea 10)  Bus: 7, 14, 27, 40, 51, 126, 147, 150, C1, C2  Renfe: Nuevos Ministerios (líneas C-1, C-2, C-3, C-4, C-7, C-8, C-10) ";"";"0";"http://www.madrid.es/vgn-ext-templating/v/index.jsp?vgnextchannel=9e4c43db40317010VgnVCM100000dc0ca8c0RCRD&vgnextoid=f9aff3216571c010VgnVCM1000000b205a0aRCRD";"FRANCISCO ALCANTARA";"CALLE";"V";"3";"";"";"";"";"MADRID";"MADRID";"28002";"EL VISO";"CHAMARTIN";"441755";"4477957";"40.44835130313727";"-3.6881556191809044";"914 138 211 / 914 138 294";"914 131 153";"";"/contenido/entidadesYorganismos/OrganismosInternacionales/EmbajadasConsulados"; 
5761305;"Embajada de Gambia";"";"";"";" Bus: 21, 48, 70, 146 ";"";"0";"http://www.madrid.es/vgn-ext-templating/v/index.jsp?vgnextchannel=9e4c43db40317010VgnVCM100000dc0ca8c0RCRD&vgnextoid=a0555f848b0d9210VgnVCM2000000c205a0aRCRD";"HERNANDEZ IGLESIAS";"CALLE";"V";"20";"";"B";"";"";"MADRID";"MADRID";"28027";"CONCEPCION";"CIUDAD LINEAL";"445432";"4477212";"40.44188993077959";"-3.6447328877352216";"914 361 792";"914 087 529";"info@gambiaembassy.es";"/contenido/entidadesYorganismos/OrganismosInternacionales/EmbajadasConsulados"; 
4643228;"Embajada de Georgia";"";"";"";" Metro: Sevilla (línea 2), Sol (líneas 1, 2, 3)  Bus: 3, 5, 9, 10, 14, 15, 20, 27, 34, 37, 45, 46,  51, 52, 53, 150, 203, M1, M2  Renfe: Sol (líneas C-3, C-4) ";"";"0";"http://www.madrid.es/vgn-ext-templating/v/index.jsp?vgnextchannel=9e4c43db40317010VgnVCM100000dc0ca8c0RCRD&vgnextoid=295a2744ef205110VgnVCM1000000b205a0aRCRD";"CORTES";"PLAZA";"V";"4";"5ª Dcha.";"";"IZQUIERDA";"";"MADRID";"MADRID";"28014";"CORTES";"CENTRO";"441099";"4474351";"40.415820477529984";"-3.6955562166721";"914 293 329 / 914 290 155";"914 296 883";"embassymadrid@mfa.gov.ge";"/contenido/entidadesYorganismos/OrganismosInternacionales/EmbajadasConsulados"; 
170176;"Embajada de Ghana";"";"";"";" Metro: Cuzco (línea 10), Tetuán (línea 1)  Bus: 5, 11, 27, 40, 147, 149 ";"";"0";"http://www.madrid.es/vgn-ext-templating/v/index.jsp?vgnextchannel=9e4c43db40317010VgnVCM100000dc0ca8c0RCRD&vgnextoid=37dae0e1f181c010VgnVCM1000000b205a0aRCRD";"CAPITAN HAYA";"CALLE";"V";"38";"10ª";"A";"";"";"MADRID";"MADRID";"28020";"CASTILLEJOS";"TETUAN";"441461";"4479241";"40.459897444905025";"-3.6917410070056063";"915 670 390 / 915 670 440";"915 670 393";"";"/contenido/entidadesYorganismos/OrganismosInternacionales/EmbajadasConsulados"; 
7884;"Embajada de Grecia";"";"  Atención telefónica :   De 8:30 a 15:30 horas  Asuntos consulares: de 10 a 14 horas  ";"";" Metro: Cruz del Rayo (línea 9), concha Espina (línea 9), Republica Argentina (línea 6)  Bus: 7, 16, 19, 29, 51, 52 ";"  Agregaduría de Defensa :   Dirección: Avenida Doctor Arce 24, 28002, Madrid  Teléfono: 915 621 656  Fax: 915 621 784  E-mail:  def.attache@embagrec.org     Asuntos Económicos y Comerciales :   Dirección: Avenida Doctor Arce 24, 28002, Madrid  Teléfono: 915 644 592  Fax: 915 645 932  E-mail:  oeymadrid@yahoo.com ;  ecocom-madrid@mfa.gr     Asuntos de Prensa :   Dirección: Avenida Doctor Arce 24, 28002, Madrid  Teléfono: 915 645 819 / 915 645 833  Fax: 915 644 669  E-mail:  prensa@embagrec.org ;  infoprensa@embagrec.org   Página web:  http://www.embagrec.org/     Asuntos Consulares :   Dirección: Avenida Doctor Arce 24, 28002, Madrid  Teléfono: 915 644 656 / 915 644 657  Fax: 915 644 697  E-mail:  grcon.mad@mfa.gr     Asuntos Administrativos:    Dirección: Avenida Doctor Arce 24, 28002, Madrid  Teléfono: 915 644 653  Fax: 915 644 668  E-mail:  embajadadegrecia@telefonica.net   ";"0";"http://www.madrid.es/vgn-ext-templating/v/index.jsp?vgnextchannel=9e4c43db40317010VgnVCM100000dc0ca8c0RCRD&vgnextoid=8cbff3216571c010VgnVCM1000000b205a0aRCRD";"DOCTOR ARCE";"AVENIDA";"V";"24";"";"";"";"";"MADRID";"MADRID";"28002";"EL VISO";"CHAMARTIN";"442403";"4477835";"40.44729750589633";"-3.6805034605477625";"915 644 653";"915 644 668";"gremb.mad@mfa.gr";"/contenido/entidadesYorganismos/OrganismosInternacionales/EmbajadasConsulados"; 
7914;"Embajada de Guatemala";"";"Atención al público de 10 a 13 horas";"";" Metro:  Colón (línea 4)  Bus:  5, 14, 27, 45, 150 ";"  Otros correos de contacto:    E-mail:  embespana@minex.gob.gt   ";"0";"http://www.madrid.es/vgn-ext-templating/v/index.jsp?vgnextchannel=9e4c43db40317010VgnVCM100000dc0ca8c0RCRD&vgnextoid=1fcff3216571c010VgnVCM1000000b205a0aRCRD";"FERNANDO EL SANTO";"CALLE";"V";"27";"3ª";"";"";"";"MADRID";"MADRID";"28010";"ALMAGRO";"CHAMBERI";"441530";"4475712";"40.42811147922819";"-3.69060179113649";"913 440 347 / 913 441 417 / 699 999 463 (Emergencia)           
";"914 587 894";"informacion@embajadaguatemala.es";"/contenido/entidadesYorganismos/OrganismosInternacionales/EmbajadasConsulados"; 
5761374;"Embajada de Guinea";"";"";"";" Metro: Santiago Bernabeu (línea 10), Nuevos Ministerios (líneas 6, 8, 10)  Bus: 7, 14, 27, 40, 51, 126, 147, 150, C1, C2  Renfe: Nuevos Ministerios (líneas C-1, C-2, C-3, C-4, C-7, C-8, C-10) ";"";"0";"http://www.madrid.es/vgn-ext-templating/v/index.jsp?vgnextchannel=9e4c43db40317010VgnVCM100000dc0ca8c0RCRD&vgnextoid=6a2d90bbbe0d9210VgnVCM2000000c205a0aRCRD";"LUIS MURIEL";"CALLE";"V";"4";"";"";"";"";"MADRID";"MADRID";"28002";"EL VISO";"CHAMARTIN";"441749";"4478006";"40.44879229604188";"-3.6882308727071464";"914 352 928";"914 311 004";"embajada@guineamadrid.es";"/contenido/entidadesYorganismos/OrganismosInternacionales/EmbajadasConsulados"; 
7885;"Embajada de Guinea Ecuatorial";"";"Atención al público de 9:30 a 15:30 horas";"";" Metro: Pío XII (línea 9), Duque de Pastrana (línea 9)  Bus: 14, 16, 29, 52, 70, 107, 129, 150 ";"";"0";"http://www.madrid.es/vgn-ext-templating/v/index.jsp?vgnextchannel=9e4c43db40317010VgnVCM100000dc0ca8c0RCRD&vgnextoid=a1eff3216571c010VgnVCM1000000b205a0aRCRD";"PIO XII";"AVENIDA";"V";"14";"";"";"";"";"MADRID";"MADRID";"28016";"NUEVA ESPAÑA";"CHAMARTIN";"442844";"4479775";"40.4648044208405";"-3.675478360654885";"913 532 169";"913 532 165 / 913 532 181";"rge@embarege-madrid.com";"/contenido/entidadesYorganismos/OrganismosInternacionales/EmbajadasConsulados"; 
7647050;"Embajada de Guinea-Bissau";"";"";"";" Metro: Avenida de América (líneas 4, 6, 7, 9), Cartagena (línea 7), Diego de León (líneas 4, 5, 6)  Bus: 1, 12, 72, 73, 114, 115, 122, 200, C1, C2 ";"";"0";"http://www.madrid.es/vgn-ext-templating/v/index.jsp?vgnextchannel=9e4c43db40317010VgnVCM100000dc0ca8c0RCRD&vgnextoid=1d5a2c5b46d98410VgnVCM2000000c205a0aRCRD";"AMERICA";"AVENIDA";"V";"16";"1ª";"DCHA";"";"";"MADRID";"MADRID";"28028";"GUINDALERA";"SALAMANCA";"442863";"4476859";"40.43853702874002";"-3.67499136553485";"";"";"";"/contenido/entidadesYorganismos/OrganismosInternacionales/EmbajadasConsulados"; 
7886;"Embajada de Haití";"";"Atención al público de 9 a 15 horas";"";" Metro: Banco de España (línea 2), Sevilla (línea 2)  Bus: 1, 2, 3, 5, 9, 10, 14, 15, 20, 27, 34, 37, 45, 46, 51, 52, 53, 74, 146, 150, 203, M1, M2 ";"";"0";"http://www.madrid.es/vgn-ext-templating/v/index.jsp?vgnextchannel=9e4c43db40317010VgnVCM100000dc0ca8c0RCRD&vgnextoid=34fff3216571c010VgnVCM1000000b205a0aRCRD";"LOS MADRAZO";"CALLE";"V";"28";"2ª";"";"";"";"MADRID";"MADRID";"28014";"CORTES";"CENTRO";"441059";"4474547";"40.417583303637535";"-3.6960458548959103";"915 752 624";"914 314 600";"embhaiti@ctv.es";"/contenido/entidadesYorganismos/OrganismosInternacionales/EmbajadasConsulados"; 
7887;"Embajada de Honduras";"";"";"";" Metro: Cuzco (línea 10)  Bus: 5, 11, 27, 40, 147, 149, 150 ";"  Asuntos Consulares :   Teléfono: 913 533 943 / 913 531 806  Fax: 913 458 193  ";"0";"http://www.madrid.es/vgn-ext-templating/v/index.jsp?vgnextchannel=9e4c43db40317010VgnVCM100000dc0ca8c0RCRD&vgnextoid=c600f3216571c010VgnVCM1000000b205a0aRCRD";"CASTELLANA";"PASEO";"V";"164";"2ª";"B";"";"";"MADRID";"MADRID";"28046";"NUEVA ESPAÑA";"CHAMARTIN";"441694";"4479174";"40.45931029243837";"-3.688986889788791";"913 531 806";"913 458 193";"info@embahonduras.es";"/contenido/entidadesYorganismos/OrganismosInternacionales/EmbajadasConsulados"; 
7888;"Embajada de Hungría";"";"Atención telefónica de 8:30 a 16:30 horas";"";" Metro: Alonso Martínez (líneas 4, 5, 10), Colón (línea 4)  Bus: 1, 5, 7, 9, 14, 19, 21, 27, 37, 45, 51, 74, 150 ";"  Sección Consular:    Dirección: Ángel de Diego Roldán, 21  Teléfono: 914 139 850  Fax: 914 164 454  Horario: lunes, miércoles y viernes de 10 a 12 horas  ";"0";"http://www.madrid.es/vgn-ext-templating/v/index.jsp?vgnextchannel=9e4c43db40317010VgnVCM100000dc0ca8c0RCRD&vgnextoid=5910f3216571c010VgnVCM1000000b205a0aRCRD";"FORTUNY";"CALLE";"V";"6";"4ª";"";"";"";"MADRID";"MADRID";"28010";"ALMAGRO";"CHAMBERI";"441500";"4475822";"40.4291002986394";"-3.6909655794500766";"914 137 099 ";"914 137 149";"mission.mad@mfa.gov.hu";"/contenido/entidadesYorganismos/OrganismosInternacionales/EmbajadasConsulados"; 
7889;"Embajada de India";"";" Atención telefónica de 9 a 17:30 horas ";"";" Metro: Pio XII (línea 9), Duque de Pastrana (línea 9)  Bus: 14, 16, 29, 70, 107, 129, 150, 174 ";"  Sección Consular :   Teléfono: 913 098 885 / 913 098 886 / 913 098 887 / 913 098 888  Fax: 913 451 900  E-mail:  counsellor@embassyindia.es   Horario: de 9 a 12:30 horas    Otros correos de contacto :    hoc@embassyindia.es   ";"0";"http://www.madrid.es/vgn-ext-templating/v/index.jsp?vgnextchannel=9e4c43db40317010VgnVCM100000dc0ca8c0RCRD&vgnextoid=eb20f3216571c010VgnVCM1000000b205a0aRCRD";"PIO XII";"AVENIDA";"V";"30";"";"";"";"";"MADRID";"MADRID";"28016";"NUEVA ESPAÑA";"CHAMARTIN";"442919";"4479983";"40.466683344636536";"-3.6746125073967466";"902 901 010 / 913 098 870";"913 451 112";"amb@embassyindia.es";"/contenido/entidadesYorganismos/OrganismosInternacionales/EmbajadasConsulados"; 
7891;"Embajada de Indonesia";"";"  Atención al público de 9 a 17:00 horas  Sección Consular: atención al público de 10 a 15:30 horas  ";"";"Bus: 11, 53, 70, 114, 115, 122, 200";"";"0";"http://www.madrid.es/vgn-ext-templating/v/index.jsp?vgnextchannel=9e4c43db40317010VgnVCM100000dc0ca8c0RCRD&vgnextoid=7e30f3216571c010VgnVCM1000000b205a0aRCRD";"AGASTIA";"CALLE";"V";"65";"";"";"";"";"MADRID";"MADRID";"28043";"SAN JUAN BAUTISTA";"CIUDAD LINEAL";"444679";"4477952";"40.44850637774118";"-3.653675883496035";"914 130 294 / 914 130 594 / 914 135 715";"914 138 994";"kbri@embajadadeindonesia.es";"/contenido/entidadesYorganismos/OrganismosInternacionales/EmbajadasConsulados"; 
7892;"Embajada de Iraq";"";"Atención al público de 9:30 a 13:30 horas";"";" Metro: Arturo Soria (línea 4)  Bus: 9, 11, 70, 72, 73, 120, 122 ";"";"0";"http://www.madrid.es/vgn-ext-templating/v/index.jsp?vgnextchannel=9e4c43db40317010VgnVCM100000dc0ca8c0RCRD&vgnextoid=9360f3216571c010VgnVCM1000000b205a0aRCRD";"CARRIL DEL CONDE";"CALLE";"V";"56";"";"";"";"";"MADRID";"MADRID";"28043";"CANILLAS";"HORTALEZA";"444615";"4479215";"40.45987984928293";"-3.654540960444581";"917 590 303 / 913 885 980/ 913 882 724";"917 218 682";"info@embajadadeirak.es";"/contenido/entidadesYorganismos/OrganismosInternacionales/EmbajadasConsulados"; 
7894;"Embajada de Irlanda";"";"Atención telefónica de 10 a 14 horas";"";" Metro: Rubén Darío (línea 5), Núñez de Balboa (líneas 5, 9)  Bus: 5, 7, 9, 14, 16, 19, 27, 40, 45, 51, 61, 147, 150 ";"";"0";"http://www.madrid.es/vgn-ext-templating/v/index.jsp?vgnextchannel=9e4c43db40317010VgnVCM100000dc0ca8c0RCRD&vgnextoid=2670f3216571c010VgnVCM1000000b205a0aRCRD";"CASTELLANA";"PASEO";"V";"46";"4ª";"";"";"";"MADRID";"MADRID";"28046";"CASTELLANA";"SALAMANCA";"441766";"4476386";"40.43419977951646";"-3.6878816351465096";"914 364 093";"914 351 677";"madridembassy@dfa.ie";"/contenido/entidadesYorganismos/OrganismosInternacionales/EmbajadasConsulados"; 
7893;"Embajada de Irán";"";"Atención telefónica de 8:30 a 15:30 horas";"";" Metro: Pío XII (línea 9), Duque de Pastrana (línea 9)  Bus: 14, 16, 29, 70, 107, 150 ";"";"0";"http://www.madrid.es/vgn-ext-templating/v/index.jsp?vgnextchannel=9e4c43db40317010VgnVCM100000dc0ca8c0RCRD&vgnextoid=0150f3216571c010VgnVCM1000000b205a0aRCRD";"JEREZ";"CALLE";"V";"5";"";"";"";"Villa El Altozano";"MADRID";"MADRID";"28016";"NUEVA ESPAÑA";"CHAMARTIN";"442691";"4479708";"40.46419029485783";"-3.6772768828094775";"913 450 112 / 913 450 116 / 913 450 652";"913 451 190 / 22322-IRANA-E (Telex)";"embiran@hotmail.com";"/contenido/entidadesYorganismos/OrganismosInternacionales/EmbajadasConsulados"; 
7890;"Embajada de Israel";"";"Atención telefónica de 9:30 a 13 horas";"";" Metro: República Argentina (línea 6), Cruz del Rayo (línea 9)  Bus: 7, 9, 16, 19, 29, 51, 52, 73, 114, 115, 122, C1, C2 ";"";"0";"http://www.madrid.es/vgn-ext-templating/v/index.jsp?vgnextchannel=9e4c43db40317010VgnVCM100000dc0ca8c0RCRD&vgnextoid=b880f3216571c010VgnVCM1000000b205a0aRCRD";"VELAZQUEZ";"CALLE";"V";"150";"7º";"";"";"";"MADRID";"MADRID";"28002";"EL VISO";"CHAMARTIN";"442246";"4477374";"40.44313368918968";"-3.6823127449482853";"917 829 500";"917 829 555";"info@madrid.mfa.gov.il";"/contenido/entidadesYorganismos/OrganismosInternacionales/EmbajadasConsulados"; 
7895;"Embajada de Italia";"";"";"";" Metro: Gregorio Marañón (líneas 7, 10), Avenida de América (líneas 4, 6, 7, 9), Núñez de Balboa (líneas 5, 9)  Bus: 1, 9, 19, 51, 74 ";"  Asuntos Consulares:    Dirección: C/ Agustín de Bethencourt, 3  Teléfono: 912 106 910  Fax: 915 546 669  Página web:  http://www.consmadrid.esterit.it/     Agregaduría Militar:    Dirección: C/ Agustín de Bethencourt, 3  Teléfono: 915 341 800 / 915 341 393 / 915 341 864    Asuntos Culturales:    Dirección: C/ Mayor, 86  Teléfono: 915 478 602 / 915 478 603  ";"0";"http://www.madrid.es/vgn-ext-templating/v/index.jsp?vgnextchannel=9e4c43db40317010VgnVCM100000dc0ca8c0RCRD&vgnextoid=4b90f3216571c010VgnVCM1000000b205a0aRCRD";"LAGASCA";"CALLE";"V";"98";"";"";"";"";"MADRID";"MADRID";"28006";"CASTELLANA";"SALAMANCA";"442046";"4476151";"40.43210238099632";"-3.6845591618243247";"914 233 300";"915 757 776";"segreamb.ambmadrid@esteri.it";"/contenido/entidadesYorganismos/OrganismosInternacionales/EmbajadasConsulados"; 
7896;"Embajada de Japón";"";"  Atención telefónica:    De lunes a viernes de 9:30 a 13:45 y de 14:45 a 17:30 horas  Julio y agosto de 8:30 a 15:30 horas  ";"";" Metro: Gregorio Marañón (líneas 7, 10)  Bus: 9, 12, 16, 19, 51 ";"  Asuntos Culturales:    Teléfono: 915 907 612    Asuntos Consulares:    Teléfono: 915 907 614  ";"0";"http://www.madrid.es/vgn-ext-templating/v/index.jsp?vgnextchannel=9e4c43db40317010VgnVCM100000dc0ca8c0RCRD&vgnextoid=dda0f3216571c010VgnVCM1000000b205a0aRCRD";"SERRANO";"CALLE";"V";"109";"";"";"";"";"MADRID";"MADRID";"28006";"EL VISO";"CHAMARTIN";"441903";"4477009";"40.439821657447695";"-3.6863235687904945";"915 907 600";"915 901 321";"";"/contenido/entidadesYorganismos/OrganismosInternacionales/EmbajadasConsulados"; 
7897;"Embajada de Jordania";"";"  Atención telefónica:     de lunes a viernes de 9 a 15 horas  Sección consular: Atención al público de 9:30 a 12:30 horas  ";"";" Metro: Rubén Dario (línea 5), Gregorio Marañón (líneas 7, 10), Iglesia (línea 1)  Bus: 5, 7, 12, 14, 16, 27, 40, 45, 61, 147, 150 ";"";"0";"http://www.madrid.es/vgn-ext-templating/v/index.jsp?vgnextchannel=9e4c43db40317010VgnVCM100000dc0ca8c0RCRD&vgnextoid=60c0f3216571c010VgnVCM1000000b205a0aRCRD";"GENERAL MARTINEZ CAMPOS";"PASEO";"V";"41";"5ª";"";"";"";"MADRID";"MADRID";"28010";"ALMAGRO";"CHAMBERI";"441434";"4476510";"40.43529347333683";"-3.6918071274096853";"913 191 100 / 913 191 104";"913 082 536";"JORDANIA@telefonica.net";"/contenido/entidadesYorganismos/OrganismosInternacionales/EmbajadasConsulados"; 
47034;"Embajada de Kazajstán";"";"Atención telefónica de 9 a 13 y de 14:30 a 18:30 horas";"";"";"  Sección Consular:    Dirección: C/ Sotillo 10, 28043, Madrid  Teléfono: 917 216 294  Fax: 913 887 665  Horario: de 10 a 12:30 horas  ";"0";"http://www.madrid.es/vgn-ext-templating/v/index.jsp?vgnextchannel=9e4c43db40317010VgnVCM100000dc0ca8c0RCRD&vgnextoid=ee8b7589f451c010VgnVCM1000000b205a0aRCRD";"MADRO&Ntilde;OS";"AVENIDA";"V";"43";"";"";"";"";"MADRID";"MADRID";"28043";"PIOVERA";"HORTALEZA";"446107";"4478889";"40.45704137227561";"-3.6369167380676313";"917 216 290";"917 219 374";"embajada@kazesp.org";"/contenido/entidadesYorganismos/OrganismosInternacionales/EmbajadasConsulados"; 
4645157;"Embajada de Kenia";"";"";"";" Metro: Goya (línea 2, 4), Príncipe de Vergara (línea 2, 9), O'Donnell (línea 6)  Bus: 1, 2, 5, 9, 14, 15, 19, 20, 21, 27, 28, 45, 51, 52, 53, 74, 146, 150, 203 ";"";"0";"http://www.madrid.es/vgn-ext-templating/v/index.jsp?vgnextchannel=9e4c43db40317010VgnVCM100000dc0ca8c0RCRD&vgnextoid=68cc2c9577715110VgnVCM1000000b205a0aRCRD";"JORGE JUAN";"CALLE";"V";"9";"3º";"Derecha";"";"";"MADRID";"MADRID";"28001";"RECOLETOS";"SALAMANCA";"441871";"4475248";"40.42395548284646";"-3.686539501237153";"917 812 000";"915 760 854";"info@kenyaembassyspain.es";"/contenido/entidadesYorganismos/OrganismosInternacionales/EmbajadasConsulados"; 
7912;"Embajada de Kuwait";"";"  Atención al público de 9 a 15 horas  Sección Consular: de 9:30 a 14 horas  ";"";"Bus: 64, 82, 137";"";"0";"http://www.madrid.es/vgn-ext-templating/v/index.jsp?vgnextchannel=9e4c43db40317010VgnVCM100000dc0ca8c0RCRD&vgnextoid=f2d0f3216571c010VgnVCM1000000b205a0aRCRD";"MIRAFLORES";"AVENIDA";"V";"61";"";"";"";"";"MADRID";"MADRID";"28035";"CIUDAD UNIVERSITARIA";"MONCLOA-ARAVACA";"438002";"4480544";"40.47138397488284";"-3.7326629604627977";"913 869 666";"913 732 388";"";"/contenido/entidadesYorganismos/OrganismosInternacionales/EmbajadasConsulados"; 
7646811;"Embajada de la República Popular Democrática de Corea";"";"Atención telefónica de 10 a 13 y de 15 a 19 horas";"";" Bus: 161 ";"";"0";"http://www.madrid.es/vgn-ext-templating/v/index.jsp?vgnextchannel=9e4c43db40317010VgnVCM100000dc0ca8c0RCRD&vgnextoid=9427227be3d98410VgnVCM2000000c205a0aRCRD";"DARIO APARICIO";"CALLE";"V";"43";"";"";"";"";"MADRID";"MADRID";"28023";"VALDEMARIN";"MONCLOA-ARAVACA";"434763";"4480640";"40.472000264247036";"-3.7708788224251837";"913 078 776";"913 571 850";"rpdcemb2014@gmail.com";"/contenido/entidadesYorganismos/OrganismosInternacionales/EmbajadasConsulados"; 
21158;"Embajada de Letonia";"";"";"";" Metro: Atocha (línea 1), Atocha Renfe (línea 1)   Bus: 10, 14, 19, 27, 34, 37, 45, 203  Renfe: Atocha (líneas C-1, C-2, C-3, C-4, C-5, C-7, C-8, C-10) ";"";"0";"http://www.madrid.es/vgn-ext-templating/v/index.jsp?vgnextchannel=9e4c43db40317010VgnVCM100000dc0ca8c0RCRD&vgnextoid=5ebc7d448b51c010VgnVCM2000000c205a0aRCRD";"ALFONSO XII";"CALLE";"V";"52";"1ª";"";"";"";"MADRID";"MADRID";"28014";"LOS JERONIMOS";"RETIRO";"441649";"4473928";"40.41204869696047";"-3.6890350020966887";"913 691 362 / 913 691 383";"913 690 020";"LESPAN@telefonica.net";"/contenido/entidadesYorganismos/OrganismosInternacionales/EmbajadasConsulados"; 
7899;"Embajada de Libia";"";"  Atención al público de 9 a 15 horas  Sección Consular: de 10 a 13 horas  ";"";" Metro: Pío  XII  (línea 9)  Bus: 16, 29, 52, 70, 107, 150 ";"  Asuntos Culturales:    Dirección: C/ Rodríguez Marín 7, 28002, Madrid  ";"0";"http://www.madrid.es/vgn-ext-templating/v/index.jsp?vgnextchannel=9e4c43db40317010VgnVCM100000dc0ca8c0RCRD&vgnextoid=18f0f3216571c010VgnVCM1000000b205a0aRCRD";"COMANDANTE FRANCO";"AVENIDA";"V";"32";"";"";"";"";"MADRID";"MADRID";"28016";"NUEVA ESPAÑA";"CHAMARTIN";"443071";"4479894";"40.46589204245845";"-3.6728116655308303";"915 635 753 / 915 631 929";"915 643 986";"secretaria@embajadadelibia.com";"/contenido/entidadesYorganismos/OrganismosInternacionales/EmbajadasConsulados"; 
21161;"Embajada de Lituania";"";"  Atención presencial de lunes a viernes de 10 a 13 horas  Atención telefónica de lunes a viernes de 14 a 18 horas  ";"";" Metro: Concha Espina (línea 9)   Bus: 7, 14, 16, 19, 43, 51, 120, 150 ";"  Asuntos Consulares:    Teléfono: 917 022 118 / 913 102 075  Horario de atención al público: de 9 a 13 horas    Asuntos Políticos y Económicos:     Teléfono: 917 022 117  ";"0";"http://www.madrid.es/vgn-ext-templating/v/index.jsp?vgnextchannel=9e4c43db40317010VgnVCM100000dc0ca8c0RCRD&vgnextoid=e0dc7d448b51c010VgnVCM2000000c205a0aRCRD";"PISUERGA";"CALLE";"V";"5";"";"";"";"";"MADRID";"MADRID";"28002";"EL VISO";"CHAMARTIN";"442156";"4478062";"40.44932524408751";"-3.683436699515055";"917 022 116 / 917 022 118";"913 104 018";"administracija.es@urm.lt";"/contenido/entidadesYorganismos/OrganismosInternacionales/EmbajadasConsulados"; 
7915;"Embajada de Luxemburgo";"";"Atención al público de 9:30 a 13 horas";"";" Metro: Rubén Darío (línea 5), Núñez de Balboa (líneas 5, 9)   Bus: 1, 5, 9, 14, 19, 27, 45, 51, 74, 150 ";"";"0";"http://www.madrid.es/vgn-ext-templating/v/index.jsp?vgnextchannel=9e4c43db40317010VgnVCM100000dc0ca8c0RCRD&vgnextoid=aa01f3216571c010VgnVCM1000000b205a0aRCRD";"CLAUDIO COELLO";"CALLE";"V";"78";"1ª";"";"";"";"MADRID";"MADRID";"28001";"CASTELLANA";"SALAMANCA";"441957";"4475919";"40.43000619511413";"-3.685587151651725";"914 359 164";"915 774 826";"madrid.amb@mae.etat.lu";"/contenido/entidadesYorganismos/OrganismosInternacionales/EmbajadasConsulados"; 
7898;"Embajada de Líbano";"";"Atención al público de 9 a 14 horas";"";" Metro: Cuzco (línea 10), Plaza de Castilla (líneas 1, 9, 10)  Bus: 5, 11, 27, 40, 147, 149, 150 ";"";"0";"http://www.madrid.es/vgn-ext-templating/v/index.jsp?vgnextchannel=9e4c43db40317010VgnVCM100000dc0ca8c0RCRD&vgnextoid=85e0f3216571c010VgnVCM1000000b205a0aRCRD";"CASTELLANA";"PASEO";"V";"178";"2ª";"";"";"";"MADRID";"MADRID";"28046";"NUEVA ESPAÑA";"CHAMARTIN";"441685";"4479342";"40.4608230762265";"-3.689108497357059";"913 451 368 / 913 451 370";"913 455 631";"embalibano@gmail.com";"/contenido/entidadesYorganismos/OrganismosInternacionales/EmbajadasConsulados"; 
47049;"Embajada de Macedonia";"";"Atención al público de 9:30 a 17:30 horas";"";" Metro: Lista (línea 4), Manuel Becerra (líneas 2, 6)  Bus: 1, 2, 12, 21, 38, 43, 48, 53, 56, 71, 74, 106, 110, 143, 146, 156, 210, C1, C2 ";"";"0";"http://www.madrid.es/vgn-ext-templating/v/index.jsp?vgnextchannel=9e4c43db40317010VgnVCM100000dc0ca8c0RCRD&vgnextoid=71ab7589f451c010VgnVCM1000000b205a0aRCRD";"DON RAMON DE LA CRUZ";"CALLE";"V";"107";"2ª";"B";"";"";"MADRID";"MADRID";"28006";"LISTA";"SALAMANCA";"443179";"4475749";"40.42855928029001";"-3.6711662659882403";"915 717 298 ";"915 713 481";"emb.macedonia@gmail.com";"/contenido/entidadesYorganismos/OrganismosInternacionales/EmbajadasConsulados"; 
7916;"Embajada de Malasia";"";"Atención telefónica de 9 a 14 y de 15 a 17 horas";"";" Metro: Santiago Bernabeu (línea 10)  Bus: 14, 27, 40, 43, 120, 126, 147, 149, 150 ";"";"0";"http://www.madrid.es/vgn-ext-templating/v/index.jsp?vgnextchannel=9e4c43db40317010VgnVCM100000dc0ca8c0RCRD&vgnextoid=3d11f3216571c010VgnVCM1000000b205a0aRCRD";"CASTELLANA";"PASEO";"V";"91";"10ª";"";"";"";"MADRID";"MADRID";"28046";"CUATRO CAMINOS";"TETUAN";"441474";"4478203";"40.45054760721182";"-3.6914918179384366";"915 550 684 / 915 550 737";"915 555 208";"mwmadrid@kln.gov.my";"/contenido/entidadesYorganismos/OrganismosInternacionales/EmbajadasConsulados"; 
169920;"Embajada de Mali";"";"";"";" Metro: Núñez de Balboa (líneas 5, 9)  Bus: 1, 9, 19, 29, 51, 52, 74 ";"  Sección Consular:    Dirección: C/ Joaquín María López 11, 28015, Madrid  ";"0";"http://www.madrid.es/vgn-ext-templating/v/index.jsp?vgnextchannel=9e4c43db40317010VgnVCM100000dc0ca8c0RCRD&vgnextoid=58e6085f5181c010VgnVCM1000000b205a0aRCRD";"PADILLA";"CALLE";"V";"19";"5ª";"D";"";"";"MADRID";"MADRID";"28006";"CASTELLANA";"SALAMANCA";"442267";"4476088";"40.431550244387566";"-3.681948072550113";"917 817 212";"914 351 516";"info@embajadademali.es";"/contenido/entidadesYorganismos/OrganismosInternacionales/EmbajadasConsulados"; 
7965;"Embajada de Malta";"";"  Atención al público de 8:30 a 16:30 horas  Sección consular: de 9 a 14 horas  ";"";" Metro: Rubén Darío (línea 5), Gregorio Marañón (líneas 7, 10)  Bus: 5, 7, 9, 12, 14, 16, 19, 27, 40, 45, 51, 61, 147, 150 ";"";"0";"http://www.madrid.es/vgn-ext-templating/v/index.jsp?vgnextchannel=9e4c43db40317010VgnVCM100000dc0ca8c0RCRD&vgnextoid=cf21f3216571c010VgnVCM1000000b205a0aRCRD";"CASTELLANA";"PASEO";"V";"45";"6ª";"DCHA";"";"";"MADRID";"MADRID";"28046";"ALMAGRO";"CHAMBERI";"441615";"4476553";"40.43569358766222";"-3.689677189614338";"913 913 061";"913 913 066";"maltaembassy.madrid@gov.mt";"/contenido/entidadesYorganismos/OrganismosInternacionales/EmbajadasConsulados"; 
7900;"Embajada de Marruecos";"";"Atención al público de 9 a 15 horas";"";" Metro: Concha Espina (línea 9)  Bus: 7, 14, 16, 19, 43, 51, 120, 150 ";"  Agregaduría de Defensa:    Dirección: C/ Serrano 190, local A  ";"0";"http://www.madrid.es/vgn-ext-templating/v/index.jsp?vgnextchannel=9e4c43db40317010VgnVCM100000dc0ca8c0RCRD&vgnextoid=5241f3216571c010VgnVCM1000000b205a0aRCRD";"SERRANO";"CALLE";"V";"179";"";"";"";"";"MADRID";"MADRID";"28002";"EL VISO";"CHAMARTIN";"442196";"4478074";"40.44943613336201";"-3.682966115908703";"915 631 090";"915 617 887";"simafa1@infonegocio.com";"/contenido/entidadesYorganismos/OrganismosInternacionales/EmbajadasConsulados"; 
7901;"Embajada de Mauritania";"";"Atención telefónica de lunes a viernes de 9 a 16 horas";"";" Metro: Núñez de Balboa (líneas 5, 9), Rubén Darío (línea 5)  Bus: 1, 9, 19, 29, 51, 52, 61, 74 ";"";"0";"http://www.madrid.es/vgn-ext-templating/v/index.jsp?vgnextchannel=9e4c43db40317010VgnVCM100000dc0ca8c0RCRD&vgnextoid=e451f3216571c010VgnVCM1000000b205a0aRCRD";"VELAZQUEZ";"CALLE";"V";"90";"3ª";"";"";"";"MADRID";"MADRID";"28006";"CASTELLANA";"SALAMANCA";"442149";"4476185";"40.432415853369505";"-3.6833480016709497";"915 757 006 / 915 757 007";"914 359 531";"ambarim@embajadamauritania.es";"/contenido/entidadesYorganismos/OrganismosInternacionales/EmbajadasConsulados"; 
6327335;"Embajada de Moldavia";"";"Atención al público de 9:30 a 14 y de 15 a 17:30 horas";"";" Metro: Cuzco (línea 10), Plaza de Castilla (líneas 1, 9, 10)  Bus: 5, 11, 27, 40, 147, 149, 150 ";"";"0";"http://www.madrid.es/vgn-ext-templating/v/index.jsp?vgnextchannel=9e4c43db40317010VgnVCM100000dc0ca8c0RCRD&vgnextoid=f089749e94f95310VgnVCM2000000c205a0aRCRD";"CASTELLANA";"PASEO";"V";"178";"5ª";"D";"";"";"MADRID";"MADRID";"28046";"NUEVA ESPAÑA";"CHAMARTIN";"441685";"4479342";"40.4608230762265";"-3.689108497357059";"918 284 530";"918 285 366";"madrid@mfa.md";"/contenido/entidadesYorganismos/OrganismosInternacionales/EmbajadasConsulados"; 
20622;"Embajada de Mozambique";"";"Atención al público de 10 a 13 horas";"";" Metro: Núñez de Balboa (líneas 5, 9), Avenida de América (líneas 4, 6, 7, 9)  Bus: 9, 12, 16, 19, 51, 52, 61 ";"";"0";"http://www.madrid.es/vgn-ext-templating/v/index.jsp?vgnextchannel=9e4c43db40317010VgnVCM100000dc0ca8c0RCRD&vgnextoid=980d7d448b51c010VgnVCM2000000c205a0aRCRD";"VELAZQUEZ";"CALLE";"V";"109";"4ª";"derecha";"";"";"MADRID";"MADRID";"28006";"CASTELLANA";"SALAMANCA";"442146";"4476610";"40.436244249441806";"-3.683422131330002";"915 773 682 ";"915 776 705";"embamoc.madrid@hotmail.com";"/contenido/entidadesYorganismos/OrganismosInternacionales/EmbajadasConsulados"; 
7902;"Embajada de México";"";"Atención al público de 9 a 13 horas";"";" Metro: Sevilla (línea 2)  Bus: 1, 2, 3, 5, 9, 10, 14, 15, 20, 27, 34, 37, 45, 46, 51, 52, 53, 74, 146, 150, 203, M1, M2 ";"  Agregaduría Legal:    Dirección: C/ Manuel Gascón 7, 28043, Madrid  Teléfono: 917 633 692  Fax: 917 632 249    Sección Consular:    Teléfono: 913 693 021  Fax: 913 694 523    Agregaduría Comercial:    Teléfono: 914 202 017  Fax: 914 202 736    Agregaduría de Defensa:    Teléfono: 913 694 593  Fax: 913 694 593    Agregaduría Naval:    Teléfono: 913 690 210  ";"0";"http://www.madrid.es/vgn-ext-templating/v/index.jsp?vgnextchannel=9e4c43db40317010VgnVCM100000dc0ca8c0RCRD&vgnextoid=7761f3216571c010VgnVCM1000000b205a0aRCRD";"SAN JERONIMO";"CARRERA";"V";"46";"";"";"";"";"MADRID";"MADRID";"28014";"CORTES";"CENTRO";"440947";"4474378";"40.416052915045206";"-3.697350209582731";"913 692 814";"914 202 292";"embamex@embamex.es";"/contenido/entidadesYorganismos/OrganismosInternacionales/EmbajadasConsulados"; 
7958;"Embajada de Mónaco";"";"Atención telefónica de 10 a 14 horas";"";" Metro: Retiro (línea 2), Serrano (línea 4), Velázquez (línea 4)  Bus: 1, 2, 5, 9, 14, 15, 19, 20, 21, 27, 28, 37, 45, 51, 52, 53, 74, 146, 150, 203  Renfe: Recoletos (líneas C-1, C-2, C-7, C-8, C-10) ";"";"0";"http://www.madrid.es/vgn-ext-templating/v/index.jsp?vgnextchannel=9e4c43db40317010VgnVCM100000dc0ca8c0RCRD&vgnextoid=0a71f3216571c010VgnVCM1000000b205a0aRCRD";"VILLANUEVA";"CALLE";"V";"12";"Entreplanta";"A";"";"";"MADRID";"MADRID";"28001";"RECOLETOS";"SALAMANCA";"441682";"4475092";"40.42253690727054";"-3.6887530056505984";"915 782 048";"914 357 132";"emb.espana@gouv.mc";"/contenido/entidadesYorganismos/OrganismosInternacionales/EmbajadasConsulados"; 
7903;"Embajada de Nicaragua";"";"";"";" Metro: Cuzco (línea 10)  Bus: 5, 11, 27, 40, 126, 147, 149 ";"";"0";"http://www.madrid.es/vgn-ext-templating/v/index.jsp?vgnextchannel=9e4c43db40317010VgnVCM100000dc0ca8c0RCRD&vgnextoid=9c81f3216571c010VgnVCM1000000b205a0aRCRD";"CASTELLANA";"PASEO";"V";"127";"1ª";"B";"";"";"MADRID";"MADRID";"28046";"CASTILLEJOS";"TETUAN";"441482";"4479039";"40.45807922419812";"-3.6914746799471168";"914 171 649 / 678 902 884 (secretaría) / 654 011 895 (emergencias consulares)";"";"915970399@embanic.e.telefonica.net";"/contenido/entidadesYorganismos/OrganismosInternacionales/EmbajadasConsulados"; 
7904;"Embajada de Nigeria";"";"Atención telefónica de 10 a 14 horas";"";" Metro: Santiago Bernabéu (línea 10), Concha Espina (línea 9)  Bus: 7, 14, 43, 51, 120, 150 ";"";"0";"http://www.madrid.es/vgn-ext-templating/v/index.jsp?vgnextchannel=9e4c43db40317010VgnVCM100000dc0ca8c0RCRD&vgnextoid=2f91f3216571c010VgnVCM1000000b205a0aRCRD";"SEGRE";"CALLE";"V";"23";"";"";"";"";"MADRID";"MADRID";"28002";"EL VISO";"CHAMARTIN";"442039";"4478258";"40.4510827360727";"-3.684834280859274";"915 630 911 / 915 633 144 / 915 630 971";"914 116 700 / 915 636 320";"";"/contenido/entidadesYorganismos/OrganismosInternacionales/EmbajadasConsulados"; 
7905;"Embajada de Noruega";"";"  Atención presencial de 9 a 16:45 horas  Atención telefónica de 8:30 a 18 horas  ";"";" Metro: Colón (línea 4), Serrano (línea 4), Velázquez (línea 4)  Bus: 1, 5, 9, 14, 19, 21, 27, 37, 45, 51, 53, 74, 150  Renfe: Recoletos (líneas C-1, C-2, C-7, C-8, C-10) ";"  Asuntos Comerciales:    Dirección: Paseo de la Castellana 31, bajo, 28046, Madrid  Teléfono: 913 440 987  Fax: 913 440 947  E-mail:  Madrid@invanor.no   Página web:  www.invanor.no   ";"0";"http://www.madrid.es/vgn-ext-templating/v/index.jsp?vgnextchannel=9e4c43db40317010VgnVCM100000dc0ca8c0RCRD&vgnextoid=b1b1f3216571c010VgnVCM1000000b205a0aRCRD";"SERRANO";"CALLE";"V";"26";"5ª";"";"";"";"MADRID";"MADRID";"28001";"RECOLETOS";"SALAMANCA";"441757";"4475275";"40.42419072446144";"-3.687885754849206";"914 363 840";"914 363 879";"emb.madrid@mfa.no";"/contenido/entidadesYorganismos/OrganismosInternacionales/EmbajadasConsulados"; 
7956;"Embajada de Nueva Zelanda";"";"Atención telefónica de 10 a 13 horas";"";" Metro: Gregorio Marañón (líneas 7, 10), Rubén Darío (línea 5)  Bus: 5, 7, 9, 12, 14, 16, 19, 27, 40, 45, 51, 61, 147, 150 ";"";"0";"http://www.madrid.es/vgn-ext-templating/v/index.jsp?vgnextchannel=9e4c43db40317010VgnVCM100000dc0ca8c0RCRD&vgnextoid=44c1f3216571c010VgnVCM1000000b205a0aRCRD";"PINAR";"CALLE";"V";"7";"3ª";"";"";"";"MADRID";"MADRID";"28006";"CASTELLANA";"SALAMANCA";"441714";"4476726";"40.43725901018878";"-3.6885259218443536";"915 230 226";"915 230 171";"embnuevazelanda@telefonica.net";"/contenido/entidadesYorganismos/OrganismosInternacionales/EmbajadasConsulados"; 
4647536;"Embajada de Omán";"";"Atención telefónica de 9 a 15 horas";"";" Bus: 67, 83, 124, 125, 133, 178  Renfe: Ramón y Cajal (líneas C-3, C-7, C-8) ";"";"0";"http://www.madrid.es/vgn-ext-templating/v/index.jsp?vgnextchannel=9e4c43db40317010VgnVCM100000dc0ca8c0RCRD&vgnextoid=d4a9e5e47e125110VgnVCM1000000b205a0aRCRD";"CARDENAL HERRERA ORIA";"AVENIDA";"V";"138";"";"";"";"";"MADRID";"MADRID";"28034";"MIRASIERRA";"FUENCARRAL-EL PARDO";"440695";"4482519";"40.489372517911235";"-3.701082104378252";"917 364 445 ";"917 354 536";"oman.emb.madrid@gmail.com";"/contenido/entidadesYorganismos/OrganismosInternacionales/EmbajadasConsulados"; 
33199;"Embajada de Orden de Malta";"";"Atención telefónica de 11 a 14 horas";"";" Metro: Sevilla (línea 2)  Bus: 3, 5, 6, 9, 10, 14, 15, 20, 26, 27, 32, 34, 37, 45, 51, 52, 53, 150, 203, M1 ";"";"0";"http://www.madrid.es/vgn-ext-templating/v/index.jsp?vgnextchannel=9e4c43db40317010VgnVCM100000dc0ca8c0RCRD&vgnextoid=1fcd059cb751c010VgnVCM2000000c205a0aRCRD";"PRADO";"CALLE";"V";"26";"";"";"";"";"MADRID";"MADRID";"28014";"CORTES";"CENTRO";"440940";"4474283";"40.41519661129138";"-3.6974238757265696";"914 201 857";"914 201 942";"spainembassy@orderofmalta.int";"/contenido/entidadesYorganismos/OrganismosInternacionales/EmbajadasConsulados"; 
7907;"Embajada de Pakistán";"";"Atención telefónica de 9 a 15:30 horas";"";" Metro: Gregorio Marañón (líneas 7, 10)  Bus: 7, 9, 12, 14, 16, 19, 27, 40, 45, 51, 147, 150 ";"  Asuntos Comerciales:    Teléfono: 913 459 138 / 913 504 943  Fax: 913 504 946  E-mail:  comercio@embajada-pakistan.org   ";"0";"http://www.madrid.es/vgn-ext-templating/v/index.jsp?vgnextchannel=9e4c43db40317010VgnVCM100000dc0ca8c0RCRD&vgnextoid=69e1f3216571c010VgnVCM1000000b205a0aRCRD";"PEDRO DE VALDIVIA";"CALLE";"V";"16";"";"";"";"";"MADRID";"MADRID";"28006";"EL VISO";"CHAMARTIN";"441757";"4476932";"40.439117772919964";"-3.688037877468441";"913 458 986 / 913 458 995";"913 458 158";"cancilleria@embajada-pakistan.org";"/contenido/entidadesYorganismos/OrganismosInternacionales/EmbajadasConsulados"; 
6328329;"Embajada de Palestina";"";"Atención telefónica de 9:30 a 15 horas";"";" Metro: Pio XII (línea 9), Duque de Pastrana (línea 9)  Bus: 14, 16, 29, 70, 107, 129, 174 ";"";"0";"http://www.madrid.es/vgn-ext-templating/v/index.jsp?vgnextchannel=9e4c43db40317010VgnVCM100000dc0ca8c0RCRD&vgnextoid=44e4b589820a5310VgnVCM2000000c205a0aRCRD";"PIO XII";"AVENIDA";"V";"20";"";"";"";"";"MADRID";"MADRID";"28016";"NUEVA ESPAÑA";"CHAMARTIN";"442880";"4479892";"40.46586089008561";"-3.6750643047546445";"913 453 258 / 913 453 262";"913 454 287";"";"/contenido/entidadesYorganismos/OrganismosInternacionales/EmbajadasConsulados"; 
7908;"Embajada de Panamá";"";"Atención al público de 10 a 17 horas";"";" Metro: Rubén Darío (línea 5), Núñez de Balboa (líneas 5, 9)  Bus: 1, 5, 9, 14, 19, 27, 45, 51, 74, 150 ";"";"0";"http://www.madrid.es/vgn-ext-templating/v/index.jsp?vgnextchannel=9e4c43db40317010VgnVCM100000dc0ca8c0RCRD&vgnextoid=fbf1f3216571c010VgnVCM1000000b205a0aRCRD";"CLAUDIO COELLO";"CALLE";"V";"86";"BAJO";"DCHA";"";"";"MADRID";"MADRID";"28006";"CASTELLANA";"SALAMANCA";"441951";"4476021";"40.43092464104735";"-3.68566721558894";"915 765 001";"915 767 161";"";"/contenido/entidadesYorganismos/OrganismosInternacionales/EmbajadasConsulados"; 
7909;"Embajada de Paraguay";"";"Atención telefónica de 10 a 16 ahoras";"";" Metro: Santiago Bernabeu (línea 10), Cuzco (línea 10)  Bus: 5, 14, 27, 40, 120, 126, 147, 149, 150 ";"";"0";"http://www.madrid.es/vgn-ext-templating/v/index.jsp?vgnextchannel=9e4c43db40317010VgnVCM100000dc0ca8c0RCRD&vgnextoid=8e02f3216571c010VgnVCM1000000b205a0aRCRD";"DOCTOR FLEMING";"CALLE";"V";"3";"1ª";"";"";"";"MADRID";"MADRID";"28036";"HISPANOAMERICA";"CHAMARTIN";"441659";"4478688";"40.45492973148009";"-3.689354918832957";"914 572 456 / 913 082 746 (Sección Consular)    
";"914 570 924";"secretaria@embajadadelparaguay.es";"/contenido/entidadesYorganismos/OrganismosInternacionales/EmbajadasConsulados"; 
7906;"Embajada de Países Bajos (Holanda)";"";"Atención telefónica de 9 a 13:30 y de 14;30 a 17:30 horas";"";" Metro: Chamartín (líneas 1, 10), Begoña (línea 10)  Bus: 66, 67, 124, 134, 135, 147, 173, 174, 176, 178  Renfe: Chamartín (líneas C-1, C-2, C-3, C-4, C-7, C-8, C-10) ";"";"0";"http://www.madrid.es/vgn-ext-templating/v/index.jsp?vgnextchannel=9e4c43db40317010VgnVCM100000dc0ca8c0RCRD&vgnextoid=d6d1f3216571c010VgnVCM1000000b205a0aRCRD";"CASTELLANA";"PASEO";"V";"259";"36ª";"D";"";"";"MADRID";"MADRID";"28046";"LA PAZ";"FUENCARRAL-EL PARDO";"441832";"4481024";"40.475994573022675";"-3.687529382621041";"913 537 500";"913 537 565";"mad@minbuza.nl";"/contenido/entidadesYorganismos/OrganismosInternacionales/EmbajadasConsulados"; 
7910;"Embajada de Perú";"";"Atención al público de 9:30 a 18 horas";"";" Metro: Gregorio Marañón (líneas 7, 10), Rubén Darío (línea 5), Iglesia (línea 1)  Bus: 5, 7, 12, 14, 16, 27, 40, 45, 61, 147, 150 ";"  Agregaduría Militar:    Dirección: C/ Duque de Sesto 17, 5&ordm;-B, 28009, Madrid  Teléfono: 915 777 529  Fax: 915 777 529    Agregaduría Policial:    Dirección: C/ Velázquez 156, 4&ordm;, 28002, Madrid  Teléfono: 915 641 093  Fax: 915 641 093  ";"0";"http://www.madrid.es/vgn-ext-templating/v/index.jsp?vgnextchannel=9e4c43db40317010VgnVCM100000dc0ca8c0RCRD&vgnextoid=1122f3216571c010VgnVCM1000000b205a0aRCRD";"ZURBANO";"CALLE";"V";"70";"BAJA";"";"";"";"MADRID";"MADRID";"28010";"ALMAGRO";"CHAMBERI";"441336";"4476607";"40.43616037435248";"-3.6929714671099236";"914 314 242 / 914 314 315";"915 776 861";"lepru@embajadaperu.es";"/contenido/entidadesYorganismos/OrganismosInternacionales/EmbajadasConsulados"; 
7911;"Embajada de Polonia";"";"Atención telefónica de 9:30 a 16:30 horas";"";"Bus: 42, 64, 82, 137";"  Agregaduría Militar:    Teléfono: 913 160 027  Fax: 913 160 027    Sección Consular:    Dirección: C/ Goya 15, 4&ordf; planta  Teléfono: 914 362 632  Fax: 913 736 624  E-mail:  madryt.amb.wk@msz.gov.pl   Cita previa:  www.e-konsulat.gov.pl/Default.aspx   Cita previa telefónica: 914 362 757    Asuntos Comerciales:    Dirección: Avenida del Doctor Arce 25, 28002, Madrid  Teléfono: 915 901 280  Fax: 915 615 108  E-mail:  madrid@trade.gov.pl   ";"0";"http://www.madrid.es/vgn-ext-templating/v/index.jsp?vgnextchannel=9e4c43db40317010VgnVCM100000dc0ca8c0RCRD&vgnextoid=a332f3216571c010VgnVCM1000000b205a0aRCRD";"GUISANDO";"CALLE";"V";"23";"";"BIS";"";"";"MADRID";"MADRID";"28035";"CIUDAD UNIVERSITARIA";"MONCLOA-ARAVACA";"438194";"4480482";"40.470839792367705";"-3.7303921375730016";"913 736 605 ";"913 769 572";"madryt.amb.sekretariat@msz.gov.pl";"/contenido/entidadesYorganismos/OrganismosInternacionales/EmbajadasConsulados"; 
7917;"Embajada de Portugal";"";" Atención telefónica de 9:30 a 14 y de 16 a 18:30 horas ";"";" Metro: Núñez de Balboa (línea 5, 9), Serrano (línea 4), Velázquez (línea 4),  Bus: 1, 5, 9, 14, 19, 27, 45, 51, 74, 150 ";"  Asuntos Consulares:    Dirección: C/ Lagasca 88, 4&ordm;-C, 28001, Madrid  Teléfono: 915 773 585  Fax: 915 776 802  E-mail:  secretaria@madrid.dgaccp.pt     Agregaduría de Defensa:    Dirección: C/ Pinar 1, 28006, Madrid  Teléfono: 914 261 075 / 914 261 076  Fax: 914 261 078  E-mail:  agregdefensa@infonegocio.com     Consejería de Educación:    Dirección: C/ Lagasca 88, 4&ordm;-C, 28001, Madrid  Teléfono: 913 080 696  Fax: 913 080 732  E-mail:  cepe.espanha@camoens.mne.pt     Asuntos Comerciales:    Dirección: C/ Lagasca 88, 4&ordm;-C, 28001, Madrid  Teléfono: 917 617 200  Fax: 915 711 424  E-mail:  aicep.madrid@portugalglobal.pt     Asuntos de Turismo:    Dirección: C/ Lagasca 88, 4&ordm;-C, 28001, Madrid  Teléfono: 917 617 200 / 902 190 019  Fax: 915 711 424  E-mail:  edt.espanha@turismodeportugal.pt   ";"0";"http://www.madrid.es/vgn-ext-templating/v/index.jsp?vgnextchannel=9e4c43db40317010VgnVCM100000dc0ca8c0RCRD&vgnextoid=3642f3216571c010VgnVCM1000000b205a0aRCRD";"LAGASCA";"CALLE";"V";"88";"4ª";"A";"";"";"MADRID";"MADRID";"28001";"CASTELLANA";"SALAMANCA";"442027";"4475908";"40.42991199250328";"-3.6847609466814806";"917 824 960";"917 824 972";"madrid@mne.pt";"/contenido/entidadesYorganismos/OrganismosInternacionales/EmbajadasConsulados"; 
170151;"Embajada de Qatar";"";"";"";" Metro: Alonso Martínez (línea 5), Colón (línea 4), Serrano (línea 4)  Bus: 1, 5, 7, 9, 10, 14, 19, 21, 27, 37, 45, 51, 53, 74, 150 ";"";"0";"http://www.madrid.es/vgn-ext-templating/v/index.jsp?vgnextchannel=9e4c43db40317010VgnVCM100000dc0ca8c0RCRD&vgnextoid=c9eae0e1f181c010VgnVCM1000000b205a0aRCRD";"CASTELLANA";"PASEO";"V";"15";"5ª";"";"";"";"MADRID";"MADRID";"28046";"ALMAGRO";"CHAMBERI";"441565";"4475711";"40.42810493465899";"-3.690189111152576";"913 106 926";"913 104 851";"";"/contenido/entidadesYorganismos/OrganismosInternacionales/EmbajadasConsulados"; 
7883;"Embajada de Reino Unido de Gran Bretaña e Irlanda del Norte";"";"Atención telefónica de 8 a 20 horas";"";" Metro: Chamartín (líneas 1, 10)  Bus: 66, 67, 124, 134, 135, 137, 147, 173, 174, 176, 178  Renfe: Chamartín (líneas C-1, C-2, C-3, C-4, C-7, C-8, C-10) ";"";"0";"http://www.madrid.es/vgn-ext-templating/v/index.jsp?vgnextchannel=9e4c43db40317010VgnVCM100000dc0ca8c0RCRD&vgnextoid=c852f3216571c010VgnVCM1000000b205a0aRCRD";"CASTELLANA";"PASEO";"V";"259";"";"";"D";"Torre Espacio";"MADRID";"MADRID";"28046";"LA PAZ";"FUENCARRAL-EL PARDO";"441832";"4481024";"40.475994573022675";"-3.687529382621041";"917 146 300";"917 146 301";"";"/contenido/entidadesYorganismos/OrganismosInternacionales/EmbajadasConsulados"; 
7962;"Embajada de República Checa";"";"Atención al público de 10 a 12 horas";"";" Metro: Duque de Pastrana (línea 9), Pío XII (línea 9)  Bus: 14, 16, 29, 70, 107, 129, 150, 174 ";"  Asuntos Consulares:    Teléfono: 913 531 896 / 913 531 897  Fax: 913 531 898    Asuntos Económicos y Comerciales:    C/ Apolonio Morales 6, 305-A, 28036, Madrid  Teléfono: 915 718 615  Fax: 915 722 950  ";"0";"http://www.madrid.es/vgn-ext-templating/v/index.jsp?vgnextchannel=9e4c43db40317010VgnVCM100000dc0ca8c0RCRD&vgnextoid=5b62f3216571c010VgnVCM1000000b205a0aRCRD";"PIO XII";"AVENIDA";"V";"22";"";"";"";"";"MADRID";"MADRID";"28016";"NUEVA ESPAÑA";"CHAMARTIN";"442892";"4479929";"40.466195029254166";"-3.674926102930997";"913 531 880";"913 531 885";"madrid@embassy.mzv.cz";"/contenido/entidadesYorganismos/OrganismosInternacionales/EmbajadasConsulados"; 
7918;"Embajada de República Dominicana";"";"Atención al público de 10 a 17 horas";"";" Metro: Rubén Darío (línea 5), Núñez de Balboa (líneas 5, 9)  Bus: 1, 5, 7, 9, 14, 19, 27, 40, 45, 51, 74, 147, 150 ";"  Sección Consular:    Dirección: C/ Castelló, 25  Teléfono: 914 315 321  Fax: 915 761 168  Atención al público: lunes, martes, miércoles y viernes de 9 a 14:30 horas. Jueves de 9 a 18 horas    Otros correos electrónicos de contacto :    Oficrdes@infonegocio.com    embajada@embajadadominicana.es   ";"0";"http://www.madrid.es/vgn-ext-templating/v/index.jsp?vgnextchannel=9e4c43db40317010VgnVCM100000dc0ca8c0RCRD&vgnextoid=ed72f3216571c010VgnVCM1000000b205a0aRCRD";"CASTELLANA";"PASEO";"V";"30";"1ª";"DCHA";"";"";"MADRID";"MADRID";"28046";"CASTELLANA";"SALAMANCA";"441728";"4476095";"40.4315756465416";"-3.6883028978279473";"914 315 395";"914 358 139";"embrdes@infonegocio.com";"/contenido/entidadesYorganismos/OrganismosInternacionales/EmbajadasConsulados"; 
7919;"Embajada de Rumanía";"";"Atención telefónica de 9 a 14 y de 15 a 18 horas";"";" Metro: Colombia (líneas 8, 9), Pio XII (línea 9)  Bus: 7, 11, 14, 16, 29, 40, 51, 87, 150 ";"  Sección Consular:    Dirección: Avenida Cardenal Herrera Oria, 134  Teléfono: 917 344 004  Fax: 914 165 025  E-mail:  secretariado@consuladoderumania.e.telefonica.net   Atención telefónica de 9 a 17 horas  ";"0";"http://www.madrid.es/vgn-ext-templating/v/index.jsp?vgnextchannel=9e4c43db40317010VgnVCM100000dc0ca8c0RCRD&vgnextoid=7092f3216571c010VgnVCM1000000b205a0aRCRD";"ALFONSO XIII";"AVENIDA";"V";"157";"";"";"";"";"MADRID";"MADRID";"28016";"NUEVA ESPAÑA";"CHAMARTIN";"442595";"4479265";"40.46019291202317";"-3.6783690131760567";"913 501 881";"913 452 917";"secretariat@embajadaderumania.es";"/contenido/entidadesYorganismos/OrganismosInternacionales/EmbajadasConsulados"; 
7928;"Embajada de Rusia";"";"Atención telefónica de 9 a 14 y de 16 a 19 horas";"";" Metro: República Argentina (línea 6), Cruz del Rayo (línea 9)  Bus: 7, 16, 19, 51, C1, C2 ";"  Asuntos Consulares:    Dirección: C/ Joaquín Costa 33, 28002, Madrid  Teléfono: 914 112 957  Fax: 915 627 830  E-mail:  consm@arrakis.es   Página web:  http://www.rusmad.mid.ru/     Asuntos Comerciales:    Dirección: C/ Carbonero y Sol 2, 28002, Madrid  Teléfono: 915 624 449 / 914 111 900  Fax: 914 111 950  E-mail:  info@rusiaspain.com   Página web:  www.rusiaspain.com   ";"0";"http://www.madrid.es/vgn-ext-templating/v/index.jsp?vgnextchannel=9e4c43db40317010VgnVCM100000dc0ca8c0RCRD&vgnextoid=03a2f3216571c010VgnVCM1000000b205a0aRCRD";"VELAZQUEZ";"CALLE";"V";"155";"";"";"";"";"MADRID";"MADRID";"28002";"EL VISO";"CHAMARTIN";"442190";"4477553";"40.44474230586129";"-3.682989354938989";"915 622 264 / 914 110 807";"915 629 712";"embrues@infonegocio.com";"/contenido/entidadesYorganismos/OrganismosInternacionales/EmbajadasConsulados"; 
21162;"Embajada de San Marino";"";"";"";" Metro: Cruz del Rayo (línea 9), Prosperidad (línea 4), Avenida de América (líneas 4, 6, 7, 9)  Bus: 1, 9, 29, 52, 73, 114, 115, 122, 200, C1, C2 ";"";"0";"http://www.madrid.es/vgn-ext-templating/v/index.jsp?vgnextchannel=9e4c43db40317010VgnVCM100000dc0ca8c0RCRD&vgnextoid=06fc7d448b51c010VgnVCM2000000c205a0aRCRD";"PADRE JESUS ORDO&Ntilde;EZ";"CALLE";"V";"18";"3ª";"IZDA";"";"";"MADRID";"MADRID";"28002";"PROSPERIDAD";"CHAMARTIN";"442637";"4477184";"40.4414491973648";"-3.6776853227434083";"915 639 000";"915 631 931";"rsm_madrid@terra.es";"/contenido/entidadesYorganismos/OrganismosInternacionales/EmbajadasConsulados"; 
67679;"Embajada de Santa Sede (Nunciatura apostólica)";"";"Atención al público de 9:30 a 13:30 y de 16:30 a 18:30 horas";"";" Metro: Duque de Pastrana (línea 9)   Bus: 14, 16, 29, 70, 107, 129, 150, 174 ";"";"0";"http://www.madrid.es/vgn-ext-templating/v/index.jsp?vgnextchannel=9e4c43db40317010VgnVCM100000dc0ca8c0RCRD&vgnextoid=0763827a9e41c010VgnVCM2000000c205a0aRCRD";"PIO XII";"AVENIDA";"V";"46";"";"";"";"";"MADRID";"MADRID";"28016";"CASTILLA";"CHAMARTIN";"443029";"4480198";"40.4686277265949";"-3.673334399530984";"917 668 311";"917 667 085";"nunap@planalfa.es";"/contenido/entidadesYorganismos/OrganismosInternacionales/EmbajadasConsulados"; 
98181;"Embajada de Senegal";"";"Atención al público de 9 a 14 y de 15 a 17 horas";"";" Metro: Herrera Oria (línea 9)   Bus: 124, 133 ";"";"0";"http://www.madrid.es/vgn-ext-templating/v/index.jsp?vgnextchannel=9e4c43db40317010VgnVCM100000dc0ca8c0RCRD&vgnextoid=f6794f36ff81c010VgnVCM1000000b205a0aRCRD";"MORALZARZAL";"CALLE";"V";"18";"";"";"";"";"MADRID";"MADRID";"28034";"MIRASIERRA";"FUENCARRAL-EL PARDO";"440377";"4482518";"40.48934068749498";"-3.704834061611727";"917 451 003";"917 451 148";"917451148@repsenmadrid.e.telefonica.net";"/contenido/entidadesYorganismos/OrganismosInternacionales/EmbajadasConsulados"; 
127109;"Embajada de Serbia";"";"Atención al público de 9 a 16 horas";"";" Metro: Retiro (línea 2), Príncipe de Vergara (líneas 2, 9), Velázquez (línea 4), Serrano (línea 4)  Bus: 1, 2, 9, 15, 19, 20, 28, 51, 52, 74, 146, 203  Renfe: Recoletos (líneas C-1, C-2, C-7, C-8, C-10) ";"  Asuntos Consulares :   Teléfono: 915 626 040 / 915 635 045  E-mail:  asuntosconsulares@embajada-serbia.es   Atención telefónica de 11 a 14 horas  ";"0";"http://www.madrid.es/vgn-ext-templating/v/index.jsp?vgnextchannel=9e4c43db40317010VgnVCM100000dc0ca8c0RCRD&vgnextoid=16048899fc81c010VgnVCM1000000b205a0aRCRD";"VELAZQUEZ";"CALLE";"V";"3";"";"";"";"";"MADRID";"MADRID";"28001";"RECOLETOS";"SALAMANCA";"442030";"4474973";"40.42148926032306";"-3.6846401694200934";"915 635 045 / 915 635 046";"915 630 440";"office@embajada-serbia.es";"/contenido/entidadesYorganismos/OrganismosInternacionales/EmbajadasConsulados"; 
7921;"Embajada de Siria";"";"Atención telefónica de 9 a 15 horas";"";" Metro: Antón Martín (línea 1), Atocha (línea 1)  Bus: 6, 10, 14, 26, 27, 32, 34, 37, 45, 203 ";"";"0";"http://www.madrid.es/vgn-ext-templating/v/index.jsp?vgnextchannel=9e4c43db40317010VgnVCM100000dc0ca8c0RCRD&vgnextoid=95b2f3216571c010VgnVCM1000000b205a0aRCRD";"PLATERIA DE MARTINEZ";"PLAZA";"V";"1";"1ª";"";"";"";"MADRID";"MADRID";"28014";"CORTES";"CENTRO";"441250";"4473985";"40.412534061626864";"-3.6937426567779283";"914 203 946 / 914 201 602";"914 202 681";"";"/contenido/entidadesYorganismos/OrganismosInternacionales/EmbajadasConsulados"; 
7922;"Embajada de Sudáfrica";"";"  Atención al público de 8:30 a 16:30 horas  Verano de 8 a 15 horas  ";"";" Metro: Núñez de Balboa (líneas 5, 9), Rubén Darío (línea 5)  Bus: 1, 5, 9, 14, 19, 27, 51, 74, 150 ";"";"0";"http://www.madrid.es/vgn-ext-templating/v/index.jsp?vgnextchannel=9e4c43db40317010VgnVCM100000dc0ca8c0RCRD&vgnextoid=28c2f3216571c010VgnVCM1000000b205a0aRCRD";"CLAUDIO COELLO";"CALLE";"V";"91";"6ª y 7ª";"";"";"";"MADRID";"MADRID";"28006";"CASTELLANA";"SALAMANCA";"441931";"4475995";"40.43068902185026";"-3.6859006104054375";"914 363 780";"915 777 414 / 915 755 389 (Asuntos Comerciales)";"madrid.embassy@dirco.gov.za";"/contenido/entidadesYorganismos/OrganismosInternacionales/EmbajadasConsulados"; 
99100;"Embajada de Sudán";"";"Atención al público de 10 a 13 horas";"";" Metro: Cuzco (línea 10), Santiago Bernabeu (línea 10)  Bus: 5, 11, 27, 40, 126, 147, 149, 150 ";"";"0";"http://www.madrid.es/vgn-ext-templating/v/index.jsp?vgnextchannel=9e4c43db40317010VgnVCM100000dc0ca8c0RCRD&vgnextoid=89894f36ff81c010VgnVCM1000000b205a0aRCRD";"CASTELLANA";"PASEO";"V";"115";"2º";"IZDA";"";"";"MADRID";"MADRID";"28046";"CASTILLEJOS";"TETUAN";"441539";"4478901";"40.456840079926174";"-3.6907897197131576";"914 174 903 ";"915 972 516";"amb.ofc.sudan@gmail.com";"/contenido/entidadesYorganismos/OrganismosInternacionales/EmbajadasConsulados"; 
7923;"Embajada de Suecia";"";"Atención telefónica de 10 a 12:30 horas";"";" Metro: Rubén Darío (línea 5), Alonso Martínez (líneas 4, 5, 10)  Bus: 3, 5, 7, 14, 21, 27, 37, 40, 45, 147, 150 ";"  Asuntos Comerciales:    Dirección: C/ Alcalá 79, 1&ordm;-B, 28014, Madrid  Teléfono: 914 442 600  Fax: 915 933 445  E-mail:  www.swedistrade.se/spanien   Página web:  www.tradewithsweden.com   ";"0";"http://www.madrid.es/vgn-ext-templating/v/index.jsp?vgnextchannel=9e4c43db40317010VgnVCM100000dc0ca8c0RCRD&vgnextoid=bad2f3216571c010VgnVCM1000000b205a0aRCRD";"CARACAS";"CALLE";"V";"25";"";"";"";"";"MADRID";"MADRID";"28010";"ALMAGRO";"CHAMBERI";"441271";"4476002";"40.430705657103374";"-3.693681782399406";"917 022 000";"917 022 040 / 917 022 038 (Sección Consular)";"ambassaden.madrid@gov.se";"/contenido/entidadesYorganismos/OrganismosInternacionales/EmbajadasConsulados"; 
7924;"Embajada de Suiza";"";"Atención al público de 9 a 13 horas";"";" Metro: Serrano (línea 4), Príncipe de Vergara (líneas 2, 9), Goya (líneas 2, 4)  Bus: 1, 9, 15, 19, 21, 29, 51, 52, 53, 74, 146, 152 ";"  Agregaduría de Defensa:    Dirección: C/ Núñez de Balboa 35-A, 5&ordm;-B, 28001, Madrid  Teléfono: 914 363 981  Fax: 914 363 985  ";"0";"http://www.madrid.es/vgn-ext-templating/v/index.jsp?vgnextchannel=9e4c43db40317010VgnVCM100000dc0ca8c0RCRD&vgnextoid=4de2f3216571c010VgnVCM1000000b205a0aRCRD";"NU&Ntilde;EZ DE BALBOA";"CALLE";"V";"35";"7ª";"";"";"";"MADRID";"MADRID";"28001";"RECOLETOS";"SALAMANCA";"442183";"4475412";"40.42545465763344";"-3.682876737414012";"914 363 960";"914 363 980";"mad.vertretung@eda.admin.ch";"/contenido/entidadesYorganismos/OrganismosInternacionales/EmbajadasConsulados"; 
7925;"Embajada de Tailandia";"";"  Atención telefónica de 9 a 14 y de 15 a 17 horas  Sección Consular: de 9:30 a 13:30 horas  ";"";" Metro: República Argentina (línea 6), Cruz del Rayo (línea 9), Avenida de América (líneas 4, 6, 7, 9)  Bus: 7, 14, 16, 19, 51, C1, C2 ";"  Asuntos Comerciales:    Dirección: C/ Segre 29, 2&ordm;-A, 28002, Madrid  Teléfono: 915 630 190  Fax: 915 638 080  E-mail:  thaicom@codenif.com     Agregaduría de Defensa:    Dirección: C/ Joaquín Costa 29, 28002, Madrid  Teléfono: 914 114 285   Fax: 915 644 513  E-mail:  navymadrid@hotmail.com   ";"0";"http://www.madrid.es/vgn-ext-templating/v/index.jsp?vgnextchannel=9e4c43db40317010VgnVCM100000dc0ca8c0RCRD&vgnextoid=dff2f3216571c010VgnVCM1000000b205a0aRCRD";"JOAQUIN COSTA";"CALLE";"V";"29";"";"";"";"";"MADRID";"MADRID";"28002";"EL VISO";"CHAMARTIN";"441927";"4477697";"40.44602116044891";"-3.686103616175464";"915 632 903 / 915 637 959";"915 640 033 / 915 624 182";"madthai@temb.e.telefonica.net";"/contenido/entidadesYorganismos/OrganismosInternacionales/EmbajadasConsulados"; 
7927;"Embajada de Turquía";"";"Atención telefónica de lunes a viernes de 9 a 13 y de 15:30 a 18 horas";"";" Metro: Rubén Darío (línea 5), Iglesia (línea 1)  Bus: 3, 5, 7, 14, 16, 27, 40, 45, 61, 147, 150 ";"  Agregaduría Militar:    Dirección: C/ Rafael Calvo 18, 2&ordm; A/B, 28010, Madrid  Teléfono: 913 104 589  Fax: 913 086 195    Asuntos Comerciales:    Dirección: C/ Covarrubias 9, 4&ordm;-Dcha, 28010, Madrid  Teléfono: 913 104 999 / 913 082 551  Fax: 913 104 999    Consejería de Información:    Dirección: C/ Antonio Maura 18, 2&ordm;-D, 28014, mADRID  ";"0";"http://www.madrid.es/vgn-ext-templating/v/index.jsp?vgnextchannel=9e4c43db40317010VgnVCM100000dc0ca8c0RCRD&vgnextoid=f423f3216571c010VgnVCM1000000b205a0aRCRD";"RAFAEL CALVO";"CALLE";"V";"18";"2ª";"A/B";"";"";"MADRID";"MADRID";"28010";"ALMAGRO";"CHAMBERI";"441230";"4476352";"40.4338557188148";"-3.6941975411436756";"913 103 904";"913 086 602";"embajada.madrid@mfa.gov.tr";"/contenido/entidadesYorganismos/OrganismosInternacionales/EmbajadasConsulados"; 
7926;"Embajada de Túnez";"";"Atención al público de 9 a 15 horas";"";" Metro: Avenida de La Paz (línea 4)  Bus: 9, 40, 43, 72, 73, 120 ";"";"0";"http://www.madrid.es/vgn-ext-templating/v/index.jsp?vgnextchannel=9e4c43db40317010VgnVCM100000dc0ca8c0RCRD&vgnextoid=6213f3216571c010VgnVCM1000000b205a0aRCRD";"ALFONSO XIII";"AVENIDA";"V";"64";"";"";"66 - 68";"";"MADRID";"MADRID";"28016";"HISPANOAMERICA";"CHAMARTIN";"443557";"4478570";"40.45399804944703";"-3.6669613842875277";"914 473 508 / 914 473 512";"915 938 416";"madrid@embajadatunez.es";"/contenido/entidadesYorganismos/OrganismosInternacionales/EmbajadasConsulados"; 
127145;"Embajada de Ucrania";"";" Atención telefónica de 9 a 14 y de 15 a 18 horas ";"";"";"  Sección Consular:    Teléfono: 917 489 378  Fax: 917 590 328  E-mail:  consulvl@ya.com   Horario de atención al público: lunes, miércoles y viernes de 9 a 13:30 horas  ";"0";"http://www.madrid.es/vgn-ext-templating/v/index.jsp?vgnextchannel=9e4c43db40317010VgnVCM100000dc0ca8c0RCRD&vgnextoid=a8148899fc81c010VgnVCM1000000b205a0aRCRD";"ABUBILLA";"RONDA";"V";"52";"";"";"";"";"MADRID";"MADRID";"28043";"PIOVERA";"HORTALEZA";"446088";"4478689";"40.455238430865464";"-3.6371237934421803";"917 489 360          
";"913 887 178";"ucremb@ya.com";"/contenido/entidadesYorganismos/OrganismosInternacionales/EmbajadasConsulados"; 
7929;"Embajada de Uruguay";"";"Atención al público de 9 a 15 horas";"";" Metro: Ventura Rodríguez (línea 3)   Bus: 1, 2, 21, 44, 74, 133, C2 ";"  Agregaduría de Defensa:    Dirección: Paseo del Pintor Rosales 32, 8&ordm;-D  Teléfono: 915 424 030  ";"0";"http://www.madrid.es/vgn-ext-templating/v/index.jsp?vgnextchannel=9e4c43db40317010VgnVCM100000dc0ca8c0RCRD&vgnextoid=8733f3216571c010VgnVCM1000000b205a0aRCRD";"PINTOR ROSALES";"PASEO";"V";"32";"1ª";"D";"";"";"MADRID";"MADRID";"28008";"ARGUELLES";"MONCLOA-ARAVACA";"439046";"4475643";"40.42731127075027";"-3.7198769837485237";"917 580 475 ";"915 428 177";"urumatri@urumatri.com";"/contenido/entidadesYorganismos/OrganismosInternacionales/EmbajadasConsulados"; 
4650433;"Embajada de Uzbekistan";"";"";"";" Metro: Gregorio Marañón (líneas 7, 10), Rubén Darío (línea 5)  Bus: 5, 7, 9, 12, 14, 16, 19, 27, 40, 45, 51, 61, 147, 150 ";"";"0";"http://www.madrid.es/vgn-ext-templating/v/index.jsp?vgnextchannel=9e4c43db40317010VgnVCM100000dc0ca8c0RCRD&vgnextoid=2113a58d07b35110VgnVCM1000000b205a0aRCRD";"CASTELLANA";"PASEO";"V";"45";"4ª";"Dcha";"";"";"MADRID";"MADRID";"28046";"ALMAGRO";"CHAMBERI";"441615";"4476553";"40.43569358766222";"-3.689677189614338";"913 101 639 ";"913 103 123";"";"/contenido/entidadesYorganismos/OrganismosInternacionales/EmbajadasConsulados"; 
7930;"Embajada de Venezuela";"";" Atención telefónica de 9:30 a 15 horas ";"";" Metro: Santiago Bernabéu (línea 10)  Bus: 1, 5, 14, 27, 40, 43, 120, 126, 147, 149, 150 ";"";"0";"http://www.madrid.es/vgn-ext-templating/v/index.jsp?vgnextchannel=9e4c43db40317010VgnVCM100000dc0ca8c0RCRD&vgnextoid=1a43f3216571c010VgnVCM1000000b205a0aRCRD";"CAPITAN HAYA";"CALLE";"V";"1";"13";"";"";"Edificio Eurocentro";"MADRID";"MADRID";"28020";"CUATRO CAMINOS";"TETUAN";"441361";"4478506";"40.453269184872156";"-3.6928523641457414";"915 981 200 / 915 558 460 (Agregaduría de Defensa)";"915 971 583";"";"/contenido/entidadesYorganismos/OrganismosInternacionales/EmbajadasConsulados"; 
4650495;"Embajada de Vietnam";"";"Atención telefónica de 9 a 13 y de 15 a 17 horas";"";" Metro: Pío XII (línea 9), Colombia (líneas 8, 9)  Bus: 9, 40, 43, 72, 73, 120 ";"  Asuntos Comerciales:    Dirección: Paseo de la Castellana 166, 2&ordm;-Izda., 28046, Madrid  Teléfono: 913 450 519  ";"0";"http://www.madrid.es/vgn-ext-templating/v/index.jsp?vgnextchannel=9e4c43db40317010VgnVCM100000dc0ca8c0RCRD&vgnextoid=699857d379b35110VgnVCM1000000b205a0aRCRD";"ALFONSO XIII";"AVENIDA";"V";"54";"";"";"";"";"MADRID";"MADRID";"28016";"HISPANOAMERICA";"CHAMARTIN";"443537";"4478451";"40.452924678868975";"-3.6671866371177564";"915 102 867";"914 157 067";"claudiomes@yahoo.com";"/contenido/entidadesYorganismos/OrganismosInternacionales/EmbajadasConsulados"; 
99108;"Embajada de Yemen";"";"Atención al público de 9 a 15 horas";"";" Metro: Cuzco (línea 10)  Bus: 5, 11, 27, 40, 126, 147, 149 ";"";"0";"http://www.madrid.es/vgn-ext-templating/v/index.jsp?vgnextchannel=9e4c43db40317010VgnVCM100000dc0ca8c0RCRD&vgnextoid=aea94f36ff81c010VgnVCM1000000b205a0aRCRD";"CASTELLANA";"PASEO";"V";"117";"8ª";"D";"";"";"MADRID";"MADRID";"28046";"CASTILLEJOS";"TETUAN";"441541";"4478924";"40.45704741484934";"-3.6907682552679417";"914 119 950";"915 623 865 / 637 864 047";"secretaria@embyemenesp.com";"/contenido/entidadesYorganismos/OrganismosInternacionales/EmbajadasConsulados"; 

